"STATION","DATE","REPORT_TYPE","SOURCE","AWND","BackupDirection","BackupDistance","BackupDistanceUnit","BackupElements","BackupElevation","BackupElevationUnit","BackupEquipment","BackupLatitude","BackupLongitude","BackupName","CDSD","CLDD","DSNW","DYHF","DYTS","DailyAverageDewPointTemperature","DailyAverageDryBulbTemperature","DailyAverageRelativeHumidity","DailyAverageSeaLevelPressure","DailyAverageStationPressure","DailyAverageWetBulbTemperature","DailyAverageWindSpeed","DailyCoolingDegreeDays","DailyDepartureFromNormalAverageTemperature","DailyHeatingDegreeDays","DailyMaximumDryBulbTemperature","DailyMinimumDryBulbTemperature","DailyPeakWindDirection","DailyPeakWindSpeed","DailyPrecipitation","DailySnowDepth","DailySnowfall","DailySustainedWindDirection","DailySustainedWindSpeed","DailyWeather","HDSD","HTDD","HourlyAltimeterSetting","HourlyDewPointTemperature","HourlyDryBulbTemperature","HourlyPrecipitation","HourlyPresentWeatherType","HourlyPressureChange","HourlyPressureTendency","HourlyRelativeHumidity","HourlySeaLevelPressure","HourlySkyConditions","HourlyStationPressure","HourlyVisibility","HourlyWetBulbTemperature","HourlyWindDirection","HourlyWindGustSpeed","HourlyWindSpeed","MonthlyAverageRH","MonthlyDaysWithGT001Precip","MonthlyDaysWithGT010Precip","MonthlyDaysWithGT32Temp","MonthlyDaysWithGT90Temp","MonthlyDaysWithLT0Temp","MonthlyDaysWithLT32Temp","MonthlyDepartureFromNormalAverageTemperature","MonthlyDepartureFromNormalCoolingDegreeDays","MonthlyDepartureFromNormalHeatingDegreeDays","MonthlyDepartureFromNormalMaximumTemperature","MonthlyDepartureFromNormalMinimumTemperature","MonthlyDepartureFromNormalPrecipitation","MonthlyDewpointTemperature","MonthlyGreatestPrecip","MonthlyGreatestPrecipDate","MonthlyGreatestSnowDepth","MonthlyGreatestSnowDepthDate","MonthlyGreatestSnowfall","MonthlyGreatestSnowfallDate","MonthlyMaxSeaLevelPressureValue","MonthlyMaxSeaLevelPressureValueDate","MonthlyMaxSeaLevelPressureValueTime","MonthlyMaximumTemperature","MonthlyMeanTemperature","MonthlyMinSeaLevelPressureValue","MonthlyMinSeaLevelPressureValueDate","MonthlyMinSeaLevelPressureValueTime","MonthlyMinimumTemperature","MonthlySeaLevelPressure","MonthlyStationPressure","MonthlyTotalLiquidPrecipitation","MonthlyTotalSnowfall","MonthlyWetBulb","NormalsCoolingDegreeDay","NormalsHeatingDegreeDay","REM","REPORT_TYPE","SOURCE","ShortDurationEndDate005","ShortDurationEndDate010","ShortDurationEndDate015","ShortDurationEndDate020","ShortDurationEndDate030","ShortDurationEndDate045","ShortDurationEndDate060","ShortDurationEndDate080","ShortDurationEndDate100","ShortDurationEndDate120","ShortDurationEndDate150","ShortDurationEndDate180","ShortDurationPrecipitationValue005","ShortDurationPrecipitationValue010","ShortDurationPrecipitationValue015","ShortDurationPrecipitationValue020","ShortDurationPrecipitationValue030","ShortDurationPrecipitationValue045","ShortDurationPrecipitationValue060","ShortDurationPrecipitationValue080","ShortDurationPrecipitationValue100","ShortDurationPrecipitationValue120","ShortDurationPrecipitationValue150","ShortDurationPrecipitationValue180","Sunrise","Sunset","WindEquipmentChangeDate"
"72793524234","2022-09-01T00:53:00","FM-15","7",,,,,,,,,,,,,,,,,,,,,,,,,,,,,,,,,,,,,,,"30.01","58","61","0.00",,"-0.02","3","90","30.01","CLR:00","29.98","10.00","59","180",,"7",,,,,,,,,,,,,,,,,,,,,,,,,,,,,,,,,,,,,"MET10109/01/22 00:53:02 METAR KBFI 010853Z 18006KT 10SM CLR 16/14 A3001 RMK AO2 SLP163 T01610144 53007 (MB)","FM-15","7",,,,,,,,,,,,,,,,,,,,,,,,,,,"2007-05-17"
"72793524234","2022-09-01T01:51:00","FM-16","6",,,,,,,,,,,,,,,,,,,,,,,,,,,,,,,,,,,,,,,"30.02","57","61",,,,,"88",,"SCT:04 11 BKN:07 16","29.99","10.00","59","170",,"5",,,,,,,,,,,,,,,,,,,,,,,,,,,,,,,,,,,,,"MET09309/01/22 01:51:02 SPECI KBFI 010951Z 17004KT 10SM SCT011 BKN016 16/14 A3002 RMK AO2 FIBI (MB)","FM-16","6",,,,,,,,,,,,,,,,,,,,,,,,,,,"2007-05-17"
"72793524234","2022-09-01T01:53:00","FM-15","7",,,,,,,,,,,,,,,,,,,,,,,,,,,,,,,,,,,,,,,"30.02","58","61","0.00",,,,"90","30.02","SCT:04 11 BKN:07 16","29.99","10.00","59","180",,"5",,,,,,,,,,,,,,,,,,,,,,,,,,,,,,,,,,,,,"MET10509/01/22 01:53:02 METAR KBFI 010953Z 18004KT 10SM SCT011 BKN016 16/14 A3002 RMK AO2 SLP166 T01610144 (MB)","FM-15","7",,,,,,,,,,,,,,,,,,,,,,,,,,,"2007-05-17"
"72793524234","2022-09-01T02:51:00","FM-16","6",,,,,,,,,,,,,,,,,,,,,,,,,,,,,,,,,,,,,,,"30.02","57","61",,,,,"88",,"OVC:08 10","29.99","10.00","59","190",,"6",,,,,,,,,,,,,,,,,,,,,,,,,,,,,,,,,,,,,"MET08609/01/22 02:51:02 SPECI KBFI 011051Z 19005KT 10SM OVC010 16/14 A3002 RMK AO2 FIBI (MB)","FM-16","6",,,,,,,,,,,,,,,,,,,,,,,,,,,"2007-05-17"
"72793524234","2022-09-01T02:53:00","FM-15","7",,,,,,,,,,,,,,,,,,,,,,,,,,,,,,,,,,,,,,,"30.02","58","61","0.00",,,,"90","30.02","OVC:08 10","29.99","10.00","59","180",,"6",,,,,,,,,,,,,,,,,,,,,,,,,,,,,,,,,,,,,"MET09809/01/22 02:53:02 METAR KBFI 011053Z 18005KT 10SM OVC010 16/14 A3002 RMK AO2 SLP166 T01610144 (MB)","FM-15","7",,,,,,,,,,,,,,,,,,,,,,,,,,,"2007-05-17"
"72793524234","2022-09-01T03:53:00","FM-15","7",,,,,,,,,,,,,,,,,,,,,,,,,,,,,,,,,,,,,,,"30.02","58","60","0.00",,"+0.00","8","93","30.02","OVC:08 10","29.99","10.00","59","190",,"6",,,,,,,,,,,,,,,,,,,,,,,,,,,,,,,,,,,,,"MET11609/01/22 03:53:02 METAR KBFI 011153Z 19005KT 10SM OVC010 16/14 A3002 RMK AO2 SLP165 T01560144 10183 20156 58001 (MB)","FM-15","7",,,,,,,,,,,,,,,,,,,,,,,,,,,"2007-05-17"
"72793524234","2022-09-01T04:48:00","FM-16","7",,,,,,,,,,,,,,,,,,,,,,,,,,,,,,,,,,,,,,,"30.02","57","61",,,,,"88",,"OVC:08 8","29.99","10.00","59","170",,"5",,,,,,,,,,,,,,,,,,,,,,,,,,,,,,,,,,,,,"MET08109/01/22 04:48:02 SPECI KBFI 011248Z 17004KT 10SM OVC008 16/14 A3002 RMK AO2 (MB)","FM-16","7",,,,,,,,,,,,,,,,,,,,,,,,,,,"2007-05-17"
"72793524234","2022-09-01T04:53:00","FM-15","7",,,,,,,,,,,,,,,,,,,,,,,,,,,,,,,,,,,,,,,"30.02","58","60","0.00",,,,"93","30.02","OVC:08 8","29.99","10.00","59","170",,"8",,,,,,,,,,,,,,,,,,,,,,,,,,,,,,,,,,,,,"MET09809/01/22 04:53:02 METAR KBFI 011253Z 17007KT 10SM OVC008 16/14 A3002 RMK AO2 SLP165 T01560144 (MB)","FM-15","7",,,,,,,,,,,,,,,,,,,,,,,,,,,"2007-05-17"
"72793524234","2022-09-01T05:53:00","FM-15","7",,,,,,,,,,,,,,,,,,,,,,,,,,,,,,,,,,,,,,,"30.03","58","60","0.00",,,,"93","30.03","OVC:08 8","30.00","10.00","59","210",,"3",,,,,,,,,,,,,,,,,,,,,,,,,,,,,,,,,,,,,"MET09809/01/22 05:53:02 METAR KBFI 011353Z 21003KT 10SM OVC008 16/14 A3003 RMK AO2 SLP170 T01560144 (MB)","FM-15","7",,,,,,,,,,,,,,,,,,,,,,,,,,,"2007-05-17"
"72793524234","2022-09-01T06:53:00","FM-15","7",,,,,,,,,,,,,,,,,,,,,,,,,,,,,,,,,,,,,,,"30.05","58","60","0.00",,"-0.03","3","93","30.05","OVC:08 8","30.02","10.00","59","VRB",,"3",,,,,,,,,,,,,,,,,,,,,,,,,,,,,,,,,,,,,"MET10409/01/22 06:53:02 METAR KBFI 011453Z VRB03KT 10SM OVC008 16/14 A3005 RMK AO2 SLP175 T01560144 53010 (MB)","FM-15","7",,,,,,,,,,,,,,,,,,,,,,,,,,,"2007-05-17"
"72793524234","2022-09-01T07:53:00","FM-15","7",,,,,,,,,,,,,,,,,,,,,,,,,,,,,,,,,,,,,,,"30.06","58","61","0.00",,,,"90","30.06","OVC:08 8","30.03","10.00","59","240",,"5",,,,,,,,,,,,,,,,,,,,,,,,,,,,,,,,,,,,,"MET09809/01/22 07:53:02 METAR KBFI 011553Z 24004KT 10SM OVC008 16/14 A3006 RMK AO2 SLP179 T01610144 (MB)","FM-15","7",,,,,,,,,,,,,,,,,,,,,,,,,,,"2007-05-17"
"72793524234","2022-09-01T08:53:00","FM-15","7",,,,,,,,,,,,,,,,,,,,,,,,,,,,,,,,,,,,,,,"30.07","59","61","0.00",,,,"93","30.06","OVC:08 6","30.04","10.00","60","200",,"5",,,,,,,,,,,,,,,,,,,,,,,,,,,,,,,,,,,,,"MET09809/01/22 08:53:02 METAR KBFI 011653Z 20004KT 10SM OVC006 16/15 A3007 RMK AO2 SLP181 T01610150 (MB)","FM-15","7",,,,,,,,,,,,,,,,,,,,,,,,,,,"2007-05-17"
"72793524234","2022-09-01T09:53:00","FM-15","7",,,,,,,,,,,,,,,,,,,,,,,,,,,,,,,,,,,,,,,"30.07","58","62","0.00",,"-0.02","1","86","30.06","OVC:08 9","30.04","10.00","60","VRB",,"3",,,,,,,,,,,,,,,,,,,,,,,,,,,,,,,,,,,,,"MET11609/01/22 09:53:02 METAR KBFI 011753Z VRB03KT 10SM OVC009 17/14 A3007 RMK AO2 SLP181 T01670144 10167 20156 51006 (JP)","FM-15","7",,,,,,,,,,,,,,,,,,,,,,,,,,,"2007-05-17"
"72793524234","2022-09-01T10:53:00","FM-15","7",,,,,,,,,,,,,,,,,,,,,,,,,,,,,,,,,,,,,,,"30.05","59","63","0.00",,,,"87","30.05","OVC:08 9","30.02","10.00","61","VRB",,"3",,,,,,,,,,,,,,,,,,,,,,,,,,,,,,,,,,,,,"MET09809/01/22 10:53:02 METAR KBFI 011853Z VRB03KT 10SM OVC009 17/15 A3005 RMK AO2 SLP177 T01720150 (JP)","FM-15","7",,,,,,,,,,,,,,,,,,,,,,,,,,,"2007-05-17"
"72793524234","2022-09-01T11:21:00","FM-16","7",,,,,,,,,,,,,,,,,,,,,,,,,,,,,,,,,,,,,,,"30.04","59","64",,,,,"84",,"OVC:08 12","30.01","10.00","61","190",,"6",,,,,,,,,,,,,,,,,,,,,,,,,,,,,,,,,,,,,"MET09109/01/22 11:21:02 SPECI KBFI 011921Z 19005KT 10SM OVC012 18/15 A3004 RMK AO2 T01780150 (KB)","FM-16","7",,,,,,,,,,,,,,,,,,,,,,,,,,,"2007-05-17"
"72793524234","2022-09-01T11:53:00","FM-15","7",,,,,,,,,,,,,,,,,,,,,,,,,,,,,,,,,,,,,,,"30.04","59","65","0.00",,,,"81","30.04","OVC:08 13","30.01","10.00","61","220",,"3",,,,,,,,,,,,,,,,,,,,,,,,,,,,,,,,,,,,,"MET09809/01/22 11:53:02 METAR KBFI 011953Z 22003KT 10SM OVC013 18/15 A3004 RMK AO2 SLP172 T01830150 (KB)","FM-15","7",,,,,,,,,,,,,,,,,,,,,,,,,,,"2007-05-17"
"72793524234","2022-09-01T12:22:00","FM-16","7",,,,,,,,,,,,,,,,,,,,,,,,,,,,,,,,,,,,,,,"30.03","59","67",,,,,"76",,"BKN:07 15","30.00","9.00","62","180",,"3",,,,,,,,,,,,,,,,,,,,,,,,,,,,,,,,,,,,,"MET09009/01/22 12:22:02 SPECI KBFI 012022Z 18003KT 9SM BKN015 19/15 A3003 RMK AO2 T01940150 (KB)","FM-16","7",,,,,,,,,,,,,,,,,,,,,,,,,,,"2007-05-17"
"72793524234","2022-09-01T12:29:00","FM-16","7",,,,,,,,,,,,,,,,,,,,,,,,,,,,,,,,,,,,,,,"30.03","60","68",,,,,"76",,"OVC:08 13","30.00","9.00","63","000",,"0",,,,,,,,,,,,,,,,,,,,,,,,,,,,,,,,,,,,,"MET10509/01/22 12:29:02 SPECI KBFI 012029Z 00000KT 9SM OVC013 20/16 A3003 RMK AO2 T02000156 (KB) T01940150 (KB)","FM-16","7",,,,,,,,,,,,,,,,,,,,,,,,,,,"2007-05-17"
"72793524234","2022-09-01T12:51:00","FM-16","6",,,,,,,,,,,,,,,,,,,,,,,,,,,,,,,,,,,,,,,"30.02","61","70",,,,,"73",,"OVC:08 17","29.99","10.00","65","VRB",,"3",,,,,,,,,,,,,,,,,,,,,,,,,,,,,,,,,,,,,"MET08609/01/22 12:51:02 SPECI KBFI 012051Z VRB03KT 10SM OVC017 21/16 A3002 RMK AO2 FIBI (KB)","FM-16","6",,,,,,,,,,,,,,,,,,,,,,,,,,,"2007-05-17"
"72793524234","2022-09-01T12:53:00","FM-15","7",,,,,,,,,,,,,,,,,,,,,,,,,,,,,,,,,,,,,,,"30.02","60","69","0.00",,"+0.05","8","73","30.01","OVC:08 17","29.99","10.00","64","000",,"0",,,,,,,,,,,,,,,,,,,,,,,,,,,,,,,,,,,,,"MET10409/01/22 12:53:02 METAR KBFI 012053Z 00000KT 10SM OVC017 21/16 A3002 RMK AO2 SLP164 T02060156 58017 (KB)","FM-15","7",,,,,,,,,,,,,,,,,,,,,,,,,,,"2007-05-17"
"72793524234","2022-09-01T13:00:00","FM-16","7",,,,,,,,,,,,,,,,,,,,,,,,,,,,,,,,,,,,,,,"30.01","59","69",,,,,"70",,"CLR:00","29.98","10.00","63","VRB",,"3",,,,,,,,,,,,,,,,,,,,,,,,,,,,,,,,,,,,,"MET08809/01/22 13:00:02 SPECI KBFI 012100Z VRB03KT 10SM CLR 21/15 A3001 RMK AO2 T02060150 (KB)","FM-16","7",,,,,,,,,,,,,,,,,,,,,,,,,,,"2007-05-17"
"72793524234","2022-09-01T13:53:00","FM-15","7",,,,,,,,,,,,,,,,,,,,,,,,,,,,,,,,,,,,,,,"29.99","60","74","0.00",,,,"62","29.99","CLR:00","29.96","10.00","65","250",,"3",,,,,,,,,,,,,,,,,,,,,,,,,,,,,,,,,,,,,"MET09509/01/22 13:53:02 METAR KBFI 012153Z 25003KT 10SM CLR 23/16 A2999 RMK AO2 SLP155 T02330156 (KB)","FM-15","7",,,,,,,,,,,,,,,,,,,,,,,,,,,"2007-05-17"
"72793524234","2022-09-01T14:53:00","FM-15","7",,,,,,,,,,,,,,,,,,,,,,,,,,,,,,,,,,,,,,,"29.96","60","76","0.00",,,,"58","29.96","CLR:00","29.93","10.00","66","310",,"5",,,,,,,,,,,,,,,,,,,,,,,,,,,,,,,,,,,,,"MET09509/01/22 14:53:02 METAR KBFI 012253Z 31004KT 10SM CLR 24/16 A2996 RMK AO2 SLP145 T02440156 (KB)","FM-15","7",,,,,,,,,,,,,,,,,,,,,,,,,,,"2007-05-17"
"72793524234","2022-09-01T15:53:00","FM-15","7",,,,,,,,,,,,,,,,,,,,,,,,,,,,,,,,,,,,,,,"29.94","60","76","0.00",,"+0.08","6","58","29.94","CLR:00","29.91","10.00","66","260",,"5",,,,,,,,,,,,,,,,,,,,,,,,,,,,,,,,,,,,,"MET11309/01/22 15:53:02 METAR KBFI 012353Z 26004KT 10SM CLR 24/16 A2994 RMK AO2 SLP139 T02440156 10250 20167 56026 (KB)","FM-15","7",,,,,,,,,,,,,,,,,,,,,,,,,,,"2007-05-17"
"72793524234","2022-09-01T16:53:00","FM-15","7",,,,,,,,,,,,,,,,,,,,,,,,,,,,,,,,,,,,,,,"29.92","60","76","0.00",,,,"58","29.92","CLR:00","29.89","10.00","66","300",,"7",,,,,,,,,,,,,,,,,,,,,,,,,,,,,,,,,,,,,"MET09009/01/22 16:53:01 METAR KBFI 020053Z 30006KT 10SM CLR 24/16 A2992 RMK AO2 SLP133 T02440156","FM-15","7",,,,,,,,,,,,,,,,,,,,,,,,,,,"2007-05-17"
"72793524234","2022-09-01T17:53:00","FM-15","7",,,,,,,,,,,,,,,,,,,,,,,,,,,,,,,,,,,,,,,"29.91","60","74","0.00",,,,"62","29.91","CLR:00","29.88","10.00","65","310",,"3",,,,,,,,,,,,,,,,,,,,,,,,,,,,,,,,,,,,,"MET09009/01/22 17:53:01 METAR KBFI 020153Z 31003KT 10SM CLR 23/16 A2991 RMK AO2 SLP127 T02330156","FM-15","7",,,,,,,,,,,,,,,,,,,,,,,,,,,"2007-05-17"
"72793524234","2022-09-01T18:53:00","FM-15","7",,,,,,,,,,,,,,,,,,,,,,,,,,,,,,,,,,,,,,,"29.90","59","70","0.00",,"+0.04","6","68","29.90","CLR:00","29.87","10.00","63","320",,"5",,,,,,,,,,,,,,,,,,,,,,,,,,,,,,,,,,,,,"MET09609/01/22 18:53:01 METAR KBFI 020253Z 32004KT 10SM CLR 21/15 A2990 RMK AO2 SLP124 T02110150 56014","FM-15","7",,,,,,,,,,,,,,,,,,,,,,,,,,,"2007-05-17"
"72793524234","2022-09-01T19:53:00","FM-15","4",,,,,,,,,,,,,,,,,,,,,,,,,,,,,,,,,,,,,,,"29.91","58","68",,,,,"70","29.90",,,"10.00",,"320",,"3",,,,,,,,,,,,,,,,,,,,,,,,,,,,,,,,,,,,,"MET073METAR KBFI 020353Z 32003KT 10SM CLR 20/14 A2991 RMK AO2 SLP126 T02000144=","FM-15","4",,,,,,,,,,,,,,,,,,,,,,,,,,,"2007-05-17"
"72793524234","2022-09-01T20:53:00","FM-15","4",,,,,,,,,,,,,,,,,,,,,,,,,,,,,,,,,,,,,,,"29.90","57","66",,,,,"73","29.90",,,"10.00",,"340",,"5",,,,,,,,,,,,,,,,,,,,,,,,,,,,,,,,,,,,,"MET073METAR KBFI 020453Z 34004KT 10SM CLR 19/14 A2990 RMK AO2 SLP126 T01890139=","FM-15","4",,,,,,,,,,,,,,,,,,,,,,,,,,,"2007-05-17"
"72793524234","2022-09-01T21:53:00","FM-15","7",,,,,,,,,,,,,,,,,,,,,,,,,,,,,,,,,,,,,,,"29.90","57","64","0.00",,"+0.00","8","78","29.89","CLR:00","29.87","10.00","60","300",,"3",,,,,,,,,,,,,,,,,,,,,,,,,,,,,,,,,,,,,"MET10809/01/22 21:53:02 METAR KBFI 020553Z 30003KT 10SM CLR 18/14 A2990 RMK AO2 SLP123 T01780139 10250 20178 58001","FM-15","7",,,,,,,,,,,,,,,,,,,,,,,,,,,"2007-05-17"
"72793524234","2022-09-01T22:53:00","FM-15","7",,,,,,,,,,,,,,,,,,,,,,,,,,,,,,,,,,,,,,,"29.89","58","63","0.00",,,,"84","29.89","CLR:00","29.86","10.00","60","320",,"5",,,,,,,,,,,,,,,,,,,,,,,,,,,,,,,,,,,,,"MET09009/01/22 22:53:02 METAR KBFI 020653Z 32004KT 10SM CLR 17/14 A2989 RMK AO2 SLP122 T01720144","FM-15","7",,,,,,,,,,,,,,,,,,,,,,,,,,,"2007-05-17"
"72793524234","2022-09-01T23:53:00","FM-15","7",,,,,,,,,,,,,,,,,,,,,,,,,,,,,,,,,,,,,,,"29.89","57","61","0.00",,,,"87","29.89","CLR:00","29.86","10.00","59","310",,"3",,,,,,,,,,,,,,,,,,,,,,,,,,,,,,,,,,,,,"MET10009/01/22 23:53:01 METAR KBFI 020753Z 31003KT 10SM CLR 16/14 A2989 RMK AO2 SLP121 T01610139 402500156","FM-15","7",,,,,,,,,,,,,,,,,,,,,,,,,,,"2007-05-17"
"72793524234","2022-09-01T23:59:00","SOD  ","6",,,,,,,,,,,,,,,,,,"69",,,"29.95",,"4.2","4","3.7","0","77","60","300","17","0.00",,,"310","8",,,,,,,,,,,,,,,,,,,,,,,,,,,,,,,,,,,,,,,,,,,,,,,,,,,,,,,,"SOD73024 HR PRECIPITATION (IN):0.00  24 HR MAX TEMP (F):77 24 HR MAX TEMP TIME (LST):1648 24 HR MIN TEMP (F):60 24 HR MIN TEMP TIME (LST):0803 AVERAGE STATION PRESSURE:29.945 MINIMUM SEA LEVEL PRESSURE:29.89 TIME OF OCCURRENCE:2359 PEAK WIND SPEED (MPH):17  PEAK WIND DIR (DEG):300 PEAK WIND TIME (LST):1711  FASTEST 2MIN SPEED (MPH):8  FASTEST 2MIN DIR (DEG):310 FASTEST 2MIN TIME (LST):1851 AVERAGE WIND SPEED (MPH):4.2  24 HR AVG TEMP (F):69 HEATING DEGREE DAYS:0   COOLING DEGREE DAYS:4   LATEST DAY MAX TEMP (0700-1900 LST):77  LATEST NIGHT MIN TEMP(1900-0800 LST):60 HOURLY INCREMENTAL PRECIPITATION VALUES (IN):.00 0.00 0.00 0.00 0.00 0.00 0.00 0.00 0.00 0.00 0.00 0.00 0.00 0.00 0.00 0.00 0.00 0.00 0.00 0.00 0.00 0.00 0.00 0.00","SOD  ","6",,,,,,,,,,,,,,,,,,,,,,,,,"0528","1850","2007-05-17"
"72793524234","2022-09-02T00:53:00","FM-15","7",,,,,,,,,,,,,,,,,,,,,,,,,,,,,,,,,,,,,,,"29.88","57","60","0.00",,"+0.01","8","90","29.88","CLR:00","29.85","10.00","58","340",,"3",,,,,,,,,,,,,,,,,,,,,,,,,,,,,,,,,,,,,"MET10209/02/22 00:53:02 METAR KBFI 020853Z 34003KT 10SM CLR 16/14 A2988 RMK AO2 SLP118 T01560139 58005 (TWR)","FM-15","7",,,,,,,,,,,,,,,,,,,,,,,,,,,"2007-05-17"
"72793524234","2022-09-02T01:53:00","FM-15","7",,,,,,,,,,,,,,,,,,,,,,,,,,,,,,,,,,,,,,,"29.89","57","60","0.00",,,,"90","29.89","CLR:00","29.86","10.00","58","VRB",,"6",,,,,,,,,,,,,,,,,,,,,,,,,,,,,,,,,,,,,"MET09609/02/22 01:53:02 METAR KBFI 020953Z VRB05KT 10SM CLR 16/14 A2989 RMK AO2 SLP121 T01560139 (TWR)","FM-15","7",,,,,,,,,,,,,,,,,,,,,,,,,,,"2007-05-17"
"72793524234","2022-09-02T02:51:00","FM-16","6",,,,,,,,,,,,,,,,,,,,,,,,,,,,,,,,,,,,,,,"29.89","55","57",,,,,"94",,"FEW:02 5","29.86","10.00","56","000",,"0",,,,,,,,,,,,,,,,,,,,,,,,,,,,,,,,,,,,,"MET08709/02/22 02:51:02 SPECI KBFI 021051Z 00000KT 10SM FEW005 14/13 A2989 RMK AO2 FIBI (TWR)","FM-16","6",,,,,,,,,,,,,,,,,,,,,,,,,,,"2007-05-17"
"72793524234","2022-09-02T02:53:00","FM-15","7",,,,,,,,,,,,,,,,,,,,,,,,,,,,,,,,,,,,,,,"29.89","56","58","0.00",,,,"93","29.89","FEW:02 5","29.86","10.00","57","300",,"3",,,,,,,,,,,,,,,,,,,,,,,,,,,,,,,,,,,,,"MET09909/02/22 02:53:02 METAR KBFI 021053Z 30003KT 10SM FEW005 14/13 A2989 RMK AO2 SLP122 T01440133 (TWR)","FM-15","7",,,,,,,,,,,,,,,,,,,,,,,,,,,"2007-05-17"
"72793524234","2022-09-02T03:53:00","FM-15","7",,,,,,,,,,,,,,,,,,,,,,,,,,,,,,,,,,,,,,,"29.90","56","58","0.00",,"-0.02","1","93","29.90","FEW:02 7","29.87","10.00","57","300",,"3",,,,,,,,,,,,,,,,,,,,,,,,,,,,,,,,,,,,,"MET11709/02/22 03:53:02 METAR KBFI 021153Z 30003KT 10SM FEW007 14/13 A2990 RMK AO2 SLP125 T01440133 10178 20144 51007 (TWR)","FM-15","7",,,,,,,,,,,,,,,,,,,,,,,,,,,"2007-05-17"
"72793524234","2022-09-02T04:53:00","FM-15","7",,,,,,,,,,,,,,,,,,,,,,,,,,,,,,,,,,,,,,,"29.89","55","57","0.00",,,,"93","29.89","SCT:04 10","29.86","10.00","56","290",,"3",,,,,,,,,,,,,,,,,,,,,,,,,,,,,,,,,,,,,"MET09809/02/22 04:53:02 METAR KBFI 021253Z 29003KT 10SM SCT010 14/13 A2989 RMK AO2 SLP123 T01390128 (TA)","FM-15","7",,,,,,,,,,,,,,,,,,,,,,,,,,,"2007-05-17"
"72793524234","2022-09-02T05:53:00","FM-15","7",,,,,,,,,,,,,,,,,,,,,,,,,,,,,,,,,,,,,,,"29.89","56","57","0.00",,,,"96","29.89","CLR:00","29.86","10.00","56","310",,"3",,,,,,,,,,,,,,,,,,,,,,,,,,,,,,,,,,,,,"MET10609/02/22 05:53:02 METAR KBFI 021353Z 31003KT 10SM CLR 14/13 A2989 RMK AO2 SLP123 T01390133 VIS N 3 BR (TA)","FM-15","7",,,,,,,,,,,,,,,,,,,,,,,,,,,"2007-05-17"
"72793524234","2022-09-02T06:51:00","FM-16","6",,,,,,,,,,,,,,,,,,,,,,,,,,,,,,,,,,,,,,,"29.90","55","55",,"BC:3 FG:2 |FG |",,,"100",,"BKN:07 8","29.87","4.00","55","310",,"5",,,,,,,,,,,,,,,,,,,,,,,,,,,,,,,,,,,,,"MET09009/02/22 06:51:02 SPECI KBFI 021451Z 31004KT 4SM BCFG BKN008 13/13 A2990 RMK AO2 FIBI (TA)","FM-16","6",,,,,,,,,,,,,,,,,,,,,,,,,,,"2007-05-17"
"72793524234","2022-09-02T06:53:00","FM-15","7",,,,,,,,,,,,,,,,,,,,,,,,,,,,,,,,,,,,,,,"29.90","55","56","0.00","BC:3 FG:2 |FG |","+0.00","5","97","29.89","BKN:07 8","29.87","4.00","55","310",,"5",,,,,,,,,,,,,,,,,,,,,,,,,,,,,,,,,,,,,"MET10809/02/22 06:53:02 METAR KBFI 021453Z 31004KT 4SM BCFG BKN008 13/13 A2990 RMK AO2 SLP123 T01330128 55001 (TA)","FM-15","7",,,,,,,,,,,,,,,,,,,,,,,,,,,"2007-05-17"
"72793524234","2022-09-02T07:53:00","FM-15","7",,,,,,,,,,,,,,,,,,,,,,,,,,,,,,,,,,,,,,,"29.89","56","57","0.00","BC:3 FG:2 |FG |",,,"96","29.88","FEW:02 3 SCT:04 8","29.86","10.00","56","340",,"6",,,,,,,,,,,,,,,,,,,,,,,,,,,,,,,,,,,,,"MET12609/02/22 07:53:02 METAR KBFI 021553Z 34005KT 10SM BCFG FEW003 SCT008 14/13 A2989 RMK AO2 SLP120 VIS NW 1/2 BCFG T01390133 (TA)","FM-15","7",,,,,,,,,,,,,,,,,,,,,,,,,,,"2007-05-17"
"72793524234","2022-09-02T08:53:00","FM-15","7",,,,,,,,,,,,,,,,,,,,,,,,,,,,,,,,,,,,,,,"29.88","56","62","0.00",,,,"80","29.88","FEW:02 3 SCT:04 8","29.85","10.00","59","VRB",,"5",,,,,,,,,,,,,,,,,,,,,,,,,,,,,,,,,,,,,"MET10509/02/22 08:53:02 METAR KBFI 021653Z VRB04KT 10SM FEW003 SCT008 17/13 A2988 RMK AO2 SLP117 T01670133 (TA)","FM-15","7",,,,,,,,,,,,,,,,,,,,,,,,,,,"2007-05-17"
"72793524234","2022-09-02T09:53:00","FM-15","7",,,,,,,,,,,,,,,,,,,,,,,,,,,,,,,,,,,,,,,"29.87","56","65","0.00",,"+0.03","6","73","29.87","CLR:00","29.84","10.00","60","310",,"6",,,,,,,,,,,,,,,,,,,,,,,,,,,,,,,,,,,,,"MET11309/02/22 09:53:02 METAR KBFI 021753Z 31005KT 10SM CLR 18/13 A2987 RMK AO2 SLP114 T01830133 10183 20133 56009 (TA)","FM-15","7",,,,,,,,,,,,,,,,,,,,,,,,,,,"2007-05-17"
"72793524234","2022-09-02T10:53:00","FM-15","7",,,,,,,,,,,,,,,,,,,,,,,,,,,,,,,,,,,,,,,"29.86","56","67","0.00",,,,"68","29.85","CLR:00","29.83","10.00","61","340",,"7",,,,,,,,,,,,,,,,,,,,,,,,,,,,,,,,,,,,,"MET09509/02/22 10:53:02 METAR KBFI 021853Z 34006KT 10SM CLR 19/13 A2986 RMK AO2 SLP110 T01940133 (TA)","FM-15","7",,,,,,,,,,,,,,,,,,,,,,,,,,,"2007-05-17"
"72793524234","2022-09-02T11:53:00","FM-15","7",,,,,,,,,,,,,,,,,,,,,,,,,,,,,,,,,,,,,,,"29.85","57","71","0.00",,,,"61","29.85","CLR:00","29.82","10.00","63","330",,"6",,,,,,,,,,,,,,,,,,,,,,,,,,,,,,,,,,,,,"MET09509/02/22 11:53:02 METAR KBFI 021953Z 33005KT 10SM CLR 22/14 A2985 RMK AO2 SLP108 T02170139 (TA)","FM-15","7",,,,,,,,,,,,,,,,,,,,,,,,,,,"2007-05-17"
"72793524234","2022-09-02T12:53:00","FM-15","7",,,,,,,,,,,,,,,,,,,,,,,,,,,,,,,,,,,,,,,"29.84","59","74","0.00",,"+0.03","8","60","29.84","CLR:00","29.81","10.00","65","VRB",,"6",,,,,,,,,,,,,,,,,,,,,,,,,,,,,,,,,,,,,"MET10109/02/22 12:53:02 METAR KBFI 022053Z VRB05KT 10SM CLR 23/15 A2984 RMK AO2 SLP104 T02330150 58010 (TA)","FM-15","7",,,,,,,,,,,,,,,,,,,,,,,,,,,"2007-05-17"
"72793524234","2022-09-02T13:53:00","FM-15","7",,,,,,,,,,,,,,,,,,,,,,,,,,,,,,,,,,,,,,,"29.82","59","76","0.00",,,,"56","29.82","CLR:00","29.79","10.00","66","VRB",,"7",,,,,,,,,,,,,,,,,,,,,,,,,,,,,,,,,,,,,"MET09609/02/22 13:53:02 METAR KBFI 022153Z VRB06KT 10SM CLR 24/15 A2982 RMK AO2 SLP097 T02440150 (TWR)","FM-15","7",,,,,,,,,,,,,,,,,,,,,,,,,,,"2007-05-17"
"72793524234","2022-09-02T14:53:00","FM-15","7",,,,,,,,,,,,,,,,,,,,,,,,,,,,,,,,,,,,,,,"29.81","58","77","0.00",,,,"52","29.81","CLR:00","29.78","10.00","65","290",,"7",,,,,,,,,,,,,,,,,,,,,,,,,,,,,,,,,,,,,"MET09609/02/22 14:53:02 METAR KBFI 022253Z 29006KT 10SM CLR 25/14 A2981 RMK AO2 SLP094 T02500144 (TWR)","FM-15","7",,,,,,,,,,,,,,,,,,,,,,,,,,,"2007-05-17"
"72793524234","2022-09-02T15:53:00","FM-15","7",,,,,,,,,,,,,,,,,,,,,,,,,,,,,,,,,,,,,,,"29.80","59","78","0.00",,"+0.04","6","52","29.80","CLR:00","29.77","10.00","66","290",,"6",,,,,,,,,,,,,,,,,,,,,,,,,,,,,,,,,,,,,"MET11409/02/22 15:53:02 METAR KBFI 022353Z 29005KT 10SM CLR 26/15 A2980 RMK AO2 SLP091 T02560150 10261 20183 56012 (TWR)","FM-15","7",,,,,,,,,,,,,,,,,,,,,,,,,,,"2007-05-17"
"72793524234","2022-09-02T16:53:00","FM-15","7",,,,,,,,,,,,,,,,,,,,,,,,,,,,,,,,,,,,,,,"29.81","59","79","0.00",,,,"50","29.81","CLR:00","29.78","10.00","67","320",,"3",,,,,,,,,,,,,,,,,,,,,,,,,,,,,,,,,,,,,"MET09009/02/22 16:53:01 METAR KBFI 030053Z 32003KT 10SM CLR 26/15 A2981 RMK AO2 SLP094 T02610150","FM-15","7",,,,,,,,,,,,,,,,,,,,,,,,,,,"2007-05-17"
"72793524234","2022-09-02T17:53:00","FM-15","7",,,,,,,,,,,,,,,,,,,,,,,,,,,,,,,,,,,,,,,"29.81","58","76","0.00",,,,"54","29.80","CLR:00","29.78","10.00","65","VRB",,"3",,,,,,,,,,,,,,,,,,,,,,,,,,,,,,,,,,,,,"MET09009/02/22 17:53:01 METAR KBFI 030153Z VRB03KT 10SM CLR 24/14 A2981 RMK AO2 SLP093 T02440144","FM-15","7",,,,,,,,,,,,,,,,,,,,,,,,,,,"2007-05-17"
"72793524234","2022-09-02T18:53:00","FM-15","7",,,,,,,,,,,,,,,,,,,,,,,,,,,,,,,,,,,,,,,"29.82","58","73","0.00",,"-0.02","3","59","29.82","CLR:00","29.79","10.00","64","VRB",,"3",,,,,,,,,,,,,,,,,,,,,,,,,,,,,,,,,,,,,"MET09609/02/22 18:53:01 METAR KBFI 030253Z VRB03KT 10SM CLR 23/14 A2982 RMK AO2 SLP098 T02280144 53006","FM-15","7",,,,,,,,,,,,,,,,,,,,,,,,,,,"2007-05-17"
"72793524234","2022-09-02T19:53:00","FM-15","7",,,,,,,,,,,,,,,,,,,,,,,,,,,,,,,,,,,,,,,"29.86","58","70","0.00",,,,"66","29.86","CLR:00","29.83","10.00","63","240",,"5",,,,,,,,,,,,,,,,,,,,,,,,,,,,,,,,,,,,,"MET09009/02/22 19:53:02 METAR KBFI 030353Z 24004KT 10SM CLR 21/14 A2986 RMK AO2 SLP111 T02110144","FM-15","7",,,,,,,,,,,,,,,,,,,,,,,,,,,"2007-05-17"
"72793524234","2022-09-02T20:53:00","FM-15","7",,,,,,,,,,,,,,,,,,,,,,,,,,,,,,,,,,,,,,,"29.91","57","65","0.00",,,,"76","29.91","CLR:00","29.88","10.00","60","190",,"7",,,,,,,,,,,,,,,,,,,,,,,,,,,,,,,,,,,,,"MET09009/02/22 20:53:02 METAR KBFI 030453Z 19006KT 10SM CLR 18/14 A2991 RMK AO2 SLP127 T01830139","FM-15","7",,,,,,,,,,,,,,,,,,,,,,,,,,,"2007-05-17"
"72793524234","2022-09-02T21:53:00","FM-15","7",,,,,,,,,,,,,,,,,,,,,,,,,,,,,,,,,,,,,,,"29.95","56","61","0.00",,"-0.12","2","84","29.94","CLR:00","29.92","10.00","58","VRB",,"9",,,,,,,,,,,,,,,,,,,,,,,,,,,,,,,,,,,,,"MET10809/02/22 21:53:02 METAR KBFI 030553Z 18008KT 10SM CLR 16/13 A2995 RMK AO2 SLP140 T01610133 10261 20161 52042","FM-15","7",,,,,,,,,,,,,,,,,,,,,,,,,,,"2007-05-17"
"72793524234","2022-09-02T22:20:00","FM-16","7",,,,,,,,,,,,,,,,,,,,,,,,,,,,,,,,,,,,,,,"29.96","55","60",,,,,"84",,"BKN:07 12","29.93","10.00","57","170",,"8",,,,,,,,,,,,,,,,,,,,,,,,,,,,,,,,,,,,,"MET08609/02/22 22:20:01 SPECI KBFI 030620Z 17007KT 10SM BKN012 16/13 A2996 RMK AO2 T01560128","FM-16","7",,,,,,,,,,,,,,,,,,,,,,,,,,,"2007-05-17"
"72793524234","2022-09-02T22:53:00","FM-15","7",,,,,,,,,,,,,,,,,,,,,,,,,,,,,,,,,,,,,,,"29.95","55","60","0.00",,,,"84","29.95","BKN:07 12","29.92","10.00","57","180",,"7",,,,,,,,,,,,,,,,,,,,,,,,,,,,,,,,,,,,,"MET09309/02/22 22:53:03 METAR KBFI 030653Z 18006KT 10SM BKN012 16/13 A2995 RMK AO2 SLP143 T01560128","FM-15","7",,,,,,,,,,,,,,,,,,,,,,,,,,,"2007-05-17"
"72793524234","2022-09-02T23:00:00","FM-16","7",,,,,,,,,,,,,,,,,,,,,,,,,,,,,,,,,,,,,,,"29.96","55","60",,,,,"84",,"BKN:07 16","29.93","10.00","57","160",,"8",,,,,,,,,,,,,,,,,,,,,,,,,,,,,,,,,,,,,"MET08609/02/22 23:00:01 SPECI KBFI 030700Z 16007KT 10SM BKN016 16/13 A2996 RMK AO2 T01560128","FM-16","7",,,,,,,,,,,,,,,,,,,,,,,,,,,"2007-05-17"
"72793524234","2022-09-02T23:53:00","FM-15","7",,,,,,,,,,,,,,,,,,,,,,,,,,,,,,,,,,,,,,,"29.96","55","61","0.00",,,,"81","29.96","BKN:07 15","29.93","10.00","58","230",,"9",,,,,,,,,,,,,,,,,,,,,,,,,,,,,,,,,,,,,"MET10309/02/22 23:53:02 METAR KBFI 030753Z 23008KT 10SM BKN015 16/13 A2996 RMK AO2 SLP145 T01610128 402610133","FM-15","7",,,,,,,,,,,,,,,,,,,,,,,,,,,"2007-05-17"
"72793524234","2022-09-02T23:59:00","SOD  ","6",,,,,,,,,,,,,,,,,,"68",,,"29.84",,"5.4","3","2.9","0","79","56","230","17","0.00",,,"200","13","FG",,,,,,,,,,,,,,,,,,,,,,,,,,,,,,,,,,,,,,,,,,,,,,,,,,,,,,,"SOD73024 HR PRECIPITATION (IN):0.00  24 HR MAX TEMP (F):79 24 HR MAX TEMP TIME (LST):1711 24 HR MIN TEMP (F):56 24 HR MIN TEMP TIME (LST):0722 AVERAGE STATION PRESSURE:29.840 MINIMUM SEA LEVEL PRESSURE:29.80 TIME OF OCCURRENCE:1755 PEAK WIND SPEED (MPH):17  PEAK WIND DIR (DEG):230 PEAK WIND TIME (LST):2120  FASTEST 2MIN SPEED (MPH):13 FASTEST 2MIN DIR (DEG):200 FASTEST 2MIN TIME (LST):2114 AVERAGE WIND SPEED (MPH):5.4  24 HR AVG TEMP (F):68 HEATING DEGREE DAYS:0   COOLING DEGREE DAYS:3   LATEST DAY MAX TEMP (0700-1900 LST):79  LATEST NIGHT MIN TEMP(1900-0800 LST):56 HOURLY INCREMENTAL PRECIPITATION VALUES (IN):.00 0.00 0.00 0.00 0.00 0.00 0.00 0.00 0.00 0.00 0.00 0.00 0.00 0.00 0.00 0.00 0.00 0.00 0.00 0.00 0.00 0.00 0.00 0.00","SOD  ","6",,,,,,,,,,,,,,,,,,,,,,,,,"0529","1848","2007-05-17"
"72793524234","2022-09-03T00:08:00","FM-16","7",,,,,,,,,,,,,,,,,,,,,,,,,,,,,,,,,,,,,,,"29.96","55","60",,,,,"84",,"SCT:04 16","29.93","10.00","57","180",,"8",,,,,,,,,,,,,,,,,,,,,,,,,,,,,,,,,,,,,"MET09109/03/22 00:08:02 SPECI KBFI 030808Z 18007KT 10SM SCT016 16/13 A2996 RMK AO2 T01560128 (TA)","FM-16","7",,,,,,,,,,,,,,,,,,,,,,,,,,,"2007-05-17"
"72793524234","2022-09-03T00:53:00","FM-15","7",,,,,,,,,,,,,,,,,,,,,,,,,,,,,,,,,,,,,,,"29.98","55","59","0.00",,"-0.03","3","87","29.97","FEW:02 16","29.95","10.00","57","170",,"7",,,,,,,,,,,,,,,,,,,,,,,,,,,,,,,,,,,,,"MET10409/03/22 00:53:02 METAR KBFI 030853Z 17006KT 10SM FEW016 15/13 A2998 RMK AO2 SLP150 T01500128 53010 (TA)","FM-15","7",,,,,,,,,,,,,,,,,,,,,,,,,,,"2007-05-17"
"72793524234","2022-09-03T01:08:00","FM-16","7",,,,,,,,,,,,,,,,,,,,,,,,,,,,,,,,,,,,,,,"29.97","55","60",,,,,"84",,"BKN:07 16","29.94","10.00","57","160",,"9",,,,,,,,,,,,,,,,,,,,,,,,,,,,,,,,,,,,,"MET09109/03/22 01:08:02 SPECI KBFI 030908Z 16008KT 10SM BKN016 16/13 A2997 RMK AO2 T01560128 (TA)","FM-16","7",,,,,,,,,,,,,,,,,,,,,,,,,,,"2007-05-17"
"72793524234","2022-09-03T01:53:00","FM-15","7",,,,,,,,,,,,,,,,,,,,,,,,,,,,,,,,,,,,,,,"29.99","55","60","0.00",,,,"84","29.99","OVC:08 16","29.96","10.00","57","150",,"8",,,,,,,,,,,,,,,,,,,,,,,,,,,,,,,,,,,,,"MET09809/03/22 01:53:02 METAR KBFI 030953Z 15007KT 10SM OVC016 16/13 A2999 RMK AO2 SLP155 T01560128 (TA)","FM-15","7",,,,,,,,,,,,,,,,,,,,,,,,,,,"2007-05-17"
"72793524234","2022-09-03T02:53:00","FM-15","7",,,,,,,,,,,,,,,,,,,,,,,,,,,,,,,,,,,,,,,"30.01","55","60","0.00",,,,"84","30.01","OVC:08 17","29.98","10.00","57","150",,"8",,,,,,,,,,,,,,,,,,,,,,,,,,,,,,,,,,,,,"MET09809/03/22 02:53:02 METAR KBFI 031053Z 15007KT 10SM OVC017 16/13 A3001 RMK AO2 SLP163 T01560128 (TA)","FM-15","7",,,,,,,,,,,,,,,,,,,,,,,,,,,"2007-05-17"
"72793524234","2022-09-03T03:53:00","FM-15","7",,,,,,,,,,,,,,,,,,,,,,,,,,,,,,,,,,,,,,,"30.02","57","60","0.00",,"-0.04","1","90","30.01","BKN:07 15 OVC:08 21","29.99","8.00","58","180",,"7",,,,,,,,,,,,,,,,,,,,,,,,,,,,,,,,,,,,,"MET12209/03/22 03:53:02 METAR KBFI 031153Z 18006KT 8SM BKN015 OVC021 16/14 A3002 RMK AO2 SLP164 T01560139 10161 20150 51014 (TA)","FM-15","7",,,,,,,,,,,,,,,,,,,,,,,,,,,"2007-05-17"
"72793524234","2022-09-03T04:53:00","FM-15","7",,,,,,,,,,,,,,,,,,,,,,,,,,,,,,,,,,,,,,,"30.03","58","59","0.00",,,,"96","30.02","BKN:07 15 OVC:08 21","30.00","3.00","58","150",,"7",,,,,,,,,,,,,,,,,,,,,,,,,,,,,,,,,,,,,"MET10409/03/22 04:53:02 METAR KBFI 031253Z 15006KT 3SM BKN015 OVC021 15/14 A3003 RMK AO2 SLP167 T01500144 (TA)","FM-15","7",,,,,,,,,,,,,,,,,,,,,,,,,,,"2007-05-17"
"72793524234","2022-09-03T05:00:00","FM-16","7",,,,,,,,,,,,,,,,,,,,,,,,,,,,,,,,,,,,,,,"30.02","58","59",,,,,"96",,"SCT:04 6 OVC:08 13","29.99","3.00","58","140",,"8",,,,,,,,,,,,,,,,,,,,,,,,,,,,,,,,,,,,,"MET09709/03/22 05:00:02 SPECI KBFI 031300Z 14007KT 3SM SCT006 OVC013 15/14 A3002 RMK AO2 T01500144 (TA)","FM-16","7",,,,,,,,,,,,,,,,,,,,,,,,,,,"2007-05-17"
"72793524234","2022-09-03T05:06:00","FM-16","7",,,,,,,,,,,,,,,,,,,,,,,,,,,,,,,,,,,,,,,"30.03","58","59",,,,,"96",,"BKN:07 6 OVC:08 13","30.00","2.50V","58","130",,"7",,,,,,,,,,,,,,,,,,,,,,,,,,,,,,,,,,,,,"MET11309/03/22 05:06:02 SPECI KBFI 031306Z 13006KT 2 1/2SM BKN006 OVC013 15/14 A3003 RMK AO2 VIS 1 3/4V5 T01500144 (TA)","FM-16","7",,,,,,,,,,,,,,,,,,,,,,,,,,,"2007-05-17"
"72793524234","2022-09-03T05:23:00","FM-16","7",,,,,,,,,,,,,,,,,,,,,,,,,,,,,,,,,,,,,,,"30.03","58","59",,,,,"96",,"SCT:04 7 OVC:08 13","30.00","4.00","58","140",,"10",,,,,,,,,,,,,,,,,,,,,,,,,,,,,,,,,,,,,"MET09709/03/22 05:23:02 SPECI KBFI 031323Z 14009KT 4SM SCT007 OVC013 15/14 A3003 RMK AO2 T01500144 (TA)","FM-16","7",,,,,,,,,,,,,,,,,,,,,,,,,,,"2007-05-17"
"72793524234","2022-09-03T05:34:00","FM-16","7",,,,,,,,,,,,,,,,,,,,,,,,,,,,,,,,,,,,,,,"30.03","58","59",,,,,"96",,"BKN:07 6 OVC:08 13","30.00","5.00","58","140",,"8",,,,,,,,,,,,,,,,,,,,,,,,,,,,,,,,,,,,,"MET09709/03/22 05:34:02 SPECI KBFI 031334Z 14007KT 5SM BKN006 OVC013 15/14 A3003 RMK AO2 T01500144 (TA)","FM-16","7",,,,,,,,,,,,,,,,,,,,,,,,,,,"2007-05-17"
"72793524234","2022-09-03T05:53:00","FM-15","7",,,,,,,,,,,,,,,,,,,,,,,,,,,,,,,,,,,,,,,"30.03","58","59","0.00",,,,"96","30.03","BKN:07 6 OVC:08 13","30.00","3.00","58","150",,"9",,,,,,,,,,,,,,,,,,,,,,,,,,,,,,,,,,,,,"MET10409/03/22 05:53:02 METAR KBFI 031353Z 15008KT 3SM BKN006 OVC013 15/14 A3003 RMK AO2 SLP169 T01500144 (TA)","FM-15","7",,,,,,,,,,,,,,,,,,,,,,,,,,,"2007-05-17"
"72793524234","2022-09-03T05:55:00","FM-16","7",,,,,,,,,,,,,,,,,,,,,,,,,,,,,,,,,,,,,,,"30.03","58","59",,,,,"96",,"BKN:07 7 OVC:08 12","30.00","2.50","58","150",,"10",,,,,,,,,,,,,,,,,,,,,,,,,,,,,,,,,,,,,"MET10109/03/22 05:55:02 SPECI KBFI 031355Z 15009KT 2 1/2SM BKN007 OVC012 15/14 A3003 RMK AO2 T01500144 (TA)","FM-16","7",,,,,,,,,,,,,,,,,,,,,,,,,,,"2007-05-17"
"72793524234","2022-09-03T06:53:00","FM-15","7",,,,,,,,,,,,,,,,,,,,,,,,,,,,,,,,,,,,,,,"30.04","59","59","0.00","BR:1 ||","-0.02","1","100","30.03","OVC:08 6","30.01","2.00","59","150",,"10",,,,,,,,,,,,,,,,,,,,,,,,,,,,,,,,,,,,,"MET10609/03/22 06:53:02 METAR KBFI 031453Z 15009KT 2SM BR OVC006 15/15 A3004 RMK AO2 SLP171 T01500150 51007 (TA)","FM-15","7",,,,,,,,,,,,,,,,,,,,,,,,,,,"2007-05-17"
"72793524234","2022-09-03T07:53:00","FM-15","7",,,,,,,,,,,,,,,,,,,,,,,,,,,,,,,,,,,,,,,"30.06","60","60","0.00","BR:1 ||",,,"100","30.05","BKN:07 7 OVC:08 10","30.03","2.00","60","170",,"7",,,,,,,,,,,,,,,,,,,,,,,,,,,,,,,,,,,,,"MET10709/03/22 07:53:02 METAR KBFI 031553Z 17006KT 2SM BR BKN007 OVC010 16/16 A3006 RMK AO2 SLP177 T01560156 (TA)","FM-15","7",,,,,,,,,,,,,,,,,,,,,,,,,,,"2007-05-17"
"72793524234","2022-09-03T08:39:00","FM-16","7",,,,,,,,,,,,,,,,,,,,,,,,,,,,,,,,,,,,,,,"30.07","60","61",,"BR:1 ||",,,"97",,"BKN:07 6 BKN:07 13 OVC:08 26","30.04","5.00","60","170",,"7",,,,,,,,,,,,,,,,,,,,,,,,,,,,,,,,,,,,,"MET10209/03/22 08:39:02 SPECI KBFI 031639Z 17006KT 5SM BR BKN006 BKN013 OVC026 16/16 A3007 RMK AO2 T01610156","FM-16","7",,,,,,,,,,,,,,,,,,,,,,,,,,,"2007-05-17"
"72793524234","2022-09-03T08:53:00","FM-15","7",,,,,,,,,,,,,,,,,,,,,,,,,,,,,,,,,,,,,,,"30.08","59","61","0.00",,,,"93","30.08","BKN:07 7 BKN:07 13 OVC:08 20","30.05","10.00","60","180",,"8",,,,,,,,,,,,,,,,,,,,,,,,,,,,,,,,,,,,,"MET10709/03/22 08:53:02 METAR KBFI 031653Z 18007KT 10SM BKN007 BKN013 OVC020 16/15 A3008 RMK AO2 SLP185 T01610150","FM-15","7",,,,,,,,,,,,,,,,,,,,,,,,,,,"2007-05-17"
"72793524234","2022-09-03T09:53:00","FM-15","7",,,,,,,,,,,,,,,,,,,,,,,,,,,,,,,,,,,,,,,"30.09","60","62","0.00",,"-0.05","1","93","30.09","BKN:07 7","30.06","10.00","61",,,,,,,,,,,,,,,,,,,,,,,,,,,,,,,,,,,,,,,,"MET11709/03/22 09:53:02 METAR KBFI 031753Z      KT 10SM BKN007 17/16 A3009 RMK AO2 SLP190 T01670156 10167 20144 51018 (TWR)","FM-15","7",,,,,,,,,,,,,,,,,,,,,,,,,,,"2007-05-17"
"72793524234","2022-09-03T10:16:00","FM-16","7",,,,,,,,,,,,,,,,,,,,,,,,,,,,,,,,,,,,,,,"30.09","59","62",,,,,"90",,"BKN:07 10 OVC:08 31","30.06","10.00","60","190",,"6",,,,,,,,,,,,,,,,,,,,,,,,,,,,,,,,,,,,,"MET09909/03/22 10:16:02 SPECI KBFI 031816Z 19005KT 10SM BKN010 OVC031 17/15 A3009 RMK AO2 T01670150 (TWR)","FM-16","7",,,,,,,,,,,,,,,,,,,,,,,,,,,"2007-05-17"
"72793524234","2022-09-03T10:53:00","FM-15","7",,,,,,,,,,,,,,,,,,,,,,,,,,,,,,,,,,,,,,,"30.10","59","63","0.00",,,,"87","30.10","BKN:07 12 OVC:08 27","30.07","10.00","61","190",,"6",,,,,,,,,,,,,,,,,,,,,,,,,,,,,,,,,,,,,"MET10609/03/22 10:53:02 METAR KBFI 031853Z 19005KT 10SM BKN012 OVC027 17/15 A3010 RMK AO2 SLP192 T01720150 (TWR)","FM-15","7",,,,,,,,,,,,,,,,,,,,,,,,,,,"2007-05-17"
"72793524234","2022-09-03T11:48:00","FM-16","7",,,,,,,,,,,,,,,,,,,,,,,,,,,,,,,,,,,,,,,"30.09","57","64","T","-RA:02 |RA |RA",,,"78",,"BKN:07 15 OVC:08 27","30.06","7.00","60","VRB",,"7",,,,,,,,,,,,,,,,,,,,,,,,,,,,,,,,,,,,,"MET10409/03/22 11:48:02 SPECI KBFI 031948Z VRB06KT 7SM -RA BKN015 OVC027 18/14 A3009 RMK AO2 RAB48 P0000 (TWR)","FM-16","7",,,,,,,,,,,,,,,,,,,,,,,,,,,"2007-05-17"
"72793524234","2022-09-03T11:53:00","FM-15","7",,,,,,,,,,,,,,,,,,,,,,,,,,,,,,,,,,,,,,,"30.09","59","63","T","-RA:02 BR:1 |RA |RA",,,"87","30.09","BKN:07 15 OVC:08 27","30.06","5.00","61","VRB",,"5",,,,,,,,,,,,,,,,,,,,,,,,,,,,,,,,,,,,,"MET12409/03/22 11:53:02 METAR KBFI 031953Z VRB04KT 5SM -RA BR BKN015 OVC027 17/15 A3009 RMK AO2 RAB48 SLP188 P0000 T01720150 (TWR)","FM-15","7",,,,,,,,,,,,,,,,,,,,,,,,,,,"2007-05-17"
"72793524234","2022-09-03T12:53:00","FM-15","7",,,,,,,,,,,,,,,,,,,,,,,,,,,,,,,,,,,,,,,"30.09","59","65","T","-RA:02 BR:1 |RA |RA","+0.01","5","81","30.09","BKN:07 15 OVC:08 27","30.06","10.00","61","000",,"0",,,,,,,,,,,,,,,,,,,,,,,,,,,,,,,,,,,,,"MET14209/03/22 12:53:02 METAR KBFI 032053Z 00000KT 10SM -RA BR BKN015 OVC027 18/15 A3009 RMK AO2 RAE1959B45 SLP189 P0000 60000 T01830150 55003 (TWR)","FM-15","7",,,,,,,,,,,,,,,,,,,,,,,,,,,"2007-05-17"
"72793524234","2022-09-03T13:53:00","FM-15","7",,,,,,,,,,,,,,,,,,,,,,,,,,,,,,,,,,,,,,,"30.09","58","67","T",,,,"73","30.09","BKN:07 15 OVC:08 27","30.06","10.00","62","000",,"0",,,,,,,,,,,,,,,,,,,,,,,,,,,,,,,,,,,,,"MET11809/03/22 13:53:02 METAR KBFI 032153Z 00000KT 10SM BKN015 OVC027 19/14 A3009 RMK AO2 RAE49 SLP188 P0000 T01940144 (TWR)","FM-15","7",,,,,,,,,,,,,,,,,,,,,,,,,,,"2007-05-17"
"72793524234","2022-09-03T14:53:00","FM-15","7",,,,,,,,,,,,,,,,,,,,,,,,,,,,,,,,,,,,,,,"30.08","56","71","0.00",,,,"59","30.08","BKN:07 25","30.05","10.00","62","VRB",,"8",,,,,,,,,,,,,,,,,,,,,,,,,,,,,,,,,,,,,"MET09909/03/22 14:53:02 METAR KBFI 032253Z 19007KT 10SM BKN025 22/13 A3008 RMK AO2 SLP186 T02170133 (TWR)","FM-15","7",,,,,,,,,,,,,,,,,,,,,,,,,,,"2007-05-17"
"72793524234","2022-09-03T15:53:00","FM-15","7",,,,,,,,,,,,,,,,,,,,,,,,,,,,,,,,,,,,,,,"30.08","55","73","0.00",,"+0.01","8","53","30.08","BKN:07 25","30.05","10.00","62","140",,"6",,,,,,,,,,,,,,,,,,,,,,,,,,,,,,,,,,,,,"MET12309/03/22 15:53:02 METAR KBFI 032353Z 14005KT 10SM BKN025 23/13 A3008 RMK AO2 SLP185 60000 T02280128 10228 20161 58004 (TWR)","FM-15","7",,,,,,,,,,,,,,,,,,,,,,,,,,,"2007-05-17"
"72793524234","2022-09-03T16:53:00","FM-15","7",,,,,,,,,,,,,,,,,,,,,,,,,,,,,,,,,,,,,,,"30.07","55","73","0.00",,,,"53","30.07","BKN:07 25","30.04","10.00","62","VRB",,"6",,,,,,,,,,,,,,,,,,,,,,,,,,,,,,,,,,,,,"MET09309/03/22 16:53:01 METAR KBFI 040053Z VRB05KT 10SM BKN025 23/13 A3007 RMK AO2 SLP184 T02280128","FM-15","7",,,,,,,,,,,,,,,,,,,,,,,,,,,"2007-05-17"
"72793524234","2022-09-03T17:51:00","FM-16","6",,,,,,,,,,,,,,,,,,,,,,,,,,,,,,,,,,,,,,,"30.06","54","73",,,,,"50",,"SCT:04 55","30.03","10.00","62","160",,"8",,,,,,,,,,,,,,,,,,,,,,,,,,,,,,,,,,,,,"MET08709/03/22 17:51:03 SPECI KBFI 040151Z 16007KT 10SM SCT055 23/12 A3006 RMK AO2 FIBI (TWR)","FM-16","6",,,,,,,,,,,,,,,,,,,,,,,,,,,"2007-05-17"
"72793524234","2022-09-03T17:53:00","FM-15","7",,,,,,,,,,,,,,,,,,,,,,,,,,,,,,,,,,,,,,,"30.06","54","73","0.00",,,,"51","30.06","SCT:04 55","30.03","10.00","62","160",,"6",,,,,,,,,,,,,,,,,,,,,,,,,,,,,,,,,,,,,"MET09309/03/22 17:53:01 METAR KBFI 040153Z 16005KT 10SM SCT055 23/12 A3006 RMK AO2 SLP179 T02280122","FM-15","7",,,,,,,,,,,,,,,,,,,,,,,,,,,"2007-05-17"
"72793524234","2022-09-03T18:53:00","FM-15","7",,,,,,,,,,,,,,,,,,,,,,,,,,,,,,,,,,,,,,,"30.06","55","70","0.00",,"+0.01","6","59","30.06","SCT:04 45","30.03","10.00","61","120",,"3",,,,,,,,,,,,,,,,,,,,,,,,,,,,,,,,,,,,,"MET09909/03/22 18:53:01 METAR KBFI 040253Z 12003KT 10SM SCT045 21/13 A3006 RMK AO2 SLP179 T02110128 56005","FM-15","7",,,,,,,,,,,,,,,,,,,,,,,,,,,"2007-05-17"
"72793524234","2022-09-03T19:53:00","FM-15","7",,,,,,,,,,,,,,,,,,,,,,,,,,,,,,,,,,,,,,,"30.07","56","67","0.00",,,,"68","30.07","CLR:00","30.04","10.00","61","000",,"0",,,,,,,,,,,,,,,,,,,,,,,,,,,,,,,,,,,,,"MET09009/03/22 19:53:02 METAR KBFI 040353Z 00000KT 10SM CLR 19/13 A3007 RMK AO2 SLP183 T01940133","FM-15","7",,,,,,,,,,,,,,,,,,,,,,,,,,,"2007-05-17"
"72793524234","2022-09-03T20:53:00","FM-15","7",,,,,,,,,,,,,,,,,,,,,,,,,,,,,,,,,,,,,,,"30.06","54","65","0.00",,,,"68","30.06","CLR:00","30.03","10.00","59","140",,"5",,,,,,,,,,,,,,,,,,,,,,,,,,,,,,,,,,,,,"MET09009/03/22 20:53:02 METAR KBFI 040453Z 14004KT 10SM CLR 18/12 A3006 RMK AO2 SLP180 T01830122","FM-15","7",,,,,,,,,,,,,,,,,,,,,,,,,,,"2007-05-17"
"72793524234","2022-09-03T21:53:00","FM-15","7",,,,,,,,,,,,,,,,,,,,,,,,,,,,,,,,,,,,,,,"30.07","55","65","0.00",,"-0.01","1","70","30.07","SCT:04 50","30.04","10.00","59","150",,"6",,,,,,,,,,,,,,,,,,,,,,,,,,,,,,,,,,,,,"MET11109/03/22 21:53:02 METAR KBFI 040553Z 15005KT 10SM SCT050 18/13 A3007 RMK AO2 SLP183 T01830128 10239 20183 51003","FM-15","7",,,,,,,,,,,,,,,,,,,,,,,,,,,"2007-05-17"
"72793524234","2022-09-03T22:53:00","FM-15","7",,,,,,,,,,,,,,,,,,,,,,,,,,,,,,,,,,,,,,,"30.07","54","65","0.00",,,,"68","30.07","CLR:00","30.04","10.00","59","140",,"5",,,,,,,,,,,,,,,,,,,,,,,,,,,,,,,,,,,,,"MET09009/03/22 22:53:02 METAR KBFI 040653Z 14004KT 10SM CLR 18/12 A3007 RMK AO2 SLP182 T01830122","FM-15","7",,,,,,,,,,,,,,,,,,,,,,,,,,,"2007-05-17"
"72793524234","2022-09-03T23:53:00","FM-15","7",,,,,,,,,,,,,,,,,,,,,,,,,,,,,,,,,,,,,,,"30.06","55","63","0.00",,,,"75","30.06","CLR:00","30.03","10.00","58","120",,"7",,,,,,,,,,,,,,,,,,,,,,,,,,,,,,,,,,,,,"MET10009/03/22 23:53:02 METAR KBFI 040753Z 12006KT 10SM CLR 17/13 A3006 RMK AO2 SLP179 T01720128 402390144","FM-15","7",,,,,,,,,,,,,,,,,,,,,,,,,,,"2007-05-17"
"72793524234","2022-09-03T23:59:00","SOD  ","6",,,,,,,,,,,,,,,,,,"67",,,"30.03",,"5.8","2","2.1","0","75","58","190","17","T",,,"150","12","RA BR",,,,,,,,,,,,,,,,,,,,,,,,,,,,,,,,,,,,,,,,,,,,,,,,,,,,,,,"SOD73024 HR PRECIPITATION (IN):T     24 HR MAX TEMP (F):75 24 HR MAX TEMP TIME (LST):1629 24 HR MIN TEMP (F):58 24 HR MIN TEMP TIME (LST):0532 AVERAGE STATION PRESSURE:30.025 MINIMUM SEA LEVEL PRESSURE:29.96 TIME OF OCCURRENCE:0034 PEAK WIND SPEED (MPH):17  PEAK WIND DIR (DEG):190 PEAK WIND TIME (LST):0455  FASTEST 2MIN SPEED (MPH):12 FASTEST 2MIN DIR (DEG):150 FASTEST 2MIN TIME (LST):0648 AVERAGE WIND SPEED (MPH):5.8  24 HR AVG TEMP (F):67 HEATING DEGREE DAYS:0   COOLING DEGREE DAYS:2   LATEST DAY MAX TEMP (0700-1900 LST):75  LATEST NIGHT MIN TEMP(1900-0800 LST):58 HOURLY INCREMENTAL PRECIPITATION VALUES (IN):.00 0.00 0.00 0.00 0.00 0.00 0.00 0.00 0.00 0.00 0.00 T    T    T    0.00 0.00 0.00 0.00 0.00 0.00 0.00 0.00 0.00 0.00","SOD  ","6",,,,,,,,,,,,,,,,,,,,,,,,,"0530","1846","2007-05-17"
"72793524234","2022-09-04T00:53:00","FM-15","7",,,,,,,,,,,,,,,,,,,,,,,,,,,,,,,,,,,,,,,"30.06","55","60","0.00",,"+0.01","8","84","30.06","CLR:00","30.03","10.00","57","150",,"8",,,,,,,,,,,,,,,,,,,,,,,,,,,,,,,,,,,,,"MET10109/04/22 00:53:02 METAR KBFI 040853Z 15007KT 10SM CLR 16/13 A3006 RMK AO2 SLP178 T01560128 58005 (NR)","FM-15","7",,,,,,,,,,,,,,,,,,,,,,,,,,,"2007-05-17"
"72793524234","2022-09-04T01:53:00","FM-15","7",,,,,,,,,,,,,,,,,,,,,,,,,,,,,,,,,,,,,,,"30.06","55","59","0.00",,,,"87","30.06","CLR:00","30.03","10.00","57","150",,"7",,,,,,,,,,,,,,,,,,,,,,,,,,,,,,,,,,,,,"MET09509/04/22 01:53:02 METAR KBFI 040953Z 15006KT 10SM CLR 15/13 A3006 RMK AO2 SLP179 T01500128 (NR)","FM-15","7",,,,,,,,,,,,,,,,,,,,,,,,,,,"2007-05-17"
"72793524234","2022-09-04T02:53:00","FM-15","7",,,,,,,,,,,,,,,,,,,,,,,,,,,,,,,,,,,,,,,"30.07","55","58","0.00",,,,"90","30.06","CLR:00","30.04","10.00","56","150",,"8",,,,,,,,,,,,,,,,,,,,,,,,,,,,,,,,,,,,,"MET09509/04/22 02:53:02 METAR KBFI 041053Z 15007KT 10SM CLR 14/13 A3007 RMK AO2 SLP181 T01440128 (NR)","FM-15","7",,,,,,,,,,,,,,,,,,,,,,,,,,,"2007-05-17"
"72793524234","2022-09-04T03:53:00","FM-15","7",,,,,,,,,,,,,,,,,,,,,,,,,,,,,,,,,,,,,,,"30.06","55","58","0.00",,"-0.00","0","90","30.06","FEW:02 43","30.03","10.00","56","140",,"8",,,,,,,,,,,,,,,,,,,,,,,,,,,,,,,,,,,,,"MET11109/04/22 03:53:02 METAR KBFI 041153Z 14007KT 10SM FEW043 14/13 A3006 RMK AO2 SLP179 T01440128 10183 20144 50001","FM-15","7",,,,,,,,,,,,,,,,,,,,,,,,,,,"2007-05-17"
"72793524234","2022-09-04T04:53:00","FM-15","7",,,,,,,,,,,,,,,,,,,,,,,,,,,,,,,,,,,,,,,"30.06","55","57","0.00",,,,"93","30.06","CLR:00","30.03","10.00","56","140",,"8",,,,,,,,,,,,,,,,,,,,,,,,,,,,,,,,,,,,,"MET09609/04/22 04:53:02 METAR KBFI 041253Z 14007KT 10SM CLR 14/13 A3006 RMK AO2 SLP178 T01390128 (TWR)","FM-15","7",,,,,,,,,,,,,,,,,,,,,,,,,,,"2007-05-17"
"72793524234","2022-09-04T05:53:00","FM-15","7",,,,,,,,,,,,,,,,,,,,,,,,,,,,,,,,,,,,,,,"30.06","54","58","0.00",,,,"87","30.06","CLR:00","30.03","10.00","56","150",,"7",,,,,,,,,,,,,,,,,,,,,,,,,,,,,,,,,,,,,"MET09609/04/22 05:53:02 METAR KBFI 041353Z 15006KT 10SM CLR 14/12 A3006 RMK AO2 SLP178 T01440122 (TWR)","FM-15","7",,,,,,,,,,,,,,,,,,,,,,,,,,,"2007-05-17"
"72793524234","2022-09-04T06:53:00","FM-15","7",,,,,,,,,,,,,,,,,,,,,,,,,,,,,,,,,,,,,,,"30.07","56","60","0.00",,"-0.01","3","86","30.06","SCT:04 60","30.04","10.00","58","150",,"8",,,,,,,,,,,,,,,,,,,,,,,,,,,,,,,,,,,,,"MET10509/04/22 06:53:02 METAR KBFI 041453Z 15007KT 10SM SCT060 16/13 A3007 RMK AO2 SLP181 T01560133 53002 (TWR)","FM-15","7",,,,,,,,,,,,,,,,,,,,,,,,,,,"2007-05-17"
"72793524234","2022-09-04T07:53:00","FM-15","7",,,,,,,,,,,,,,,,,,,,,,,,,,,,,,,,,,,,,,,"30.06","56","65","0.00",,,,"73","30.06","CLR:00","30.03","10.00","60","150",,"8",,,,,,,,,,,,,,,,,,,,,,,,,,,,,,,,,,,,,"MET09609/04/22 07:53:02 METAR KBFI 041553Z 15007KT 10SM CLR 18/13 A3006 RMK AO2 SLP179 T01830133 (TWR)","FM-15","7",,,,,,,,,,,,,,,,,,,,,,,,,,,"2007-05-17"
"72793524234","2022-09-04T08:53:00","FM-15","7",,,,,,,,,,,,,,,,,,,,,,,,,,,,,,,,,,,,,,,"30.06","57","69","0.00",,,,"66","30.06","CLR:00","30.03","10.00","62","200",,"7",,,,,,,,,,,,,,,,,,,,,,,,,,,,,,,,,,,,,"MET09609/04/22 08:53:02 METAR KBFI 041653Z 20006KT 10SM CLR 21/14 A3006 RMK AO2 SLP179 T02060139 (TWR)","FM-15","7",,,,,,,,,,,,,,,,,,,,,,,,,,,"2007-05-17"
"72793524234","2022-09-04T09:53:00","FM-15","7",,,,,,,,,,,,,,,,,,,,,,,,,,,,,,,,,,,,,,,"30.05","57","70","0.00",,"+0.02","8","64","30.05","BKN:07 120","30.02","10.00","62","180","18","9",,,,,,,,,,,,,,,,,,,,,,,,,,,,,,,,,,,,,"MET12009/04/22 09:53:02 METAR KBFI 041753Z 18008G16KT 10SM BKN120 21/14 A3005 RMK AO2 SLP175 T02110139 10217 20139 58006 (TWR)","FM-15","7",,,,,,,,,,,,,,,,,,,,,,,,,,,"2007-05-17"
"72793524234","2022-09-04T10:53:00","FM-15","7",,,,,,,,,,,,,,,,,,,,,,,,,,,,,,,,,,,,,,,"30.05","57","70","0.00",,,,"64","30.05","BKN:07 120","30.02","10.00","62","200","18","10",,,,,,,,,,,,,,,,,,,,,,,,,,,,,,,,,,,,,"MET10209/04/22 10:53:02 METAR KBFI 041853Z 20009G16KT 10SM BKN120 21/14 A3005 RMK AO2 SLP177 T02110139 (TWR)","FM-15","7",,,,,,,,,,,,,,,,,,,,,,,,,,,"2007-05-17"
"72793524234","2022-09-04T11:53:00","FM-15","7",,,,,,,,,,,,,,,,,,,,,,,,,,,,,,,,,,,,,,,"30.05","56","71","0.00",,,,"59","30.04","OVC:08 100","30.02","10.00","62","180","18","8",,,,,,,,,,,,,,,,,,,,,,,,,,,,,,,,,,,,,"MET10209/04/22 11:53:02 METAR KBFI 041953Z 18007G16KT 10SM OVC100 22/13 A3005 RMK AO2 SLP174 T02170133 (TWR)","FM-15","7",,,,,,,,,,,,,,,,,,,,,,,,,,,"2007-05-17"
"72793524234","2022-09-04T12:53:00","FM-15","7",,,,,,,,,,,,,,,,,,,,,,,,,,,,,,,,,,,,,,,"30.03","56","76","0.00",,"+0.02","8","50","30.03","OVC:08 85","30.00","10.00","64","230",,"6",,,,,,,,,,,,,,,,,,,,,,,,,,,,,,,,,,,,,"MET10509/04/22 12:53:02 METAR KBFI 042053Z 23005KT 10SM OVC085 24/13 A3003 RMK AO2 SLP168 T02440133 58006 (TWR)","FM-15","7",,,,,,,,,,,,,,,,,,,,,,,,,,,"2007-05-17"
"72793524234","2022-09-04T13:53:00","FM-15","7",,,,,,,,,,,,,,,,,,,,,,,,,,,,,,,,,,,,,,,"30.02","56","76","0.00",,,,"50","30.02","BKN:07 70 OVC:08 85","29.99","10.00","64","VRB",,"9",,,,,,,,,,,,,,,,,,,,,,,,,,,,,,,,,,,,,"MET10509/04/22 13:53:02 METAR KBFI 042153Z 22008KT 10SM BKN070 OVC085 24/13 A3002 RMK AO2 SLP165 T02440133 (NR)","FM-15","7",,,,,,,,,,,,,,,,,,,,,,,,,,,"2007-05-17"
"72793524234","2022-09-04T14:53:00","FM-15","7",,,,,,,,,,,,,,,,,,,,,,,,,,,,,,,,,,,,,,,"30.03","57","74","0.00",,,,"56","30.02","BKN:07 70","30.00","10.00","64","VRB","16","7",,,,,,,,,,,,,,,,,,,,,,,,,,,,,,,,,,,,,"MET10109/04/22 14:53:02 METAR KBFI 042253Z VRB06G14KT 10SM BKN070 23/14 A3003 RMK AO2 SLP167 T02330139 (MB)","FM-15","7",,,,,,,,,,,,,,,,,,,,,,,,,,,"2007-05-17"
"72793524234","2022-09-04T15:53:00","FM-15","7",,,,,,,,,,,,,,,,,,,,,,,,,,,,,,,,,,,,,,,"30.03","59","74","0.00",,"+0.00","5","60","30.03","OVC:08 85","30.00","10.00","65","VRB",,"7",,,,,,,,,,,,,,,,,,,,,,,,,,,,,,,,,,,,,"MET11609/04/22 15:53:02 METAR KBFI 042353Z VRB06KT 10SM OVC085 23/15 A3003 RMK AO2 SLP168 T02330150 10250 20206 55001 (MB)","FM-15","7",,,,,,,,,,,,,,,,,,,,,,,,,,,"2007-05-17"
"72793524234","2022-09-04T16:53:00","FM-15","4",,,,,,,,,,,,,,,,,,,,,,,,,,,,,,,,,,,,,,,"30.02","60","72",,,,,"66","30.02",,,"10.00",,"230","18","9",,,,,,,,,,,,,,,,,,,,,,,,,,,,,,,,,,,,,"MET079METAR KBFI 050053Z 23008G16KT 10SM OVC070 22/16 A3002 RMK AO2 SLP165 T02220156=","FM-15","4",,,,,,,,,,,,,,,,,,,,,,,,,,,"2007-05-17"
"72793524234","2022-09-04T17:53:00","FM-15","4",,,,,,,,,,,,,,,,,,,,,,,,,,,,,,,,,,,,,,,"30.03","61","70",,,,,"73","30.03",,,"10.00",,"180",,"7",,,,,,,,,,,,,,,,,,,,,,,,,,,,,,,,,,,,,"MET083METAR KBFI 050153Z 18006KT 10SM BKN055 OVC065 21/16 A3003 RMK AO2 SLP168 T02110161=","FM-15","4",,,,,,,,,,,,,,,,,,,,,,,,,,,"2007-05-17"
"72793524234","2022-09-04T18:53:00","FM-15","4",,,,,,,,,,,,,,,,,,,,,,,,,,,,,,,,,,,,,,,"30.04","60","64","T",,"-0.01","3","87","30.04",,,"10.00",,"290",,"5",,,,,,,,,,,,,,,,,,,,,,,,,,,,,,,,,,,,,"MET103METAR KBFI 050253Z 29004KT 10SM BKN055 18/16 A3004 RMK AO2 RAB03E22 SLP172 P0000 60000 T01780156 53005=","FM-15","4",,,,,,,,,,,,,,,,,,,,,,,,,,,"2007-05-17"
"72793524234","2022-09-04T19:46:00","FM-16","7",,,,,,,,,,,,,,,,,,,,,,,,,,,,,,,,,,,,,,,"30.06","61","64","T",,,,"90",,"SCT:04 19 BKN:07 28 BKN:07 47","30.03","10.00","62","VRB",,"3",,,,,,,,,,,,,,,,,,,,,,,,,,,,,,,,,,,,,"MET11509/04/22 19:46:01 SPECI KBFI 050346Z VRB03KT 10SM SCT019 BKN028 BKN047 18/16 A3006 RMK AO2 RAB26E46 P0000 T01780161","FM-16","7",,,,,,,,,,,,,,,,,,,,,,,,,,,"2007-05-17"
"72793524234","2022-09-04T19:53:00","FM-15","4",,,,,,,,,,,,,,,,,,,,,,,,,,,,,,,,,,,,,,,"30.06","60","64","T",,,,"87","30.06",,,"10.00",,"VRB",,"5",,,,,,,,,,,,,,,,,,,,,,,,,,,,,,,,,,,,,"MET105METAR KBFI 050353Z VRB04KT 10SM SCT019 BKN028 BKN047 18/16 A3006 RMK AO2 RAB26E46 SLP178 P0000 T01780156=","FM-15","4",,,,,,,,,,,,,,,,,,,,,,,,,,,"2007-05-17"
"72793524234","2022-09-04T20:53:00","FM-15","4",,,,,,,,,,,,,,,,,,,,,,,,,,,,,,,,,,,,,,,"30.08","57","62",,,,,"84","30.08",,,"10.00",,"VRB",,"5",,,,,,,,,,,,,,,,,,,,,,,,,,,,,,,,,,,,,"MET083METAR KBFI 050453Z VRB04KT 10SM BKN019 BKN050 17/14 A3008 RMK AO2 SLP185 T01670139=","FM-15","4",,,,,,,,,,,,,,,,,,,,,,,,,,,"2007-05-17"
"72793524234","2022-09-04T21:53:00","FM-15","7",,,,,,,,,,,,,,,,,,,,,,,,,,,,,,,,,,,,,,,"30.09","56","62","0.00",,"-0.05","1","80","30.09","OVC:08 21","30.06","10.00","59","000",,"0",,,,,,,,,,,,,,,,,,,,,,,,,,,,,,,,,,,,,"MET11709/04/22 21:53:01 METAR KBFI 050553Z 00000KT 10SM OVC021 17/13 A3009 RMK AO2 SLP189 60000 T01670133 10233 20167 51017","FM-15","7",,,,,,,,,,,,,,,,,,,,,,,,,,,"2007-05-17"
"72793524234","2022-09-04T22:51:00","FM-16","7",,,,,,,,,,,,,,,,,,,,,,,,,,,,,,,,,,,,,,,"30.10","55","63",,,,,"77","30.10","SCT:04 25 OVC:08 30","30.07","10.00","58","VRB",,"3",,,,,,,,,,,,,,,,,,,,,,,,,,,,,,,,,,,,,"MET09309/04/22 22:51:03 SPECI KBFI 050651Z VRB03KT 10SM SCT025 OVC030 17/13 A3010 RMK AO2 FIBI (SN)","FM-16","7",,,,,,,,,,,,,,,,,,,,,,,,,,,"2007-05-17"
"72793524234","2022-09-04T23:53:00","FM-15","4",,,,,,,,,,,,,,,,,,,,,,,,,,,,,,,,,,,,,,,"30.11","56","60",,,,,"86","30.11",,,"10.00",,"120",,"5",,,,,,,,,,,,,,,,,,,,,,,,,,,,,,,,,,,,,"MET086METAR KBFI 050753Z 12004KT 10SM OVC030 16/13 A3011 RMK AO2 SLP195 T01560133 402500139=","FM-15","4",,,,,,,,,,,,,,,,,,,,,,,,,,,"2007-05-17"
"72793524234","2022-09-04T23:59:00","SOD  ","6",,,,,,,,,,,,,,,,,,"67",,,"30.02",,"6.7","2","2.3","0","77","57","210","25","T",,,"220","14",,,,,,,,,,,,,,,,,,,,,,,,,,,,,,,,,,,,,,,,,,,,,,,,,,,,,,,,"SOD73024 HR PRECIPITATION (IN):T     24 HR MAX TEMP (F):77 24 HR MAX TEMP TIME (LST):1403 24 HR MIN TEMP (F):57 24 HR MIN TEMP TIME (LST):0611 AVERAGE STATION PRESSURE:30.020 MINIMUM SEA LEVEL PRESSURE:30.02 TIME OF OCCURRENCE:1815 PEAK WIND SPEED (MPH):25  PEAK WIND DIR (DEG):210 PEAK WIND TIME (LST):0840  FASTEST 2MIN SPEED (MPH):14 FASTEST 2MIN DIR (DEG):220 FASTEST 2MIN TIME (LST):1333 AVERAGE WIND SPEED (MPH):6.7  24 HR AVG TEMP (F):67 HEATING DEGREE DAYS:0   COOLING DEGREE DAYS:2   LATEST DAY MAX TEMP (0700-1900 LST):77  LATEST NIGHT MIN TEMP(1900-0800 LST):57 HOURLY INCREMENTAL PRECIPITATION VALUES (IN):.00 0.00 0.00 0.00 0.00 0.00 0.00 0.00 0.00 0.00 0.00 0.00 0.00 0.00 0.00 0.00 0.00 0.00 T    T    0.00 0.00 0.00 0.00","SOD  ","6",,,,,,,,,,,,,,,,,,,,,,,,,"0532","1844","2007-05-17"
"72793524234","2022-09-05T00:53:00","FM-15","4",,,,,,,,,,,,,,,,,,,,,,,,,,,,,,,,,,,,,,,"30.12","54","61",,,"-0.02","1","78","30.11",,,"10.00",,"060",,"7",,,,,,,,,,,,,,,,,,,,,,,,,,,,,,,,,,,,,"MET089METAR KBFI 050853Z 06006KT 10SM SCT035 OVC041 16/12 A3012 RMK AO2 SLP198 T01610122 51008=","FM-15","4",,,,,,,,,,,,,,,,,,,,,,,,,,,"2007-05-17"
"72793524234","2022-09-05T01:53:00","FM-15","4",,,,,,,,,,,,,,,,,,,,,,,,,,,,,,,,,,,,,,,"30.13","53","60",,,,,"78","30.12",,,"10.00",,"000",,"0",,,,,,,,,,,,,,,,,,,,,,,,,,,,,,,,,,,,,"MET076METAR KBFI 050953Z 00000KT 10SM FEW055 16/12 A3013 RMK AO2 SLP201 T01560117=","FM-15","4",,,,,,,,,,,,,,,,,,,,,,,,,,,"2007-05-17"
"72793524234","2022-09-05T02:53:00","FM-15","4",,,,,,,,,,,,,,,,,,,,,,,,,,,,,,,,,,,,,,,"30.14","52","59",,,,,"78","30.14",,,"10.00",,"000",,"0",,,,,,,,,,,,,,,,,,,,,,,,,,,,,,,,,,,,,"MET073METAR KBFI 051053Z 00000KT 10SM CLR 15/11 A3014 RMK AO2 SLP206 T01500111=","FM-15","4",,,,,,,,,,,,,,,,,,,,,,,,,,,"2007-05-17"
"72793524234","2022-09-05T03:53:00","FM-15","4",,,,,,,,,,,,,,,,,,,,,,,,,,,,,,,,,,,,,,,"30.14","51","57",,,"-0.03","1","81","30.14",,,"10.00",,"000",,"0",,,,,,,,,,,,,,,,,,,,,,,,,,,,,,,,,,,,,"MET094METAR KBFI 051153Z 00000KT 10SM FEW030 14/11 A3014 RMK AO2 SLP206 T01390106 10167 20139 51009=","FM-15","4",,,,,,,,,,,,,,,,,,,,,,,,,,,"2007-05-17"
"72793524234","2022-09-05T04:53:00","FM-15","4",,,,,,,,,,,,,,,,,,,,,,,,,,,,,,,,,,,,,,,"30.15","51","56",,,,,"84","30.15",,,"10.00",,"000",,"0",,,,,,,,,,,,,,,,,,,,,,,,,,,,,,,,,,,,,"MET076METAR KBFI 051253Z 00000KT 10SM BKN030 13/11 A3015 RMK AO2 SLP209 T01330106=","FM-15","4",,,,,,,,,,,,,,,,,,,,,,,,,,,"2007-05-17"
"72793524234","2022-09-05T05:53:00","FM-15","4",,,,,,,,,,,,,,,,,,,,,,,,,,,,,,,,,,,,,,,"30.17","52","59",,,,,"78","30.16",,,"10.00",,"000",,"0",,,,,,,,,,,,,,,,,,,,,,,,,,,,,,,,,,,,,"MET076METAR KBFI 051353Z 00000KT 10SM BKN030 15/11 A3017 RMK AO2 SLP215 T01500111=","FM-15","4",,,,,,,,,,,,,,,,,,,,,,,,,,,"2007-05-17"
"72793524234","2022-09-05T06:53:00","FM-15","7",,,,,,,,,,,,,,,,,,,,,,,,,,,,,,,,,,,,,,,"30.19","53","60","0.00",,"-0.04","3","78","30.18","FEW:02 27 SCT:04 32 OVC:08 50","30.16","10.00","56","290",,"3",,,,,,,,,,,,,,,,,,,,,,,,,,,,,,,,,,,,,"MET11809/05/22 06:53:02 METAR KBFI 051453Z 29003KT 10SM FEW027 SCT032 OVC050 16/12 A3019 RMK AO2 SLP221 T01560117 53015 (LB)","FM-15","7",,,,,,,,,,,,,,,,,,,,,,,,,,,"2007-05-17"
"72793524234","2022-09-05T07:53:00","FM-15","7",,,,,,,,,,,,,,,,,,,,,,,,,,,,,,,,,,,,,,,"30.21","53","62","0.00",,,,"73","30.21","FEW:02 27 SCT:04 32 OVC:08 55","30.18","10.00","57","060",,"3",,,,,,,,,,,,,,,,,,,,,,,,,,,,,,,,,,,,,"MET11209/05/22 07:53:02 METAR KBFI 051553Z 06003KT 10SM FEW027 SCT032 OVC055 17/12 A3021 RMK AO2 SLP229 T01670117 (LB)","FM-15","7",,,,,,,,,,,,,,,,,,,,,,,,,,,"2007-05-17"
"72793524234","2022-09-05T08:53:00","FM-15","4",,,,,,,,,,,,,,,,,,,,,,,,,,,,,,,,,,,,,,,"30.21","54","64",,,,,"70","30.21",,,"10.00",,"VRB",,"5",,,,,,,,,,,,,,,,,,,,,,,,,,,,,,,,,,,,,"MET083METAR KBFI 051653Z VRB04KT 10SM SCT032 BKN065 18/12 A3021 RMK AO2 SLP231 T01780122=","FM-15","4",,,,,,,,,,,,,,,,,,,,,,,,,,,"2007-05-17"
"72793524234","2022-09-05T09:53:00","FM-15","4",,,,,,,,,,,,,,,,,,,,,,,,,,,,,,,,,,,,,,,"30.20","54","66",,,"-0.02","0","65","30.20",,,"10.00",,"VRB",,"6",,,,,,,,,,,,,,,,,,,,,,,,,,,,,,,,,,,,,"MET091METAR KBFI 051753Z VRB05KT 10SM CLR 19/12 A3020 RMK AO2 SLP227 T01890122 10189 20133 50006=","FM-15","4",,,,,,,,,,,,,,,,,,,,,,,,,,,"2007-05-17"
"72793524234","2022-09-05T10:53:00","FM-15","4",,,,,,,,,,,,,,,,,,,,,,,,,,,,,,,,,,,,,,,"30.20","52","68",,,,,"57","30.20",,,"10.00",,"060",,"8",,,,,,,,,,,,,,,,,,,,,,,,,,,,,,,,,,,,,"MET073METAR KBFI 051853Z 06007KT 10SM CLR 20/11 A3020 RMK AO2 SLP226 T02000111=","FM-15","4",,,,,,,,,,,,,,,,,,,,,,,,,,,"2007-05-17"
"72793524234","2022-09-05T11:53:00","FM-15","4",,,,,,,,,,,,,,,,,,,,,,,,,,,,,,,,,,,,,,,"30.19","53","70",,,,,"55","30.19",,,"10.00",,"280",,"8",,,,,,,,,,,,,,,,,,,,,,,,,,,,,,,,,,,,,"MET076METAR KBFI 051953Z 28007KT 10SM FEW033 21/12 A3019 RMK AO2 SLP223 T02110117=","FM-15","4",,,,,,,,,,,,,,,,,,,,,,,,,,,"2007-05-17"
"72793524234","2022-09-05T12:53:00","FM-15","4",,,,,,,,,,,,,,,,,,,,,,,,,,,,,,,,,,,,,,,"30.18","50","71",,,"+0.02","8","47","30.18",,,"10.00",,"320",,"7",,,,,,,,,,,,,,,,,,,,,,,,,,,,,,,,,,,,,"MET079METAR KBFI 052053Z 32006KT 10SM CLR 22/10 A3018 RMK AO2 SLP220 T02170100 58007=","FM-15","4",,,,,,,,,,,,,,,,,,,,,,,,,,,"2007-05-17"
"72793524234","2022-09-05T13:53:00","FM-15","4",,,,,,,,,,,,,,,,,,,,,,,,,,,,,,,,,,,,,,,"30.17","49","72",,,,,"44","30.17",,,"10.00",,"290",,"9",,,,,,,,,,,,,,,,,,,,,,,,,,,,,,,,,,,,,"MET073METAR KBFI 052153Z 29008KT 10SM CLR 22/09 A3017 RMK AO2 SLP216 T02220094=","FM-15","4",,,,,,,,,,,,,,,,,,,,,,,,,,,"2007-05-17"
"72793524234","2022-09-05T14:53:00","FM-15","4",,,,,,,,,,,,,,,,,,,,,,,,,,,,,,,,,,,,,,,"30.14","47","73",,,,,"40","30.14",,,"10.00",,"VRB","20","9",,,,,,,,,,,,,,,,,,,,,,,,,,,,,,,,,,,,,"MET094METAR KBFI 052253Z 31008G17KT 280V350 10SM FEW038 SCT220 23/08 A3014 RMK AO2 SLP207 T02280083=","FM-15","4",,,,,,,,,,,,,,,,,,,,,,,,,,,"2007-05-17"
"72793524234","2022-09-05T15:53:00","FM-15","4",,,,,,,,,,,,,,,,,,,,,,,,,,,,,,,,,,,,,,,"30.13","44","72",,,"+0.06","8","37","30.12",,,"10.00",,"330","21","8",,,,,,,,,,,,,,,,,,,,,,,,,,,,,,,,,,,,,"MET094METAR KBFI 052353Z 33007G18KT 10SM CLR 22/07 A3013 RMK AO2 SLP201 T02220067 10233 20189 58019=","FM-15","4",,,,,,,,,,,,,,,,,,,,,,,,,,,"2007-05-17"
"72793524234","2022-09-05T16:53:00","FM-15","4",,,,,,,,,,,,,,,,,,,,,,,,,,,,,,,,,,,,,,,"30.12","40","74",,,,,"29","30.11",,,"10.00",,"VRB",,"5",,,,,,,,,,,,,,,,,,,,,,,,,,,,,,,,,,,,,"MET073METAR KBFI 060053Z VRB04KT 10SM CLR 23/04 A3012 RMK AO2 SLP197 T02330044=","FM-15","4",,,,,,,,,,,,,,,,,,,,,,,,,,,"2007-05-17"
"72793524234","2022-09-05T17:53:00","FM-15","4",,,,,,,,,,,,,,,,,,,,,,,,,,,,,,,,,,,,,,,"30.10","40","71",,,,,"32","30.10",,,"10.00",,"VRB",,"6",,,,,,,,,,,,,,,,,,,,,,,,,,,,,,,,,,,,,"MET073METAR KBFI 060153Z VRB05KT 10SM CLR 22/04 A3010 RMK AO2 SLP192 T02170044=","FM-15","4",,,,,,,,,,,,,,,,,,,,,,,,,,,"2007-05-17"
"72793524234","2022-09-05T18:53:00","FM-15","4",,,,,,,,,,,,,,,,,,,,,,,,,,,,,,,,,,,,,,,"30.09","45","68",,,"+0.04","6","44","30.09",,,"10.00",,"VRB",,"6",,,,,,,,,,,,,,,,,,,,,,,,,,,,,,,,,,,,,"MET079METAR KBFI 060253Z VRB05KT 10SM CLR 20/07 A3009 RMK AO2 SLP190 T02000072 56012=","FM-15","4",,,,,,,,,,,,,,,,,,,,,,,,,,,"2007-05-17"
"72793524234","2022-09-05T19:53:00","FM-15","4",,,,,,,,,,,,,,,,,,,,,,,,,,,,,,,,,,,,,,,"30.10","50","65",,,,,"59","30.09",,,"10.00",,"VRB",,"5",,,,,,,,,,,,,,,,,,,,,,,,,,,,,,,,,,,,,"MET073METAR KBFI 060353Z VRB04KT 10SM CLR 18/10 A3010 RMK AO2 SLP191 T01830100=","FM-15","4",,,,,,,,,,,,,,,,,,,,,,,,,,,"2007-05-17"
"72793524234","2022-09-05T20:53:00","FM-15","4",,,,,,,,,,,,,,,,,,,,,,,,,,,,,,,,,,,,,,,"30.09","51","63",,,,,"65","30.09",,,"10.00",,"300",,"3",,,,,,,,,,,,,,,,,,,,,,,,,,,,,,,,,,,,,"MET073METAR KBFI 060453Z 30003KT 10SM CLR 17/11 A3009 RMK AO2 SLP188 T01720106=","FM-15","4",,,,,,,,,,,,,,,,,,,,,,,,,,,"2007-05-17"
"72793524234","2022-09-05T21:53:00","FM-15","4",,,,,,,,,,,,,,,,,,,,,,,,,,,,,,,,,,,,,,,"30.09","50","62",,,"+0.01","8","65","30.09",,,"10.00",,"320",,"3",,,,,,,,,,,,,,,,,,,,,,,,,,,,,,,,,,,,,"MET096METAR KBFI 060553Z AUTO 32003KT 10SM CLR 17/10 A3009 RMK AO2 SLP188 T01670100 10233 20167 58002=","FM-15","4",,,,,,,,,,,,,,,,,,,,,,,,,,,"2007-05-17"
"72793524234","2022-09-05T22:53:00","FM-15","4",,,,,,,,,,,,,,,,,,,,,,,,,,,,,,,,,,,,,,,"30.08","47","62",,,,,"58","30.08",,,"10.00",,"VRB",,"3",,,,,,,,,,,,,,,,,,,,,,,,,,,,,,,,,,,,,"MET078METAR KBFI 060653Z AUTO VRB03KT 10SM CLR 17/08 A3008 RMK AO2 SLP186 T01670083=","FM-15","4",,,,,,,,,,,,,,,,,,,,,,,,,,,"2007-05-17"
"72793524234","2022-09-05T23:53:00","FM-15","4",,,,,,,,,,,,,,,,,,,,,,,,,,,,,,,,,,,,,,,"30.07","47","61",,,,,"60","30.06",,,"10.00",,"000",,"0",,,,,,,,,,,,,,,,,,,,,,,,,,,,,,,,,,,,,"MET088METAR KBFI 060753Z AUTO 00000KT 10SM CLR 16/08 A3007 RMK AO2 SLP181 T01610083 402330133=","FM-15","4",,,,,,,,,,,,,,,,,,,,,,,,,,,"2007-05-17"
"72793524234","2022-09-05T23:59:00","SOD  ","6",,,,,,,,,,,,,,,,,,"65",,,"30.11",,"4.4","0","0.5","0","74","56","310","21","0.00",,,"300","12",,,,,,,,,,,,,,,,,,,,,,,,,,,,,,,,,,,,,,,,,,,,,,,,,,,,,,,,"SOD73024 HR PRECIPITATION (IN):0.00  24 HR MAX TEMP (F):74 24 HR MAX TEMP TIME (LST):1702 24 HR MIN TEMP (F):56 24 HR MIN TEMP TIME (LST):0457 AVERAGE STATION PRESSURE:30.105 MINIMUM SEA LEVEL PRESSURE:30.07 TIME OF OCCURRENCE:2359 PEAK WIND SPEED (MPH):21  PEAK WIND DIR (DEG):310 PEAK WIND TIME (LST):1609  FASTEST 2MIN SPEED (MPH):12 FASTEST 2MIN DIR (DEG):300 FASTEST 2MIN TIME (LST):1610 AVERAGE WIND SPEED (MPH):4.4  24 HR AVG TEMP (F):65 HEATING DEGREE DAYS:0   COOLING DEGREE DAYS:0   LATEST DAY MAX TEMP (0700-1900 LST):74  LATEST NIGHT MIN TEMP(1900-0800 LST):56 HOURLY INCREMENTAL PRECIPITATION VALUES (IN):.00 0.00 0.00 0.00 0.00 0.00 0.00 0.00 0.00 0.00 0.00 0.00 0.00 0.00 0.00 0.00 0.00 0.00 0.00 0.00 0.00 0.00 0.00 0.00","SOD  ","6",,,,,,,,,,,,,,,,,,,,,,,,,"0533","1842","2007-05-17"
"72793524234","2022-09-06T00:53:00","FM-15","4",,,,,,,,,,,,,,,,,,,,,,,,,,,,,,,,,,,,,,,"30.06","48","60",,,"+0.03","8","65","30.06",,,"10.00",,"000",,"0",,,,,,,,,,,,,,,,,,,,,,,,,,,,,,,,,,,,,"MET084METAR KBFI 060853Z AUTO 00000KT 10SM CLR 16/09 A3006 RMK AO2 SLP179 T01560089 58009=","FM-15","4",,,,,,,,,,,,,,,,,,,,,,,,,,,"2007-05-17"
"72793524234","2022-09-06T01:53:00","FM-15","4",,,,,,,,,,,,,,,,,,,,,,,,,,,,,,,,,,,,,,,"30.05","49","59",,,,,"69","30.05",,,"10.00",,"000",,"0",,,,,,,,,,,,,,,,,,,,,,,,,,,,,,,,,,,,,"MET073METAR KBFI 060953Z 00000KT 10SM CLR 15/09 A3005 RMK AO2 SLP176 T01500094=","FM-15","4",,,,,,,,,,,,,,,,,,,,,,,,,,,"2007-05-17"
"72793524234","2022-09-06T02:53:00","FM-15","4",,,,,,,,,,,,,,,,,,,,,,,,,,,,,,,,,,,,,,,"30.05","48","55",,,,,"77","30.05",,,"10.00",,"000",,"0",,,,,,,,,,,,,,,,,,,,,,,,,,,,,,,,,,,,,"MET073METAR KBFI 061053Z 00000KT 10SM CLR 13/09 A3005 RMK AO2 SLP175 T01280089=","FM-15","4",,,,,,,,,,,,,,,,,,,,,,,,,,,"2007-05-17"
"72793524234","2022-09-06T03:53:00","FM-15","4",,,,,,,,,,,,,,,,,,,,,,,,,,,,,,,,,,,,,,,"30.05","50","56",,,"+0.01","5","81","30.05",,,"10.00",,"000",,"0",,,,,,,,,,,,,,,,,,,,,,,,,,,,,,,,,,,,,"MET091METAR KBFI 061153Z 00000KT 10SM CLR 13/10 A3005 RMK AO2 SLP176 T01330100 10167 20128 55003=","FM-15","4",,,,,,,,,,,,,,,,,,,,,,,,,,,"2007-05-17"
"72793524234","2022-09-06T04:53:00","FM-15","4",,,,,,,,,,,,,,,,,,,,,,,,,,,,,,,,,,,,,,,"30.05","50","55",,,,,"83","30.04",,,"10.00",,"000",,"0",,,,,,,,,,,,,,,,,,,,,,,,,,,,,,,,,,,,,"MET073METAR KBFI 061253Z 00000KT 10SM CLR 13/10 A3005 RMK AO2 SLP174 T01280100=","FM-15","4",,,,,,,,,,,,,,,,,,,,,,,,,,,"2007-05-17"
"72793524234","2022-09-06T05:53:00","FM-15","4",,,,,,,,,,,,,,,,,,,,,,,,,,,,,,,,,,,,,,,"30.05","52","57",,,,,"83","30.05",,,"10.00",,"000",,"0",,,,,,,,,,,,,,,,,,,,,,,,,,,,,,,,,,,,,"MET073METAR KBFI 061353Z 00000KT 10SM CLR 14/11 A3005 RMK AO2 SLP176 T01390111=","FM-15","4",,,,,,,,,,,,,,,,,,,,,,,,,,,"2007-05-17"
"72793524234","2022-09-06T06:53:00","FM-15","4",,,,,,,,,,,,,,,,,,,,,,,,,,,,,,,,,,,,,,,"30.06","51","59",,,"-0.01","3","75","30.06",,,"10.00",,"VRB",,"5",,,,,,,,,,,,,,,,,,,,,,,,,,,,,,,,,,,,,"MET079METAR KBFI 061453Z VRB04KT 10SM CLR 15/11 A3006 RMK AO2 SLP178 T01500106 53003=","FM-15","4",,,,,,,,,,,,,,,,,,,,,,,,,,,"2007-05-17"
"72793524234","2022-09-06T07:53:00","FM-15","4",,,,,,,,,,,,,,,,,,,,,,,,,,,,,,,,,,,,,,,"30.06","52","60",,,,,"75","30.06",,,"10.00",,"340",,"6",,,,,,,,,,,,,,,,,,,,,,,,,,,,,,,,,,,,,"MET073METAR KBFI 061553Z 34005KT 10SM CLR 16/11 A3006 RMK AO2 SLP178 T01560111=","FM-15","4",,,,,,,,,,,,,,,,,,,,,,,,,,,"2007-05-17"
"72793524234","2022-09-06T08:53:00","FM-15","4",,,,,,,,,,,,,,,,,,,,,,,,,,,,,,,,,,,,,,,"30.05","52","64",,,,,"65","30.05",,,"10.00",,"060",,"7",,,,,,,,,,,,,,,,,,,,,,,,,,,,,,,,,,,,,"MET073METAR KBFI 061653Z 06006KT 10SM CLR 18/11 A3005 RMK AO2 SLP176 T01780111=","FM-15","4",,,,,,,,,,,,,,,,,,,,,,,,,,,"2007-05-17"
"72793524234","2022-09-06T09:53:00","FM-15","4",,,,,,,,,,,,,,,,,,,,,,,,,,,,,,,,,,,,,,,"30.05","52","68",,,"+0.01","8","57","30.04",,,"10.00",,"300",,"7",,,,,,,,,,,,,,,,,,,,,,,,,,,,,,,,,,,,,"MET091METAR KBFI 061753Z 30006KT 10SM CLR 20/11 A3005 RMK AO2 SLP174 T02000111 10200 20122 58004=","FM-15","4",,,,,,,,,,,,,,,,,,,,,,,,,,,"2007-05-17"
"72793524234","2022-09-06T10:53:00","FM-15","4",,,,,,,,,,,,,,,,,,,,,,,,,,,,,,,,,,,,,,,"30.03","52","69",,,,,"55","30.03",,,"10.00",,"300",,"7",,,,,,,,,,,,,,,,,,,,,,,,,,,,,,,,,,,,,"MET078METAR KBFI 061853Z AUTO 30006KT 10SM CLR 21/11 A3003 RMK AO2 SLP169 T02060111=","FM-15","4",,,,,,,,,,,,,,,,,,,,,,,,,,,"2007-05-17"
"72793524234","2022-09-06T11:53:00","FM-15","4",,,,,,,,,,,,,,,,,,,,,,,,,,,,,,,,,,,,,,,"30.01","50","72",,,,,"46","30.01",,,"10.00",,"300",,"8",,,,,,,,,,,,,,,,,,,,,,,,,,,,,,,,,,,,,"MET078METAR KBFI 061953Z AUTO 30007KT 10SM CLR 22/10 A3001 RMK AO2 SLP162 T02220100=","FM-15","4",,,,,,,,,,,,,,,,,,,,,,,,,,,"2007-05-17"
"72793524234","2022-09-06T12:53:00","FM-15","4",,,,,,,,,,,,,,,,,,,,,,,,,,,,,,,,,,,,,,,"30.00","51","73",,,"+0.05","6","46","30.00",,,"10.00",,"330",,"7",,,,,,,,,,,,,,,,,,,,,,,,,,,,,,,,,,,,,"MET084METAR KBFI 062053Z AUTO 33006KT 10SM CLR 23/11 A3000 RMK AO2 SLP158 T02280106 56016=","FM-15","4",,,,,,,,,,,,,,,,,,,,,,,,,,,"2007-05-17"
"72793524234","2022-09-06T13:53:00","FM-15","4",,,,,,,,,,,,,,,,,,,,,,,,,,,,,,,,,,,,,,,"29.99","51","74",,,,,"45","29.98",,,"10.00",,"VRB",,"7",,,,,,,,,,,,,,,,,,,,,,,,,,,,,,,,,,,,,"MET073METAR KBFI 062153Z VRB06KT 10SM CLR 23/11 A2999 RMK AO2 SLP154 T02330106=","FM-15","4",,,,,,,,,,,,,,,,,,,,,,,,,,,"2007-05-17"
"72793524234","2022-09-06T14:53:00","FM-15","4",,,,,,,,,,,,,,,,,,,,,,,,,,,,,,,,,,,,,,,"29.98","51","75",,,,,"43","29.98",,,"10.00",,"300",,"9",,,,,,,,,,,,,,,,,,,,,,,,,,,,,,,,,,,,,"MET073METAR KBFI 062253Z 30008KT 10SM CLR 24/11 A2998 RMK AO2 SLP152 T02390106=","FM-15","4",,,,,,,,,,,,,,,,,,,,,,,,,,,"2007-05-17"
"72793524234","2022-09-06T15:53:00","FM-15","7",,,,,,,,,,,,,,,,,,,,,,,,,,,,,,,,,,,,,,,"29.98","49","75","0.00",,"+0.02","6","40","29.98","CLR:00","29.95","10.00","60","310","18","10",,,,,,,,,,,,,,,,,,,,,,,,,,,,,,,,,,,,,"MET11109/06/22 15:53:02 METAR KBFI 062353Z 31009G16KT 10SM CLR 24/09 A2998 RMK AO2 SLP151 T02390094 10244 20200 56007","FM-15","7",,,,,,,,,,,,,,,,,,,,,,,,,,,"2007-05-17"
"72793524234","2022-09-06T16:53:00","FM-15","4",,,,,,,,,,,,,,,,,,,,,,,,,,,,,,,,,,,,,,,"29.97","49","75",,,,,"40","29.97",,,"10.00",,"VRB",,"8",,,,,,,,,,,,,,,,,,,,,,,,,,,,,,,,,,,,,"MET081METAR KBFI 070053Z 31007KT 280V340 10SM CLR 24/09 A2997 RMK AO2 SLP148 T02390094=","FM-15","4",,,,,,,,,,,,,,,,,,,,,,,,,,,"2007-05-17"
"72793524234","2022-09-06T17:53:00","FM-15","7",,,,,,,,,,,,,,,,,,,,,,,,,,,,,,,,,,,,,,,"29.97","47","74","0.00",,,,"38","29.97","CLR:00","29.94","10.00","59","310",,"6",,,,,,,,,,,,,,,,,,,,,,,,,,,,,,,,,,,,,"MET09009/06/22 17:53:01 METAR KBFI 070153Z 31005KT 10SM CLR 23/08 A2997 RMK AO2 SLP148 T02330083","FM-15","7",,,,,,,,,,,,,,,,,,,,,,,,,,,"2007-05-17"
"72793524234","2022-09-06T18:53:00","FM-15","4",,,,,,,,,,,,,,,,,,,,,,,,,,,,,,,,,,,,,,,"29.97","48","71",,,"+0.01","5","44","29.97",,,"10.00",,"310",,"5",,,,,,,,,,,,,,,,,,,,,,,,,,,,,,,,,,,,,"MET079METAR KBFI 070253Z 31004KT 10SM CLR 22/09 A2997 RMK AO2 SLP149 T02170089 55002=","FM-15","4",,,,,,,,,,,,,,,,,,,,,,,,,,,"2007-05-17"
"72793524234","2022-09-06T19:53:00","FM-15","4",,,,,,,,,,,,,,,,,,,,,,,,,,,,,,,,,,,,,,,"29.99","51","68",,,,,"55","29.99",,,"10.00",,"VRB",,"3",,,,,,,,,,,,,,,,,,,,,,,,,,,,,,,,,,,,,"MET073METAR KBFI 070353Z VRB03KT 10SM CLR 20/11 A2999 RMK AO2 SLP155 T02000106=","FM-15","4",,,,,,,,,,,,,,,,,,,,,,,,,,,"2007-05-17"
"72793524234","2022-09-06T20:53:00","FM-15","4",,,,,,,,,,,,,,,,,,,,,,,,,,,,,,,,,,,,,,,"30.00","52","66",,,,,"61","29.99",,,"10.00",,"310",,"3",,,,,,,,,,,,,,,,,,,,,,,,,,,,,,,,,,,,,"MET073METAR KBFI 070453Z 31003KT 10SM CLR 19/11 A3000 RMK AO2 SLP157 T01890111=","FM-15","4",,,,,,,,,,,,,,,,,,,,,,,,,,,"2007-05-17"
"72793524234","2022-09-06T21:53:00","FM-15","4",,,,,,,,,,,,,,,,,,,,,,,,,,,,,,,,,,,,,,,"30.01","50","66",,,"-0.04","1","56","30.01",,,"10.00",,"000",,"0",,,,,,,,,,,,,,,,,,,,,,,,,,,,,,,,,,,,,"MET091METAR KBFI 070553Z 00000KT 10SM CLR 19/10 A3001 RMK AO2 SLP161 T01890100 10244 20183 51012=","FM-15","4",,,,,,,,,,,,,,,,,,,,,,,,,,,"2007-05-17"
"72793524234","2022-09-06T22:53:00","FM-15","4",,,,,,,,,,,,,,,,,,,,,,,,,,,,,,,,,,,,,,,"30.00","49","65",,,,,"56","30.00",,,"10.00",,"VRB",,"3",,,,,,,,,,,,,,,,,,,,,,,,,,,,,,,,,,,,,"MET073METAR KBFI 070653Z VRB03KT 10SM CLR 18/09 A3000 RMK AO2 SLP159 T01830094=","FM-15","4",,,,,,,,,,,,,,,,,,,,,,,,,,,"2007-05-17"
"72793524234","2022-09-06T23:53:00","FM-15","4",,,,,,,,,,,,,,,,,,,,,,,,,,,,,,,,,,,,,,,"30.01","48","63",,,,,"58","30.00",,,"10.00",,"000",,"0",,,,,,,,,,,,,,,,,,,,,,,,,,,,,,,,,,,,,"MET083METAR KBFI 070753Z 00000KT 10SM CLR 17/09 A3001 RMK AO2 SLP160 T01720089 402440122=","FM-15","4",,,,,,,,,,,,,,,,,,,,,,,,,,,"2007-05-17"
"72793524234","2022-09-06T23:59:00","SOD  ","6",,,,,,,,,,,,,,,,,,"65",,,"29.98",,"4.2","0","0.7","0","76","54","310","18","0.00",,,"300","12",,,,,,,,,,,,,,,,,,,,,,,,,,,,,,,,,,,,,,,,,,,,,,,,,,,,,,,,"SOD73024 HR PRECIPITATION (IN):0.00  24 HR MAX TEMP (F):76 24 HR MAX TEMP TIME (LST):1700 24 HR MIN TEMP (F):54 24 HR MIN TEMP TIME (LST):0447 AVERAGE STATION PRESSURE:29.985 MINIMUM SEA LEVEL PRESSURE:29.96 TIME OF OCCURRENCE:1828 PEAK WIND SPEED (MPH):18  PEAK WIND DIR (DEG):310 PEAK WIND TIME (LST):1533  FASTEST 2MIN SPEED (MPH):12 FASTEST 2MIN DIR (DEG):300 FASTEST 2MIN TIME (LST):1538 AVERAGE WIND SPEED (MPH):4.2  24 HR AVG TEMP (F):65 HEATING DEGREE DAYS:0   COOLING DEGREE DAYS:0   LATEST DAY MAX TEMP (0700-1900 LST):76  LATEST NIGHT MIN TEMP(1900-0800 LST):54 HOURLY INCREMENTAL PRECIPITATION VALUES (IN):.00 0.00 0.00 0.00 0.00 0.00 0.00 0.00 0.00 0.00 0.00 0.00 0.00 0.00 0.00 0.00 0.00 0.00 0.00 0.00 0.00 0.00 0.00 0.00","SOD  ","6",,,,,,,,,,,,,,,,,,,,,,,,,"0534","1840","2007-05-17"
"72793524234","2022-09-07T00:53:00","FM-15","4",,,,,,,,,,,,,,,,,,,,,,,,,,,,,,,,,,,,,,,"30.01","49","63",,,"-0.00","2","60","30.01",,,"10.00",,"000",,"0",,,,,,,,,,,,,,,,,,,,,,,,,,,,,,,,,,,,,"MET079METAR KBFI 070853Z 00000KT 10SM CLR 17/09 A3001 RMK AO2 SLP162 T01720094 53000=","FM-15","4",,,,,,,,,,,,,,,,,,,,,,,,,,,"2007-05-17"
"72793524234","2022-09-07T01:53:00","FM-15","4",,,,,,,,,,,,,,,,,,,,,,,,,,,,,,,,,,,,,,,"30.01","48","60",,,,,"65","30.01",,,"10.00",,"000",,"0",,,,,,,,,,,,,,,,,,,,,,,,,,,,,,,,,,,,,"MET073METAR KBFI 070953Z 00000KT 10SM CLR 16/09 A3001 RMK AO2 SLP163 T01560089=","FM-15","4",,,,,,,,,,,,,,,,,,,,,,,,,,,"2007-05-17"
"72793524234","2022-09-07T02:53:00","FM-15","4",,,,,,,,,,,,,,,,,,,,,,,,,,,,,,,,,,,,,,,"30.03","48","61",,,,,"63","30.03",,,"10.00",,"000",,"0",,,,,,,,,,,,,,,,,,,,,,,,,,,,,,,,,,,,,"MET073METAR KBFI 071053Z 00000KT 10SM CLR 16/09 A3003 RMK AO2 SLP170 T01610089=","FM-15","4",,,,,,,,,,,,,,,,,,,,,,,,,,,"2007-05-17"
"72793524234","2022-09-07T03:53:00","FM-15","4",,,,,,,,,,,,,,,,,,,,,,,,,,,,,,,,,,,,,,,"30.05","46","62",,,"-0.04","3","56","30.05",,,"10.00",,"000",,"0",,,,,,,,,,,,,,,,,,,,,,,,,,,,,,,,,,,,,"MET091METAR KBFI 071153Z 00000KT 10SM CLR 17/08 A3005 RMK AO2 SLP175 T01670078 10189 20150 53014=","FM-15","4",,,,,,,,,,,,,,,,,,,,,,,,,,,"2007-05-17"
"72793524234","2022-09-07T04:53:00","FM-15","4",,,,,,,,,,,,,,,,,,,,,,,,,,,,,,,,,,,,,,,"30.07","48","60",,,,,"65","30.07",,,"10.00",,"000",,"0",,,,,,,,,,,,,,,,,,,,,,,,,,,,,,,,,,,,,"MET083METAR KBFI 071253Z 00000KT 10SM SCT150 SCT200 16/09 A3007 RMK AO2 SLP183 T01560089=","FM-15","4",,,,,,,,,,,,,,,,,,,,,,,,,,,"2007-05-17"
"72793524234","2022-09-07T05:53:00","FM-15","4",,,,,,,,,,,,,,,,,,,,,,,,,,,,,,,,,,,,,,,"30.09","49","59",,,,,"69","30.09",,,"10.00",,"000",,"0",,,,,,,,,,,,,,,,,,,,,,,,,,,,,,,,,,,,,"MET076METAR KBFI 071353Z 00000KT 10SM SCT150 15/09 A3009 RMK AO2 SLP190 T01500094=","FM-15","4",,,,,,,,,,,,,,,,,,,,,,,,,,,"2007-05-17"
"72793524234","2022-09-07T06:53:00","FM-15","4",,,,,,,,,,,,,,,,,,,,,,,,,,,,,,,,,,,,,,,"30.11","47","62",,,"-0.06","1","58","30.11",,,"10.00",,"000",,"0",,,,,,,,,,,,,,,,,,,,,,,,,,,,,,,,,,,,,"MET079METAR KBFI 071453Z 00000KT 10SM CLR 17/08 A3011 RMK AO2 SLP195 T01670083 51019=","FM-15","4",,,,,,,,,,,,,,,,,,,,,,,,,,,"2007-05-17"
"72793524234","2022-09-07T07:53:00","FM-15","4",,,,,,,,,,,,,,,,,,,,,,,,,,,,,,,,,,,,,,,"30.12","47","65",,,,,"52","30.11",,,"10.00",,"VRB",,"3",,,,,,,,,,,,,,,,,,,,,,,,,,,,,,,,,,,,,"MET076METAR KBFI 071553Z VRB03KT 10SM OVC220 18/08 A3012 RMK AO2 SLP198 T01830083=","FM-15","4",,,,,,,,,,,,,,,,,,,,,,,,,,,"2007-05-17"
"72793524234","2022-09-07T08:53:00","FM-15","4",,,,,,,,,,,,,,,,,,,,,,,,,,,,,,,,,,,,,,,"30.15","50","66",,,,,"56","30.14",,,"10.00",,"050",,"5",,,,,,,,,,,,,,,,,,,,,,,,,,,,,,,,,,,,,"MET073METAR KBFI 071653Z 05004KT 10SM CLR 19/10 A3015 RMK AO2 SLP208 T01890100=","FM-15","4",,,,,,,,,,,,,,,,,,,,,,,,,,,"2007-05-17"
"72793524234","2022-09-07T09:53:00","FM-15","4",,,,,,,,,,,,,,,,,,,,,,,,,,,,,,,,,,,,,,,"30.16","51","67",,,"-0.06","3","57","30.16",,,"10.00",,"000",,"0",,,,,,,,,,,,,,,,,,,,,,,,,,,,,,,,,,,,,"MET091METAR KBFI 071753Z 00000KT 10SM CLR 19/11 A3016 RMK AO2 SLP214 T01940106 10194 20150 53019=","FM-15","4",,,,,,,,,,,,,,,,,,,,,,,,,,,"2007-05-17"
"72793524234","2022-09-07T10:53:00","FM-15","4",,,,,,,,,,,,,,,,,,,,,,,,,,,,,,,,,,,,,,,"30.16","52","69",,,,,"55","30.16",,,"10.00",,"330","17","8",,,,,,,,,,,,,,,,,,,,,,,,,,,,,,,,,,,,,"MET076METAR KBFI 071853Z 33007G15KT 10SM CLR 21/11 A3016 RMK AO2 SLP213 T02060111=","FM-15","4",,,,,,,,,,,,,,,,,,,,,,,,,,,"2007-05-17"
"72793524234","2022-09-07T11:53:00","FM-15","4",,,,,,,,,,,,,,,,,,,,,,,,,,,,,,,,,,,,,,,"30.16","53","72",,,,,"52","30.16",,,"10.00",,"300",,"7",,,,,,,,,,,,,,,,,,,,,,,,,,,,,,,,,,,,,"MET073METAR KBFI 071953Z 30006KT 10SM CLR 22/12 A3016 RMK AO2 SLP214 T02220117=","FM-15","4",,,,,,,,,,,,,,,,,,,,,,,,,,,"2007-05-17"
"72793524234","2022-09-07T12:53:00","FM-15","4",,,,,,,,,,,,,,,,,,,,,,,,,,,,,,,,,,,,,,,"30.16","51","75",,,"+0.01","8","43","30.16",,,"10.00",,"300",,"7",,,,,,,,,,,,,,,,,,,,,,,,,,,,,,,,,,,,,"MET079METAR KBFI 072053Z 30006KT 10SM CLR 24/11 A3016 RMK AO2 SLP212 T02390106 58002=","FM-15","4",,,,,,,,,,,,,,,,,,,,,,,,,,,"2007-05-17"
"72793524234","2022-09-07T13:53:00","FM-15","4",,,,,,,,,,,,,,,,,,,,,,,,,,,,,,,,,,,,,,,"30.16","51","75",,,,,"43","30.16",,,"10.00",,"330",,"9",,,,,,,,,,,,,,,,,,,,,,,,,,,,,,,,,,,,,"MET073METAR KBFI 072153Z 33008KT 10SM CLR 24/11 A3016 RMK AO2 SLP213 T02390106=","FM-15","4",,,,,,,,,,,,,,,,,,,,,,,,,,,"2007-05-17"
"72793524234","2022-09-07T14:53:00","FM-15","4",,,,,,,,,,,,,,,,,,,,,,,,,,,,,,,,,,,,,,,"30.15","50","76",,,,,"40","30.15",,,"10.00",,"300","18","10",,,,,,,,,,,,,,,,,,,,,,,,,,,,,,,,,,,,,"MET076METAR KBFI 072253Z 30009G16KT 10SM CLR 24/10 A3015 RMK AO2 SLP210 T02440100=","FM-15","4",,,,,,,,,,,,,,,,,,,,,,,,,,,"2007-05-17"
"72793524234","2022-09-07T15:53:00","FM-15","4",,,,,,,,,,,,,,,,,,,,,,,,,,,,,,,,,,,,,,,"30.15","50","76",,,"+0.01","8","40","30.15",,,"10.00",,"310",,"8",,,,,,,,,,,,,,,,,,,,,,,,,,,,,,,,,,,,,"MET091METAR KBFI 072353Z 31007KT 10SM CLR 24/10 A3015 RMK AO2 SLP210 T02440100 10250 20189 58003=","FM-15","4",,,,,,,,,,,,,,,,,,,,,,,,,,,"2007-05-17"
"72793524234","2022-09-07T16:53:00","FM-15","4",,,,,,,,,,,,,,,,,,,,,,,,,,,,,,,,,,,,,,,"30.15","48","74",,,,,"40","30.15",,,"10.00",,"310","18","8",,,,,,,,,,,,,,,,,,,,,,,,,,,,,,,,,,,,,"MET076METAR KBFI 080053Z 31007G16KT 10SM CLR 23/09 A3015 RMK AO2 SLP209 T02330089=","FM-15","4",,,,,,,,,,,,,,,,,,,,,,,,,,,"2007-05-17"
"72793524234","2022-09-07T17:53:00","FM-15","4",,,,,,,,,,,,,,,,,,,,,,,,,,,,,,,,,,,,,,,"30.15","51","72",,,,,"48","30.14",,,"10.00",,"320",,"6",,,,,,,,,,,,,,,,,,,,,,,,,,,,,,,,,,,,,"MET073METAR KBFI 080153Z 32005KT 10SM CLR 22/11 A3015 RMK AO2 SLP208 T02220106=","FM-15","4",,,,,,,,,,,,,,,,,,,,,,,,,,,"2007-05-17"
"72793524234","2022-09-07T18:53:00","FM-15","4",,,,,,,,,,,,,,,,,,,,,,,,,,,,,,,,,,,,,,,"30.16","52","67",,,"-0.01","3","59","30.16",,,"10.00",,"VRB",,"6",,,,,,,,,,,,,,,,,,,,,,,,,,,,,,,,,,,,,"MET079METAR KBFI 080253Z VRB05KT 10SM CLR 19/11 A3016 RMK AO2 SLP212 T01940111 53002=","FM-15","4",,,,,,,,,,,,,,,,,,,,,,,,,,,"2007-05-17"
"72793524234","2022-09-07T19:53:00","FM-15","4",,,,,,,,,,,,,,,,,,,,,,,,,,,,,,,,,,,,,,,"30.17","52","65",,,,,"63","30.17",,,"10.00",,"000",,"0",,,,,,,,,,,,,,,,,,,,,,,,,,,,,,,,,,,,,"MET073METAR KBFI 080353Z 00000KT 10SM CLR 18/11 A3017 RMK AO2 SLP216 T01830111=","FM-15","4",,,,,,,,,,,,,,,,,,,,,,,,,,,"2007-05-17"
"72793524234","2022-09-07T20:53:00","FM-15","4",,,,,,,,,,,,,,,,,,,,,,,,,,,,,,,,,,,,,,,"30.19","50","65",,,,,"59","30.18",,,"10.00",,"000",,"0",,,,,,,,,,,,,,,,,,,,,,,,,,,,,,,,,,,,,"MET073METAR KBFI 080453Z 00000KT 10SM CLR 18/10 A3019 RMK AO2 SLP221 T01830100=","FM-15","4",,,,,,,,,,,,,,,,,,,,,,,,,,,"2007-05-17"
"72793524234","2022-09-07T21:53:00","FM-15","4",,,,,,,,,,,,,,,,,,,,,,,,,,,,,,,,,,,,,,,"30.20","47","63",,,"-0.04","1","56","30.19",,,"10.00",,"000",,"0",,,,,,,,,,,,,,,,,,,,,,,,,,,,,,,,,,,,,"MET091METAR KBFI 080553Z 00000KT 10SM CLR 17/08 A3020 RMK AO2 SLP225 T01720083 10244 20172 51013=","FM-15","4",,,,,,,,,,,,,,,,,,,,,,,,,,,"2007-05-17"
"72793524234","2022-09-07T22:53:00","FM-15","4",,,,,,,,,,,,,,,,,,,,,,,,,,,,,,,,,,,,,,,"30.20","46","62",,,,,"56","30.20",,,"10.00",,"000",,"0",,,,,,,,,,,,,,,,,,,,,,,,,,,,,,,,,,,,,"MET073METAR KBFI 080653Z 00000KT 10SM CLR 17/08 A3020 RMK AO2 SLP227 T01670078=","FM-15","4",,,,,,,,,,,,,,,,,,,,,,,,,,,"2007-05-17"
"72793524234","2022-09-07T23:53:00","FM-15","7",,,,,,,,,,,,,,,,,,,,,,,,,,,,,,,,,,,,,,,"30.21","48","59","0.00",,,,"67","30.21","CLR:00","30.18","10.00","53","000",,"0",,,,,,,,,,,,,,,,,,,,,,,,,,,,,,,,,,,,,"MET10009/07/22 23:53:02 METAR KBFI 080753Z 00000KT 10SM CLR 15/09 A3021 RMK AO2 SLP231 T01500089 402500150","FM-15","7",,,,,,,,,,,,,,,,,,,,,,,,,,,"2007-05-17"
"72793524234","2022-09-07T23:59:00","SOD  ","6",,,,,,,,,,,,,,,,,,"68",,,"30.11",,"3.2","3","3.9","0","77","59","320","21","0.00",,,"300","13",,,,,,,,,,,,,,,,,,,,,,,,,,,,,,,,,,,,,,,,,,,,,,,,,,,,,,,,"SOD73024 HR PRECIPITATION (IN):0.00  24 HR MAX TEMP (F):77 24 HR MAX TEMP TIME (LST):1449 24 HR MIN TEMP (F):59 24 HR MIN TEMP TIME (LST):2359 AVERAGE STATION PRESSURE:30.105 MINIMUM SEA LEVEL PRESSURE:30.00 TIME OF OCCURRENCE:0013 PEAK WIND SPEED (MPH):21  PEAK WIND DIR (DEG):320 PEAK WIND TIME (LST):1408  FASTEST 2MIN SPEED (MPH):13 FASTEST 2MIN DIR (DEG):300 FASTEST 2MIN TIME (LST):1507 AVERAGE WIND SPEED (MPH):3.2  24 HR AVG TEMP (F):68 HEATING DEGREE DAYS:0   COOLING DEGREE DAYS:3   LATEST DAY MAX TEMP (0700-1900 LST):77  LATEST NIGHT MIN TEMP(1900-0800 LST):59 HOURLY INCREMENTAL PRECIPITATION VALUES (IN):.00 0.00 0.00 0.00 0.00 0.00 0.00 0.00 0.00 0.00 0.00 0.00 0.00 0.00 0.00 0.00 0.00 0.00 0.00 0.00 0.00 0.00 0.00 0.00","SOD  ","6",,,,,,,,,,,,,,,,,,,,,,,,,"0536","1838","2007-05-17"
"72793524234","2022-09-08T00:53:00","FM-15","4",,,,,,,,,,,,,,,,,,,,,,,,,,,,,,,,,,,,,,,"30.22","48","59",,,"-0.02","3","67","30.22",,,"10.00",,"000",,"0",,,,,,,,,,,,,,,,,,,,,,,,,,,,,,,,,,,,,"MET079METAR KBFI 080853Z 00000KT 10SM CLR 15/09 A3022 RMK AO2 SLP233 T01500089 53008=","FM-15","4",,,,,,,,,,,,,,,,,,,,,,,,,,,"2007-05-17"
"72793524234","2022-09-08T01:53:00","FM-15","4",,,,,,,,,,,,,,,,,,,,,,,,,,,,,,,,,,,,,,,"30.22","50","58",,,,,"75","30.22",,,"10.00",,"VRB",,"3",,,,,,,,,,,,,,,,,,,,,,,,,,,,,,,,,,,,,"MET073METAR KBFI 080953Z VRB03KT 10SM CLR 14/10 A3022 RMK AO2 SLP233 T01440100=","FM-15","4",,,,,,,,,,,,,,,,,,,,,,,,,,,"2007-05-17"
"72793524234","2022-09-08T02:53:00","FM-15","4",,,,,,,,,,,,,,,,,,,,,,,,,,,,,,,,,,,,,,,"30.22","50","57",,,,,"78","30.22",,,"10.00",,"000",,"0",,,,,,,,,,,,,,,,,,,,,,,,,,,,,,,,,,,,,"MET073METAR KBFI 081053Z 00000KT 10SM CLR 14/10 A3022 RMK AO2 SLP234 T01390100=","FM-15","4",,,,,,,,,,,,,,,,,,,,,,,,,,,"2007-05-17"
"72793524234","2022-09-08T03:53:00","FM-15","4",,,,,,,,,,,,,,,,,,,,,,,,,,,,,,,,,,,,,,,"30.23","49","56",,,"-0.01","3","77","30.23",,,"10.00",,"000",,"0",,,,,,,,,,,,,,,,,,,,,,,,,,,,,,,,,,,,,"MET091METAR KBFI 081153Z 00000KT 10SM CLR 13/09 A3023 RMK AO2 SLP237 T01330094 10172 20133 53004=","FM-15","4",,,,,,,,,,,,,,,,,,,,,,,,,,,"2007-05-17"
"72793524234","2022-09-08T04:53:00","FM-15","4",,,,,,,,,,,,,,,,,,,,,,,,,,,,,,,,,,,,,,,"30.25","49","55",,,,,"80","30.24",,,"10.00",,"000",,"0",,,,,,,,,,,,,,,,,,,,,,,,,,,,,,,,,,,,,"MET073METAR KBFI 081253Z 00000KT 10SM CLR 13/09 A3025 RMK AO2 SLP242 T01280094=","FM-15","4",,,,,,,,,,,,,,,,,,,,,,,,,,,"2007-05-17"
"72793524234","2022-09-08T05:53:00","FM-15","4",,,,,,,,,,,,,,,,,,,,,,,,,,,,,,,,,,,,,,,"30.26","48","52",,,,,"86","30.25",,,"10.00",,"000",,"0",,,,,,,,,,,,,,,,,,,,,,,,,,,,,,,,,,,,,"MET073METAR KBFI 081353Z 00000KT 10SM CLR 11/09 A3026 RMK AO2 SLP245 T01110089=","FM-15","4",,,,,,,,,,,,,,,,,,,,,,,,,,,"2007-05-17"
"72793524234","2022-09-08T06:53:00","FM-15","7",,,,,,,,,,,,,,,,,,,,,,,,,,,,,,,,,,,,,,,"30.27","50","56","0.00",,"-0.04","3","81","30.27","CLR:00","30.24","10.00","53","000",,"0",,,,,,,,,,,,,,,,,,,,,,,,,,,,,,,,,,,,,"MET09609/08/22 06:53:02 METAR KBFI 081453Z 00000KT 10SM CLR 13/10 A3027 RMK AO2 SLP251 T01330100 53014","FM-15","7",,,,,,,,,,,,,,,,,,,,,,,,,,,"2007-05-17"
"72793524234","2022-09-08T07:53:00","FM-15","7",,,,,,,,,,,,,,,,,,,,,,,,,,,,,,,,,,,,,,,"30.27","51","61","0.00",,,,"70","30.27","CLR:00","30.24","10.00","56","000",,"0",,,,,,,,,,,,,,,,,,,,,,,,,,,,,,,,,,,,,"MET09009/08/22 07:53:02 METAR KBFI 081553Z 00000KT 10SM CLR 16/11 A3027 RMK AO2 SLP251 T01610106","FM-15","7",,,,,,,,,,,,,,,,,,,,,,,,,,,"2007-05-17"
"72793524234","2022-09-08T08:53:00","FM-15","4",,,,,,,,,,,,,,,,,,,,,,,,,,,,,,,,,,,,,,,"30.27","49","64",,,,,"58","30.27",,,"10.00",,"300",,"6",,,,,,,,,,,,,,,,,,,,,,,,,,,,,,,,,,,,,"MET073METAR KBFI 081653Z 30005KT 10SM CLR 18/09 A3027 RMK AO2 SLP249 T01780094=","FM-15","4",,,,,,,,,,,,,,,,,,,,,,,,,,,"2007-05-17"
"72793524234","2022-09-08T09:53:00","FM-15","7",,,,,,,,,,,,,,,,,,,,,,,,,,,,,,,,,,,,,,,"30.26","49","67","0.00",,"+0.01","8","53","30.26","CLR:00","30.23","10.00","57","VRB",,"7",,,,,,,,,,,,,,,,,,,,,,,,,,,,,,,,,,,,,"MET10809/08/22 09:53:02 METAR KBFI 081753Z VRB06KT 10SM CLR 19/09 A3026 RMK AO2 SLP246 T01940094 10194 20111 58005","FM-15","7",,,,,,,,,,,,,,,,,,,,,,,,,,,"2007-05-17"
"72793524234","2022-09-08T10:53:00","FM-15","4",,,,,,,,,,,,,,,,,,,,,,,,,,,,,,,,,,,,,,,"30.24","49","67",,,,,"53","30.24",,,"10.00",,"310",,"8",,,,,,,,,,,,,,,,,,,,,,,,,,,,,,,,,,,,,"MET073METAR KBFI 081853Z 31007KT 10SM CLR 19/09 A3024 RMK AO2 SLP239 T01940094=","FM-15","4",,,,,,,,,,,,,,,,,,,,,,,,,,,"2007-05-17"
"72793524234","2022-09-08T11:53:00","FM-15","4",,,,,,,,,,,,,,,,,,,,,,,,,,,,,,,,,,,,,,,"30.21","48","68",,,,,"49","30.21",,,"10.00",,"320","20","9",,,,,,,,,,,,,,,,,,,,,,,,,,,,,,,,,,,,,"MET079METAR KBFI 081953Z 32008G17KT 10SM SCT250 20/09 A3021 RMK AO2 SLP230 T02000089=","FM-15","4",,,,,,,,,,,,,,,,,,,,,,,,,,,"2007-05-17"
"72793524234","2022-09-08T12:53:00","FM-15","4",,,,,,,,,,,,,,,,,,,,,,,,,,,,,,,,,,,,,,,"30.20","48","70",,,"+0.06","6","46","30.19",,,"10.00",,"310",,"7",,,,,,,,,,,,,,,,,,,,,,,,,,,,,,,,,,,,,"MET082METAR KBFI 082053Z 31006KT 10SM SCT250 21/09 A3020 RMK AO2 SLP225 T02110089 56021=","FM-15","4",,,,,,,,,,,,,,,,,,,,,,,,,,,"2007-05-17"
"72793524234","2022-09-08T13:53:00","FM-15","4",,,,,,,,,,,,,,,,,,,,,,,,,,,,,,,,,,,,,,,"30.18","49","70",,,,,"47","30.18",,,"10.00",,"300",,"10",,,,,,,,,,,,,,,,,,,,,,,,,,,,,,,,,,,,,"MET073METAR KBFI 082153Z 30009KT 10SM CLR 21/09 A3018 RMK AO2 SLP219 T02110094=","FM-15","4",,,,,,,,,,,,,,,,,,,,,,,,,,,"2007-05-17"
"72793524234","2022-09-08T14:53:00","FM-15","4",,,,,,,,,,,,,,,,,,,,,,,,,,,,,,,,,,,,,,,"30.16","47","71",,,,,"42","30.16",,,"10.00",,"VRB","20","10",,,,,,,,,,,,,,,,,,,,,,,,,,,,,,,,,,,,,"MET084METAR KBFI 082253Z 33009G17KT 280V360 10SM CLR 22/08 A3016 RMK AO2 SLP213 T02170083=","FM-15","4",,,,,,,,,,,,,,,,,,,,,,,,,,,"2007-05-17"
"72793524234","2022-09-08T15:53:00","FM-15","7",,,,,,,,,,,,,,,,,,,,,,,,,,,,,,,,,,,,,,,"30.14","49","69","0.00",,"+0.06","8","49","30.13","CLR:00","30.11","10.00","58","300","20","11",,,,,,,,,,,,,,,,,,,,,,,,,,,,,,,,,,,,,"MET11109/08/22 15:53:02 METAR KBFI 082353Z 30010G17KT 10SM CLR 21/09 A3014 RMK AO2 SLP204 T02060094 10217 20189 58021","FM-15","7",,,,,,,,,,,,,,,,,,,,,,,,,,,"2007-05-17"
"72793524234","2022-09-08T16:53:00","FM-15","7",,,,,,,,,,,,,,,,,,,,,,,,,,,,,,,,,,,,,,,"30.13","50","68","0.00",,,,"53","30.13","CLR:00","30.10","10.00","58","VRB","18","7",,,,,,,,,,,,,,,,,,,,,,,,,,,,,,,,,,,,,"MET09309/08/22 16:53:01 METAR KBFI 090053Z VRB06G16KT 10SM CLR 20/10 A3013 RMK AO2 SLP202 T02000100","FM-15","7",,,,,,,,,,,,,,,,,,,,,,,,,,,"2007-05-17"
"72793524234","2022-09-08T17:53:00","FM-15","7",,,,,,,,,,,,,,,,,,,,,,,,,,,,,,,,,,,,,,,"30.11","50","67","0.00",,,,"55","30.11","CLR:00","30.08","10.00","58","330",,"6",,,,,,,,,,,,,,,,,,,,,,,,,,,,,,,,,,,,,"MET09009/08/22 17:53:01 METAR KBFI 090153Z 33005KT 10SM CLR 19/10 A3011 RMK AO2 SLP197 T01940100","FM-15","7",,,,,,,,,,,,,,,,,,,,,,,,,,,"2007-05-17"
"72793524234","2022-09-08T18:53:00","FM-15","7",,,,,,,,,,,,,,,,,,,,,,,,,,,,,,,,,,,,,,,"30.11","50","65","0.00",,"+0.02","5","59","30.11","CLR:00","30.08","10.00","57","000",,"0",,,,,,,,,,,,,,,,,,,,,,,,,,,,,,,,,,,,,"MET09609/08/22 18:53:01 METAR KBFI 090253Z 00000KT 10SM CLR 18/10 A3011 RMK AO2 SLP197 T01830100 55007","FM-15","7",,,,,,,,,,,,,,,,,,,,,,,,,,,"2007-05-17"
"72793524234","2022-09-08T19:53:00","FM-15","7",,,,,,,,,,,,,,,,,,,,,,,,,,,,,,,,,,,,,,,"30.12","49","64","0.00",,,,"58","30.11","CLR:00","30.09","10.00","56","360",,"3",,,,,,,,,,,,,,,,,,,,,,,,,,,,,,,,,,,,,"MET09009/08/22 19:53:02 METAR KBFI 090353Z 36003KT 10SM CLR 18/09 A3012 RMK AO2 SLP198 T01780094","FM-15","7",,,,,,,,,,,,,,,,,,,,,,,,,,,"2007-05-17"
"72793524234","2022-09-08T20:53:00","FM-15","7",,,,,,,,,,,,,,,,,,,,,,,,,,,,,,,,,,,,,,,"30.11","48","63","0.00",,,,"58","30.11","CLR:00","30.08","10.00","55","000",,"0",,,,,,,,,,,,,,,,,,,,,,,,,,,,,,,,,,,,,"MET09009/08/22 20:53:02 METAR KBFI 090453Z 00000KT 10SM CLR 17/09 A3011 RMK AO2 SLP196 T01720089","FM-15","7",,,,,,,,,,,,,,,,,,,,,,,,,,,"2007-05-17"
"72793524234","2022-09-08T21:53:00","FM-15","7",,,,,,,,,,,,,,,,,,,,,,,,,,,,,,,,,,,,,,,"30.11","48","62","0.00",,"+0.01","8","60","30.11","CLR:00","30.08","10.00","55","VRB",,"3",,,,,,,,,,,,,,,,,,,,,,,,,,,,,,,,,,,,,"MET10809/08/22 21:53:02 METAR KBFI 090553Z VRB03KT 10SM CLR 17/09 A3011 RMK AO2 SLP195 T01670089 10206 20167 58002","FM-15","7",,,,,,,,,,,,,,,,,,,,,,,,,,,"2007-05-17"
"72793524234","2022-09-08T22:53:00","FM-15","7",,,,,,,,,,,,,,,,,,,,,,,,,,,,,,,,,,,,,,,"30.10","49","61","0.00",,,,"65","30.10","CLR:00","30.07","10.00","55","VRB",,"3",,,,,,,,,,,,,,,,,,,,,,,,,,,,,,,,,,,,,"MET09009/08/22 22:53:02 METAR KBFI 090653Z VRB03KT 10SM CLR 16/09 A3010 RMK AO2 SLP192 T01610094","FM-15","7",,,,,,,,,,,,,,,,,,,,,,,,,,,"2007-05-17"
"72793524234","2022-09-08T23:53:00","FM-15","7",,,,,,,,,,,,,,,,,,,,,,,,,,,,,,,,,,,,,,,"30.09","49","60","0.00",,,,"67","30.09","CLR:00","30.06","10.00","54","350",,"3",,,,,,,,,,,,,,,,,,,,,,,,,,,,,,,,,,,,,"MET10009/08/22 23:53:02 METAR KBFI 090753Z 35003KT 10SM CLR 16/09 A3009 RMK AO2 SLP190 T01560094 402170111","FM-15","7",,,,,,,,,,,,,,,,,,,,,,,,,,,"2007-05-17"
"72793524234","2022-09-08T23:59:00","SOD  ","6",,,,,,,,,,,,,,,,,,"62",,,"30.14",,"4.1","0","-1.9","3","71","52","310","22","0.00",,,"300","13",,,,,,,,,,,,,,,,,,,,,,,,,,,,,,,,,,,,,,,,,,,,,,,,,,,,,,,,"SOD73024 HR PRECIPITATION (IN):0.00  24 HR MAX TEMP (F):71 24 HR MAX TEMP TIME (LST):1510 24 HR MIN TEMP (F):52 24 HR MIN TEMP TIME (LST):0558 AVERAGE STATION PRESSURE:30.145 MINIMUM SEA LEVEL PRESSURE:30.09 TIME OF OCCURRENCE:2359 PEAK WIND SPEED (MPH):22  PEAK WIND DIR (DEG):310 PEAK WIND TIME (LST):1614  FASTEST 2MIN SPEED (MPH):13 FASTEST 2MIN DIR (DEG):300 FASTEST 2MIN TIME (LST):1550 AVERAGE WIND SPEED (MPH):4.1  24 HR AVG TEMP (F):62 HEATING DEGREE DAYS:3   COOLING DEGREE DAYS:0   LATEST DAY MAX TEMP (0700-1900 LST):71  LATEST NIGHT MIN TEMP(1900-0800 LST):52 HOURLY INCREMENTAL PRECIPITATION VALUES (IN):.00 0.00 0.00 0.00 0.00 0.00 0.00 0.00 0.00 0.00 0.00 0.00 0.00 0.00 0.00 0.00 0.00 0.00 0.00 0.00 0.00 0.00 0.00 0.00","SOD  ","6",,,,,,,,,,,,,,,,,,,,,,,,,"0537","1836","2007-05-17"
"72793524234","2022-09-09T00:53:00","FM-15","7",,,,,,,,,,,,,,,,,,,,,,,,,,,,,,,,,,,,,,,"30.08","47","60",,,"+0.03","7","62","30.08","CLR:00","30.05","10.00","53","000",,"0",,,,,,,,,,,,,,,,,,,,,,,,,,,,,,,,,,,,,"MET10109/09/22 00:53:02 METAR KBFI 090853Z 00000KT 10SM CLR 16/08 A3008 RMK AO2 SLP186 T01560083 57009 (KB)","FM-15","7",,,,,,,,,,,,,,,,,,,,,,,,,,,"2007-05-17"
"72793524234","2022-09-09T01:53:00","FM-15","7",,,,,,,,,,,,,,,,,,,,,,,,,,,,,,,,,,,,,,,"30.08","49","60",,,,,"67","30.08","CLR:00","30.05","10.00","54","VRB",,"5",,,,,,,,,,,,,,,,,,,,,,,,,,,,,,,,,,,,,"MET09509/09/22 01:53:02 METAR KBFI 090953Z VRB04KT 10SM CLR 16/09 A3008 RMK AO2 SLP186 T01560094 (KB)","FM-15","7",,,,,,,,,,,,,,,,,,,,,,,,,,,"2007-05-17"
"72793524234","2022-09-09T02:53:00","FM-15","7",,,,,,,,,,,,,,,,,,,,,,,,,,,,,,,,,,,,,,,"30.07","50","59",,,,,"72","30.07","CLR:00","30.04","10.00","54","000",,"0",,,,,,,,,,,,,,,,,,,,,,,,,,,,,,,,,,,,,"MET09509/09/22 02:53:02 METAR KBFI 091053Z 00000KT 10SM CLR 15/10 A3007 RMK AO2 SLP183 T01500100 (KB)","FM-15","7",,,,,,,,,,,,,,,,,,,,,,,,,,,"2007-05-17"
"72793524234","2022-09-09T03:53:00","FM-15","7",,,,,,,,,,,,,,,,,,,,,,,,,,,,,,,,,,,,,,,"30.06","51","58",,,"+0.02","8","78","30.06","CLR:00","30.03","10.00","54","VRB",,"3",,,,,,,,,,,,,,,,,,,,,,,,,,,,,,,,,,,,,"MET11309/09/22 03:53:02 METAR KBFI 091153Z VRB03KT 10SM CLR 14/11 A3006 RMK AO2 SLP180 T01440106 10167 20144 58006 (KB)","FM-15","7",,,,,,,,,,,,,,,,,,,,,,,,,,,"2007-05-17"
"72793524234","2022-09-09T04:53:00","FM-15","7",,,,,,,,,,,,,,,,,,,,,,,,,,,,,,,,,,,,,,,"30.06","52","57",,,,,"83","30.06","CLR:00","30.03","10.00","54","000",,"0",,,,,,,,,,,,,,,,,,,,,,,,,,,,,,,,,,,,,"MET09509/09/22 04:53:02 METAR KBFI 091253Z 00000KT 10SM CLR 14/11 A3006 RMK AO2 SLP179 T01390111 (KB)","FM-15","7",,,,,,,,,,,,,,,,,,,,,,,,,,,"2007-05-17"
"72793524234","2022-09-09T05:53:00","FM-15","7",,,,,,,,,,,,,,,,,,,,,,,,,,,,,,,,,,,,,,,"30.05","52","57",,,,,"83","30.05","CLR:00","30.02","7.00","54","VRB",,"3",,,,,,,,,,,,,,,,,,,,,,,,,,,,,,,,,,,,,"MET09409/09/22 05:53:02 METAR KBFI 091353Z VRB03KT 7SM CLR 14/11 A3005 RMK AO2 SLP177 T01390111 (KB)","FM-15","7",,,,,,,,,,,,,,,,,,,,,,,,,,,"2007-05-17"
"72793524234","2022-09-09T06:53:00","FM-15","7",,,,,,,,,,,,,,,,,,,,,,,,,,,,,,,,,,,,,,,"30.06","52","59",,,"+0.01","5","78","30.05","CLR:00","30.03","10.00","55","050",,"6",,,,,,,,,,,,,,,,,,,,,,,,,,,,,,,,,,,,,"MET10109/09/22 06:53:02 METAR KBFI 091453Z 05005KT 10SM CLR 15/11 A3006 RMK AO2 SLP177 T01500111 55003 (KB)","FM-15","7",,,,,,,,,,,,,,,,,,,,,,,,,,,"2007-05-17"
"72793524234","2022-09-09T07:53:00","FM-15","7",,,,,,,,,,,,,,,,,,,,,,,,,,,,,,,,,,,,,,,"30.06","52","60",,,,,"75","30.05","CLR:00","30.03",,"56",,,,,,,,,,,,,,,,,,,,,,,,,,,,,,,,,,,,,,,,"MET09209/09/22 07:53:02 METAR KBFI 091553Z      KT CLR 16/11 A3006 RMK AO2 SLP177 T01560111 $ (KB)","FM-15","7",,,,,,,,,,,,,,,,,,,,,,,,,,,"2007-05-17"
"72793524234","2022-09-09T08:13:00","FM-16","7",,,,,,,,,,,,,,,,,,,,,,,,,,,,,,,,,,,,,,,"30.05","52","61",,"HZ:7 |FU |HZ",,,"72",,"CLR:00","30.02","1.50","56","VRB",,"3",,,,,,,,,,,,,,,,,,,,,,,,,,,,,,,,,,,,,"MET09609/09/22 08:13:02 SPECI KBFI 091613Z VRB03KT 1 1/2SM HZ CLR 16/11 A3005 RMK AO2 T01610111 $ (KB)","FM-16","7",,,,,,,,,,,,,,,,,,,,,,,,,,,"2007-05-17"
"72793524234","2022-09-09T08:29:00","FM-16","7",,,,,,,,,,,,,,,,,,,,,,,,,,,,,,,,,,,,,,,"30.05","53","61",,,,,"75",,"CLR:00","30.02","7.00","57","VRB",,"3",,,,,,,,,,,,,,,,,,,,,,,,,,,,,,,,,,,,,"MET08909/09/22 08:29:02 SPECI KBFI 091629Z VRB03KT 7SM CLR 16/12 A3005 RMK AO2 T01610117 $ (KB)","FM-16","7",,,,,,,,,,,,,,,,,,,,,,,,,,,"2007-05-17"
"72793524234","2022-09-09T08:53:00","FM-15","7",,,,,,,,,,,,,,,,,,,,,,,,,,,,,,,,,,,,,,,"30.04","53","62",,,,,"73","30.04","CLR:00","30.01","10.00","57","050",,"6",,,,,,,,,,,,,,,,,,,,,,,,,,,,,,,,,,,,,"MET09509/09/22 08:53:02 METAR KBFI 091653Z 05005KT 10SM CLR 17/12 A3004 RMK AO2 SLP173 T01670117 (KB)","FM-15","7",,,,,,,,,,,,,,,,,,,,,,,,,,,"2007-05-17"
"72793524234","2022-09-09T09:53:00","FM-15","7",,,,,,,,,,,,,,,,,,,,,,,,,,,,,,,,,,,,,,,"30.04","52","65","0.00",,"+0.02","8","63","30.03","CLR:00","30.01","10.00","58","VRB",,"7",,,,,,,,,,,,,,,,,,,,,,,,,,,,,,,,,,,,,"MET12009/09/22 09:53:02 METAR KBFI 091753Z VRB06KT 10SM CLR 18/11 A3004 RMK AO2 SLP171 6//// T01830111 10183 20139 58007 (TWR)","FM-15","7",,,,,,,,,,,,,,,,,,,,,,,,,,,"2007-05-17"
"72793524234","2022-09-09T10:53:00","FM-15","7",,,,,,,,,,,,,,,,,,,,,,,,,,,,,,,,,,,,,,,"30.01","49","69","0.00",,,,"49","30.01","CLR:00","29.98","10.00","58","010",,"6",,,,,,,,,,,,,,,,,,,,,,,,,,,,,,,,,,,,,"MET09609/09/22 10:53:02 METAR KBFI 091853Z 01005KT 10SM CLR 21/09 A3001 RMK AO2 SLP163 T02060094 (TWR)","FM-15","7",,,,,,,,,,,,,,,,,,,,,,,,,,,"2007-05-17"
"72793524234","2022-09-09T11:53:00","FM-15","7",,,,,,,,,,,,,,,,,,,,,,,,,,,,,,,,,,,,,,,"29.99","50","71","0.00",,,,"47","29.98","CLR:00","29.96","10.00","59","VRB",,"7",,,,,,,,,,,,,,,,,,,,,,,,,,,,,,,,,,,,,"MET09609/09/22 11:53:02 METAR KBFI 091953Z VRB06KT 10SM CLR 22/10 A2999 RMK AO2 SLP154 T02170100 (TWR)","FM-15","7",,,,,,,,,,,,,,,,,,,,,,,,,,,"2007-05-17"
"72793524234","2022-09-09T12:53:00","FM-15","7",,,,,,,,,,,,,,,,,,,,,,,,,,,,,,,,,,,,,,,"29.96","49","74","0.00",,"+0.07","8","41","29.96","CLR:00","29.93","10.00","60","VRB","20","7",,,,,,,,,,,,,,,,,,,,,,,,,,,,,,,,,,,,,"MET10509/09/22 12:53:02 METAR KBFI 092053Z VRB06G17KT 10SM CLR 23/09 A2996 RMK AO2 SLP146 T02330094 58024 (TWR)","FM-15","7",,,,,,,,,,,,,,,,,,,,,,,,,,,"2007-05-17"
"72793524234","2022-09-09T13:53:00","FM-15","7",,,,,,,,,,,,,,,,,,,,,,,,,,,,,,,,,,,,,,,"29.95","47","77","0.00",,,,"35","29.94","CLR:00","29.92","10.00","60","VRB","18","5",,,,,,,,,,,,,,,,,,,,,,,,,,,,,,,,,,,,,"MET09909/09/22 13:53:02 METAR KBFI 092153Z VRB04G16KT 10SM CLR 25/08 A2995 RMK AO2 SLP140 T02500083 (TWR)","FM-15","7",,,,,,,,,,,,,,,,,,,,,,,,,,,"2007-05-17"
"72793524234","2022-09-09T14:53:00","FM-15","7",,,,,,,,,,,,,,,,,,,,,,,,,,,,,,,,,,,,,,,"29.92","47","77","0.00",,,,"35","29.92","CLR:00","29.89","10.00","60","340",,"6",,,,,,,,,,,,,,,,,,,,,,,,,,,,,,,,,,,,,"MET09509/09/22 14:53:02 METAR KBFI 092253Z 34005KT 10SM CLR 25/08 A2992 RMK AO2 SLP131 T02500083 (SN)","FM-15","7",,,,,,,,,,,,,,,,,,,,,,,,,,,"2007-05-17"
"72793524234","2022-09-09T15:53:00","FM-15","7",,,,,,,,,,,,,,,,,,,,,,,,,,,,,,,,,,,,,,,"29.90","45","78","0.00",,"+0.07","8","31","29.90","CLR:00","29.87","7.00","60","VRB","18","7",,,,,,,,,,,,,,,,,,,,,,,,,,,,,,,,,,,,,"MET11509/09/22 15:53:02 METAR KBFI 092353Z VRB06G16KT 7SM CLR 26/07 A2990 RMK AO2 SLP124 T02560072 10256 20183 58023 (SN)","FM-15","7",,,,,,,,,,,,,,,,,,,,,,,,,,,"2007-05-17"
"72793524234","2022-09-09T16:53:00","FM-15","7",,,,,,,,,,,,,,,,,,,,,,,,,,,,,,,,,,,,,,,"29.89","46","77","0.00",,,,"33","29.89","CLR:00","29.86","10.00","60","VRB",,"7",,,,,,,,,,,,,,,,,,,,,,,,,,,,,,,,,,,,,"MET09009/09/22 16:53:01 METAR KBFI 100053Z VRB06KT 10SM CLR 25/08 A2989 RMK AO2 SLP121 T02500078","FM-15","7",,,,,,,,,,,,,,,,,,,,,,,,,,,"2007-05-17"
"72793524234","2022-09-09T17:53:00","FM-15","7",,,,,,,,,,,,,,,,,,,,,,,,,,,,,,,,,,,,,,,"29.88","47","72","0.00",,,,"41","29.88","CLR:00","29.85","10.00","58","310",,"5",,,,,,,,,,,,,,,,,,,,,,,,,,,,,,,,,,,,,"MET09009/09/22 17:53:01 METAR KBFI 100153Z 31004KT 10SM CLR 22/08 A2988 RMK AO2 SLP118 T02220083","FM-15","7",,,,,,,,,,,,,,,,,,,,,,,,,,,"2007-05-17"
"72793524234","2022-09-09T18:53:00","FM-15","7",,,,,,,,,,,,,,,,,,,,,,,,,,,,,,,,,,,,,,,"29.88","47","71","0.00",,"+0.01","5","42","29.88","CLR:00","29.85","10.00","58","VRB",,"3",,,,,,,,,,,,,,,,,,,,,,,,,,,,,,,,,,,,,"MET09609/09/22 18:53:02 METAR KBFI 100253Z VRB03KT 10SM CLR 22/08 A2988 RMK AO2 SLP119 T02170083 55005","FM-15","7",,,,,,,,,,,,,,,,,,,,,,,,,,,"2007-05-17"
"72793524234","2022-09-09T19:53:00","FM-15","7",,,,,,,,,,,,,,,,,,,,,,,,,,,,,,,,,,,,,,,"29.89","45","68","0.00",,,,"44","29.89","CLR:00","29.86","10.00","56","000",,"0",,,,,,,,,,,,,,,,,,,,,,,,,,,,,,,,,,,,,"MET09009/09/22 19:53:02 METAR KBFI 100353Z 00000KT 10SM CLR 20/07 A2989 RMK AO2 SLP122 T02000072","FM-15","7",,,,,,,,,,,,,,,,,,,,,,,,,,,"2007-05-17"
"72793524234","2022-09-09T20:53:00","FM-15","7",,,,,,,,,,,,,,,,,,,,,,,,,,,,,,,,,,,,,,,"29.90","45","67","0.00",,,,"45","29.89","CLR:00","29.87","10.00","55","330",,"3",,,,,,,,,,,,,,,,,,,,,,,,,,,,,,,,,,,,,"MET09009/09/22 20:53:02 METAR KBFI 100453Z 33003KT 10SM CLR 19/07 A2990 RMK AO2 SLP123 T01940072","FM-15","7",,,,,,,,,,,,,,,,,,,,,,,,,,,"2007-05-17"
"72793524234","2022-09-09T21:53:00","FM-15","7",,,,,,,,,,,,,,,,,,,,,,,,,,,,,,,,,,,,,,,"29.89","47","65","0.00",,"-0.01","0","52","29.89","CLR:00","29.86","10.00","55","280",,"5",,,,,,,,,,,,,,,,,,,,,,,,,,,,,,,,,,,,,"MET10809/09/22 21:53:02 METAR KBFI 100553Z 28004KT 10SM CLR 18/08 A2989 RMK AO2 SLP122 T01830083 10256 20183 50003","FM-15","7",,,,,,,,,,,,,,,,,,,,,,,,,,,"2007-05-17"
"72793524234","2022-09-09T22:53:00","FM-15","7",,,,,,,,,,,,,,,,,,,,,,,,,,,,,,,,,,,,,,,"29.89","47","64","0.00",,,,"54","29.88","CLR:00","29.86","10.00","55","300",,"5",,,,,,,,,,,,,,,,,,,,,,,,,,,,,,,,,,,,,"MET09009/09/22 22:53:02 METAR KBFI 100653Z 30004KT 10SM CLR 18/08 A2989 RMK AO2 SLP120 T01780083","FM-15","7",,,,,,,,,,,,,,,,,,,,,,,,,,,"2007-05-17"
"72793524234","2022-09-09T23:53:00","FM-15","7",,,,,,,,,,,,,,,,,,,,,,,,,,,,,,,,,,,,,,,"29.89","48","63","0.00",,,,"58","29.89","CLR:00","29.86","10.00","55","300",,"3",,,,,,,,,,,,,,,,,,,,,,,,,,,,,,,,,,,,,"MET10009/09/22 23:53:02 METAR KBFI 100753Z 30003KT 10SM CLR 17/09 A2989 RMK AO2 SLP121 T01720089 402560139","FM-15","7",,,,,,,,,,,,,,,,,,,,,,,,,,,"2007-05-17"
"72793524234","2022-09-09T23:59:00","SOD  ","6",,,,,,,,,,,,,,,,,,"68",,,"29.93",,"4.3","3","4.4","0","78","57","330","23",,,,"300","13","HZ",,,,,,,,,,,,,,,,,,,,,,,,,,,,,,,,,,,,,,,,,,,,,,,,,,,,,,,"SOD69924 HR MAX TEMP (F):78 24 HR MAX TEMP TIME (LST):1556 24 HR MIN TEMP (F):57 24 HR MIN TEMP TIME (LST):0626 AVERAGE STATION PRESSURE:29.935 MINIMUM SEA LEVEL PRESSURE:29.88 TIME OF OCCURRENCE:2345 PEAK WIND SPEED (MPH):23  PEAK WIND DIR (DEG):330 PEAK WIND TIME (LST):1426  FASTEST 2MIN SPEED (MPH):13 FASTEST 2MIN DIR (DEG):300 FASTEST 2MIN TIME (LST):1428 AVERAGE WIND SPEED (MPH):4.3  24 HR AVG TEMP (F):68 HEATING DEGREE DAYS:0   COOLING DEGREE DAYS:3   LATEST DAY MAX TEMP (0700-1900 LST):78  LATEST NIGHT MIN TEMP(1900-0800 LST):57 HOURLY INCREMENTAL PRECIPITATION VALUES (IN):    M    M    M    M    M    M    M    M    0.00 0.00 0.00 0.00 0.00 0.00 0.00 0.00 0.00 0.00 0.00 0.00 0.00 0.00 0.00","SOD  ","6",,,,,,,,,,,,,,,,,,,,,,,,,"0538","1834","2007-05-17"
"72793524234","2022-09-10T00:53:00","FM-15","7",,,,,,,,,,,,,,,,,,,,,,,,,,,,,,,,,,,,,,,"29.88","48","62","0.00",,"+0.02","8","60","29.87","CLR:00","29.85","10.00","55","350",,"5",,,,,,,,,,,,,,,,,,,,,,,,,,,,,,,,,,,,,"MET10209/10/22 00:53:02 METAR KBFI 100853Z 35004KT 10SM CLR 17/09 A2988 RMK AO2 SLP116 T01670089 58006 (TWR)","FM-15","7",,,,,,,,,,,,,,,,,,,,,,,,,,,"2007-05-17"
"72793524234","2022-09-10T01:53:00","FM-15","7",,,,,,,,,,,,,,,,,,,,,,,,,,,,,,,,,,,,,,,"29.86","47","61","0.00",,,,"60","29.86","CLR:00","29.83","10.00","54","000",,"0",,,,,,,,,,,,,,,,,,,,,,,,,,,,,,,,,,,,,"MET09609/10/22 01:53:02 METAR KBFI 100953Z 00000KT 10SM CLR 16/08 A2986 RMK AO2 SLP113 T01610083 (TWR)","FM-15","7",,,,,,,,,,,,,,,,,,,,,,,,,,,"2007-05-17"
"72793524234","2022-09-10T02:53:00","FM-15","7",,,,,,,,,,,,,,,,,,,,,,,,,,,,,,,,,,,,,,,"29.86","47","61","0.00",,,,"60","29.86","CLR:00","29.83","10.00","54","330",,"6",,,,,,,,,,,,,,,,,,,,,,,,,,,,,,,,,,,,,"MET09609/10/22 02:53:02 METAR KBFI 101053Z 33005KT 10SM CLR 16/08 A2986 RMK AO2 SLP111 T01610083 (TWR)","FM-15","7",,,,,,,,,,,,,,,,,,,,,,,,,,,"2007-05-17"
"72793524234","2022-09-10T03:53:00","FM-15","7",,,,,,,,,,,,,,,,,,,,,,,,,,,,,,,,,,,,,,,"29.85","48","60","0.00",,"+0.02","6","65","29.85","CLR:00","29.82","10.00","54","320",,"3",,,,,,,,,,,,,,,,,,,,,,,,,,,,,,,,,,,,,"MET12009/10/22 03:53:02 METAR KBFI 101153Z 32003KT 10SM CLR 16/09 A2985 RMK AO2 SLP109 7//// T01560089 10189 20156 56007 (TWR)","FM-15","7",,,,,,,,,,,,,,,,,,,,,,,,,,,"2007-05-17"
"72793524234","2022-09-10T04:53:00","FM-15","7",,,,,,,,,,,,,,,,,,,,,,,,,,,,,,,,,,,,,,,"29.85","46","59","0.00",,,,"62","29.85","CLR:00","29.82","10.00","52","000",,"0",,,,,,,,,,,,,,,,,,,,,,,,,,,,,,,,,,,,,"MET09609/10/22 04:53:02 METAR KBFI 101253Z 00000KT 10SM CLR 15/08 A2985 RMK AO2 SLP108 T01500078 (TWR)","FM-15","7",,,,,,,,,,,,,,,,,,,,,,,,,,,"2007-05-17"
"72793524234","2022-09-10T05:53:00","FM-15","7",,,,,,,,,,,,,,,,,,,,,,,,,,,,,,,,,,,,,,,"29.85","48","58","0.00",,,,"70","29.85","CLR:00","29.82","10.00","53","000",,"0",,,,,,,,,,,,,,,,,,,,,,,,,,,,,,,,,,,,,"MET09609/10/22 05:53:02 METAR KBFI 101353Z 00000KT 10SM CLR 14/09 A2985 RMK AO2 SLP109 T01440089 (TWR)","FM-15","7",,,,,,,,,,,,,,,,,,,,,,,,,,,"2007-05-17"
"72793524234","2022-09-10T06:53:00","FM-15","7",,,,,,,,,,,,,,,,,,,,,,,,,,,,,,,,,,,,,,,"29.86","48","61","0.00",,"-0.01","3","63","29.86","CLR:00","29.83","9.00","54","340",,"5",,,,,,,,,,,,,,,,,,,,,,,,,,,,,,,,,,,,,"MET10109/10/22 06:53:02 METAR KBFI 101453Z 34004KT 9SM CLR 16/09 A2986 RMK AO2 SLP112 T01610089 53003 (TWR)","FM-15","7",,,,,,,,,,,,,,,,,,,,,,,,,,,"2007-05-17"
"72793524234","2022-09-10T07:53:00","FM-15","7",,,,,,,,,,,,,,,,,,,,,,,,,,,,,,,,,,,,,,,"29.87","47","66","0.00",,,,"50","29.87","CLR:00","29.84","7.00","56","VRB",,"5",,,,,,,,,,,,,,,,,,,,,,,,,,,,,,,,,,,,,"MET09509/10/22 07:53:02 METAR KBFI 101553Z VRB04KT 7SM CLR 19/08 A2987 RMK AO2 SLP115 T01890083 (TWR)","FM-15","7",,,,,,,,,,,,,,,,,,,,,,,,,,,"2007-05-17"
"72793524234","2022-09-10T08:53:00","FM-15","7",,,,,,,,,,,,,,,,,,,,,,,,,,,,,,,,,,,,,,,"29.87","46","69","0.00",,,,"44","29.87","CLR:00","29.84","8.00","57","VRB",,"6",,,,,,,,,,,,,,,,,,,,,,,,,,,,,,,,,,,,,"MET08909/10/22 08:53:02 METAR KBFI 101653Z VRB05KT 8SM CLR 21/08 A2987 RMK AO2 SLP114 T02060078","FM-15","7",,,,,,,,,,,,,,,,,,,,,,,,,,,"2007-05-17"
"72793524234","2022-09-10T09:53:00","FM-15","7",,,,,,,,,,,,,,,,,,,,,,,,,,,,,,,,,,,,,,,"29.87","46","72","0.00",,"-0.00","0","40","29.86","CLR:00","29.84","7.00","58","310",,"8",,,,,,,,,,,,,,,,,,,,,,,,,,,,,,,,,,,,,"MET11209/10/22 09:53:02 METAR KBFI 101753Z 31007KT 7SM CLR 22/08 A2987 RMK AO2 SLP113 T02220078 10222 20139 50001 (JP)","FM-15","7",,,,,,,,,,,,,,,,,,,,,,,,,,,"2007-05-17"
"72793524234","2022-09-10T10:53:00","FM-15","7",,,,,,,,,,,,,,,,,,,,,,,,,,,,,,,,,,,,,,,"29.85","48","76","0.00","HZ:7 |FU |HZ",,,"37","29.85","CLR:00","29.82","6.00","60","310",,"8",,,,,,,,,,,,,,,,,,,,,,,,,,,,,,,,,,,,,"MET09709/10/22 10:53:02 METAR KBFI 101853Z 31007KT 6SM HZ CLR 24/09 A2985 RMK AO2 SLP107 T02440089 (JP)","FM-15","7",,,,,,,,,,,,,,,,,,,,,,,,,,,"2007-05-17"
"72793524234","2022-09-10T11:53:00","FM-15","7",,,,,,,,,,,,,,,,,,,,,,,,,,,,,,,,,,,,,,,"29.83","48","81","0.00","HZ:7 |FU |HZ",,,"32","29.83","CLR:00","29.80","6.00","62","VRB",,"6",,,,,,,,,,,,,,,,,,,,,,,,,,,,,,,,,,,,,"MET09709/10/22 11:53:02 METAR KBFI 101953Z VRB05KT 6SM HZ CLR 27/09 A2983 RMK AO2 SLP100 T02720089 (JP)","FM-15","7",,,,,,,,,,,,,,,,,,,,,,,,,,,"2007-05-17"
"72793524234","2022-09-10T12:53:00","FM-15","7",,,,,,,,,,,,,,,,,,,,,,,,,,,,,,,,,,,,,,,"29.81","46","82","0.00","HZ:7 |FU |HZ","+0.06","6","28","29.81","CLR:00","29.78","6.00","62","300",,"10",,,,,,,,,,,,,,,,,,,,,,,,,,,,,,,,,,,,,"MET10309/10/22 12:53:02 METAR KBFI 102053Z 30009KT 6SM HZ CLR 28/08 A2981 RMK AO2 SLP095 T02780078 56019 (JP)","FM-15","7",,,,,,,,,,,,,,,,,,,,,,,,,,,"2007-05-17"
"72793524234","2022-09-10T13:53:00","FM-15","7",,,,,,,,,,,,,,,,,,,,,,,,,,,,,,,,,,,,,,,"29.80","45","83","0.00","HZ:7 |FU |HZ",,,"26","29.80","CLR:00","29.77","6.00","62","310","17","8",,,,,,,,,,,,,,,,,,,,,,,,,,,,,,,,,,,,,"MET10009/10/22 13:53:02 METAR KBFI 102153Z 31007G15KT 6SM HZ CLR 28/07 A2980 RMK AO2 SLP090 T02830072 (JP)","FM-15","7",,,,,,,,,,,,,,,,,,,,,,,,,,,"2007-05-17"
"72793524234","2022-09-10T14:53:00","FM-15","7",,,,,,,,,,,,,,,,,,,,,,,,,,,,,,,,,,,,,,,"29.78","44","84","0.00","HZ:7 |FU |HZ",,,"25","29.78","CLR:00","29.75","4.00","62","VRB",,"6",,,,,,,,,,,,,,,,,,,,,,,,,,,,,,,,,,,,,"MET09909/10/22 14:53:02 METAR KBFI 102253Z VRB05KT 4SM HZ CLR 29/07 A2978 RMK AO2 SLP084 T02890067 $ (JP)","FM-15","7",,,,,,,,,,,,,,,,,,,,,,,,,,,"2007-05-17"
"72793524234","2022-09-10T15:53:00","FM-15","7",,,,,,,,,,,,,,,,,,,,,,,,,,,,,,,,,,,,,,,"29.77","45","83","0.00","FU:3 HZ:7 |HZ FU |FU HZ","+0.04","6","26","29.77","CLR:00","29.74","3.00","62","330",,"7",,,,,,,,,,,,,,,,,,,,,,,,,,,,,,,,,,,,,"MET12009/10/22 15:53:02 METAR KBFI 102353Z 33006KT 3SM FU HZ CLR 28/07 A2977 RMK AO2 SLP082 T02830072 10294 20222 56013 $ (MB)","FM-15","7",,,,,,,,,,,,,,,,,,,,,,,,,,,"2007-05-17"
"72793524234","2022-09-10T16:53:00","FM-15","7",,,,,,,,,,,,,,,,,,,,,,,,,,,,,,,,,,,,,,,"29.77","44","80","0.00","FU:3 HZ:7 |HZ FU |FU HZ",,,"28","29.77","CLR:00","29.74","5.00","60","320",,"3",,,,,,,,,,,,,,,,,,,,,,,,,,,,,,,,,,,,,"MET09709/10/22 16:53:01 METAR KBFI 110053Z 32003KT 5SM FU HZ CLR 27/07 A2977 RMK AO2 SLP082 T02670067 $","FM-15","7",,,,,,,,,,,,,,,,,,,,,,,,,,,"2007-05-17"
"72793524234","2022-09-10T17:53:00","FM-15","7",,,,,,,,,,,,,,,,,,,,,,,,,,,,,,,,,,,,,,,"29.78","45","77","0.00","FU:3 HZ:7 |HZ FU |FU HZ",,,"32","29.78","BKN:07 90","29.75","5.00","59","000",,"0",,,,,,,,,,,,,,,,,,,,,,,,,,,,,,,,,,,,,"MET10009/10/22 17:53:01 METAR KBFI 110153Z 00000KT 5SM FU HZ BKN090 25/07 A2978 RMK AO2 SLP084 T02500072 $","FM-15","7",,,,,,,,,,,,,,,,,,,,,,,,,,,"2007-05-17"
"72793524234","2022-09-10T18:53:00","FM-15","7",,,,,,,,,,,,,,,,,,,,,,,,,,,,,,,,,,,,,,,"29.79","47","74","0.00","FU:3 HZ:7 |HZ FU |FU HZ","-0.02","3","38","29.79","BKN:07 90","29.76","7.00","59","000",,"0",,,,,,,,,,,,,,,,,,,,,,,,,,,,,,,,,,,,,"MET10609/10/22 18:53:02 METAR KBFI 110253Z 00000KT 7SM FU HZ BKN090 23/08 A2979 RMK AO2 SLP089 T02330083 53007 $","FM-15","7",,,,,,,,,,,,,,,,,,,,,,,,,,,"2007-05-17"
"72793524234","2022-09-10T19:53:00","FM-15","7",,,,,,,,,,,,,,,,,,,,,,,,,,,,,,,,,,,,,,,"29.82","48","71","0.00","FU:3 |HZ FU |FU",,,"44","29.82","CLR:00","29.79","7.00","58","000",,"0",,,,,,,,,,,,,,,,,,,,,,,,,,,,,,,,,,,,,"MET09409/10/22 19:53:02 METAR KBFI 110353Z 00000KT 7SM FU CLR 22/09 A2982 RMK AO2 SLP097 T02170089 $","FM-15","7",,,,,,,,,,,,,,,,,,,,,,,,,,,"2007-05-17"
"72793524234","2022-09-10T20:53:00","FM-15","7",,,,,,,,,,,,,,,,,,,,,,,,,,,,,,,,,,,,,,,"29.84","49","68","0.00","FU:3 |HZ FU |FU",,,"51","29.84","CLR:00","29.81","7.00","58","000",,"0",,,,,,,,,,,,,,,,,,,,,,,,,,,,,,,,,,,,,"MET09409/10/22 20:53:02 METAR KBFI 110453Z 00000KT 7SM FU CLR 20/09 A2984 RMK AO2 SLP105 T02000094 $","FM-15","7",,,,,,,,,,,,,,,,,,,,,,,,,,,"2007-05-17"
"72793524234","2022-09-10T21:53:00","FM-15","7",,,,,,,,,,,,,,,,,,,,,,,,,,,,,,,,,,,,,,,"29.86","51","66","0.00","FU:3 |HZ FU |FU","-0.06","1","59","29.85","CLR:00","29.83","7.00","58","000",,"0",,,,,,,,,,,,,,,,,,,,,,,,,,,,,,,,,,,,,"MET11209/10/22 21:53:02 METAR KBFI 110553Z 00000KT 7SM FU CLR 19/11 A2986 RMK AO2 SLP110 T01890106 10283 20189 51021 $","FM-15","7",,,,,,,,,,,,,,,,,,,,,,,,,,,"2007-05-17"
"72793524234","2022-09-10T22:53:00","FM-15","7",,,,,,,,,,,,,,,,,,,,,,,,,,,,,,,,,,,,,,,"29.87","51","64","0.00","FU:3 |HZ FU |FU",,,"63","29.87","CLR:00","29.84","7.00","57","000",,"0",,,,,,,,,,,,,,,,,,,,,,,,,,,,,,,,,,,,,"MET09409/10/22 22:53:02 METAR KBFI 110653Z 00000KT 7SM FU CLR 18/11 A2987 RMK AO2 SLP115 T01780106 $","FM-15","7",,,,,,,,,,,,,,,,,,,,,,,,,,,"2007-05-17"
"72793524234","2022-09-10T23:53:00","FM-15","7",,,,,,,,,,,,,,,,,,,,,,,,,,,,,,,,,,,,,,,"29.89","51","63","0.00","FU:3 |HZ FU |FU",,,"65","29.89","CLR:00","29.86","7.00","56","000",,"0",,,,,,,,,,,,,,,,,,,,,,,,,,,,,,,,,,,,,"MET10409/10/22 23:53:02 METAR KBFI 110753Z 00000KT 7SM FU CLR 17/11 A2989 RMK AO2 SLP121 T01720106 402940139 $","FM-15","7",,,,,,,,,,,,,,,,,,,,,,,,,,,"2007-05-17"
"72793524234","2022-09-10T23:59:00","SOD  ","6",,,,,,,,,,,,,,,,,,"71",,,"29.80",,"3.5","6","7.6","0","85","57","310","18","0.00",,,"330","10","HZ",,,,,,,,,,,,,,,,,,,,,,,,,,,,,,,,,,,,,,,,,,,,,,,,,,,,,,,"SOD73024 HR PRECIPITATION (IN):0.00  24 HR MAX TEMP (F):85 24 HR MAX TEMP TIME (LST):1439 24 HR MIN TEMP (F):57 24 HR MIN TEMP TIME (LST):0609 AVERAGE STATION PRESSURE:29.800 MINIMUM SEA LEVEL PRESSURE:29.77 TIME OF OCCURRENCE:1749 PEAK WIND SPEED (MPH):18  PEAK WIND DIR (DEG):310 PEAK WIND TIME (LST):1358  FASTEST 2MIN SPEED (MPH):10 FASTEST 2MIN DIR (DEG):330 FASTEST 2MIN TIME (LST):1443 AVERAGE WIND SPEED (MPH):3.5  24 HR AVG TEMP (F):71 HEATING DEGREE DAYS:0   COOLING DEGREE DAYS:6   LATEST DAY MAX TEMP (0700-1900 LST):85  LATEST NIGHT MIN TEMP(1900-0800 LST):57 HOURLY INCREMENTAL PRECIPITATION VALUES (IN):.00 0.00 0.00 0.00 0.00 0.00 0.00 0.00 0.00 0.00 0.00 0.00 0.00 0.00 0.00 0.00 0.00 0.00 0.00 0.00 0.00 0.00 0.00 0.00","SOD  ","6",,,,,,,,,,,,,,,,,,,,,,,,,"0540","1832","2007-05-17"
"72793524234","2022-09-11T00:53:00","FM-15","7",,,,,,,,,,,,,,,,,,,,,,,,,,,,,,,,,,,,,,,"29.91","50","63","0.00","HZ:7 FU:3 |HZ FU |FU HZ","-0.06","3","63","29.91","CLR:00","29.88","6.00","56","140",,"3",,,,,,,,,,,,,,,,,,,,,,,,,,,,,,,,,,,,,"MET10309/11/22 00:53:02 METAR KBFI 110853Z 14003KT 6SM HZ FU CLR 17/10 A2991 RMK AO2 SLP129 T01720100 53019 $","FM-15","7",,,,,,,,,,,,,,,,,,,,,,,,,,,"2007-05-17"
"72793524234","2022-09-11T01:53:00","FM-15","7",,,,,,,,,,,,,,,,,,,,,,,,,,,,,,,,,,,,,,,"29.93","48","63","0.00","FU:3 |HZ FU |FU",,,"58","29.93","CLR:00","29.90","7.00","55","140",,"8",,,,,,,,,,,,,,,,,,,,,,,,,,,,,,,,,,,,,"MET09409/11/22 01:53:02 METAR KBFI 110953Z 14007KT 7SM FU CLR 17/09 A2993 RMK AO2 SLP135 T01720089 $","FM-15","7",,,,,,,,,,,,,,,,,,,,,,,,,,,"2007-05-17"
"72793524234","2022-09-11T02:53:00","FM-15","7",,,,,,,,,,,,,,,,,,,,,,,,,,,,,,,,,,,,,,,"29.96","49","64","0.00","FU:3 |HZ FU |FU",,,"58","29.95","CLR:00","29.93","8.00","56","150",,"9",,,,,,,,,,,,,,,,,,,,,,,,,,,,,,,,,,,,,"MET09409/11/22 02:53:02 METAR KBFI 111053Z 15008KT 8SM FU CLR 18/09 A2996 RMK AO2 SLP143 T01780094 $","FM-15","7",,,,,,,,,,,,,,,,,,,,,,,,,,,"2007-05-17"
"72793524234","2022-09-11T03:53:00","FM-15","7",,,,,,,,,,,,,,,,,,,,,,,,,,,,,,,,,,,,,,,"29.95","49","66","0.00","FU:3 |HZ FU |FU","-0.04","0","54","29.95","CLR:00","29.92","9.00","57","150",,"11",,,,,,,,,,,,,,,,,,,,,,,,,,,,,,,,,,,,,"MET11209/11/22 03:53:02 METAR KBFI 111153Z 15010KT 9SM FU CLR 19/09 A2995 RMK AO2 SLP143 T01890094 10194 20161 50014 $","FM-15","7",,,,,,,,,,,,,,,,,,,,,,,,,,,"2007-05-17"
"72793524234","2022-09-11T04:53:00","FM-15","7",,,,,,,,,,,,,,,,,,,,,,,,,,,,,,,,,,,,,,,"29.97","49","65","0.00","FU:3 |HZ FU |FU",,,"56","29.96","FEW:02 70 SCT:04 100 SCT:04 120","29.94","9.00","56","190",,"9",,,,,,,,,,,,,,,,,,,,,,,,,,,,,,,,,,,,,"MET11109/11/22 04:53:02 METAR KBFI 111253Z 19008KT 9SM FU FEW070 SCT100 SCT120 18/09 A2997 RMK AO2 SLP147 T01830094 $","FM-15","7",,,,,,,,,,,,,,,,,,,,,,,,,,,"2007-05-17"
"72793524234","2022-09-11T05:53:00","FM-15","7",,,,,,,,,,,,,,,,,,,,,,,,,,,,,,,,,,,,,,,"29.98","52","66","0.00","FU:3 |HZ FU |FU",,,"61","29.98","FEW:02 110","29.95","10.00","58","140",,"11",,,,,,,,,,,,,,,,,,,,,,,,,,,,,,,,,,,,,"MET10409/11/22 05:53:02 METAR KBFI 111353Z 14010KT 10SM FU FEW110 19/11 A2998 RMK AO2 SLP152 T01890111 $ (TWR)","FM-15","7",,,,,,,,,,,,,,,,,,,,,,,,,,,"2007-05-17"
"72793524234","2022-09-11T06:53:00","FM-15","7",,,,,,,,,,,,,,,,,,,,,,,,,,,,,,,,,,,,,,,"30.00","53","66","0.00","FU:3 |HZ FU |FU","-0.05","3","63","30.00","FEW:02 110","29.97","9.00","59","160",,"14",,,,,,,,,,,,,,,,,,,,,,,,,,,,,,,,,,,,,"MET10909/11/22 06:53:02 METAR KBFI 111453Z 16012KT 9SM FU FEW110 19/12 A3000 RMK AO2 SLP158 T01890117 53016 $ (TWR)","FM-15","7",,,,,,,,,,,,,,,,,,,,,,,,,,,"2007-05-17"
"72793524234","2022-09-11T07:53:00","FM-15","7",,,,,,,,,,,,,,,,,,,,,,,,,,,,,,,,,,,,,,,"30.00","53","65","0.00","FU:3 |HZ FU |FU",,,"66","30.00","CLR:00","29.97","9.00","58","150",,"9",,,,,,,,,,,,,,,,,,,,,,,,,,,,,,,,,,,,,"MET10009/11/22 07:53:02 METAR KBFI 111553Z 15008KT 9SM FU CLR 18/12 A3000 RMK AO2 SLP158 T01830117 $ (TWR)","FM-15","7",,,,,,,,,,,,,,,,,,,,,,,,,,,"2007-05-17"
"72793524234","2022-09-11T08:53:00","FM-15","7",,,,,,,,,,,,,,,,,,,,,,,,,,,,,,,,,,,,,,,"30.00","55","69","0.00","FU:3 |HZ FU |FU",,,"61","30.00","CLR:00","29.97","10.00","61","160",,"8",,,,,,,,,,,,,,,,,,,,,,,,,,,,,,,,,,,,,"MET10109/11/22 08:53:02 METAR KBFI 111653Z 16007KT 10SM FU CLR 21/13 A3000 RMK AO2 SLP159 T02060128 $ (TWR)","FM-15","7",,,,,,,,,,,,,,,,,,,,,,,,,,,"2007-05-17"
"72793524234","2022-09-11T09:53:00","FM-15","7",,,,,,,,,,,,,,,,,,,,,,,,,,,,,,,,,,,,,,,"30.01","56","70","0.00","FU:3 |HZ FU |FU","-0.01","3","61","30.01","CLR:00","29.98","10.00","62","160",,"8",,,,,,,,,,,,,,,,,,,,,,,,,,,,,,,,,,,,,"MET11909/11/22 09:53:02 METAR KBFI 111753Z 16007KT 10SM FU CLR 21/13 A3001 RMK AO2 SLP163 T02110133 10217 20183 53004 $ (TWR)","FM-15","7",,,,,,,,,,,,,,,,,,,,,,,,,,,"2007-05-17"
"72793524234","2022-09-11T10:53:00","FM-15","7",,,,,,,,,,,,,,,,,,,,,,,,,,,,,,,,,,,,,,,"30.02","56","72","0.00","FU:3 |HZ FU |FU",,,"57","30.01","CLR:00","29.99","10.00","63","VRB",,"6",,,,,,,,,,,,,,,,,,,,,,,,,,,,,,,,,,,,,"MET10109/11/22 10:53:02 METAR KBFI 111853Z VRB05KT 10SM FU CLR 22/13 A3002 RMK AO2 SLP164 T02220133 $ (TWR)","FM-15","7",,,,,,,,,,,,,,,,,,,,,,,,,,,"2007-05-17"
"72793524234","2022-09-11T11:53:00","FM-15","7",,,,,,,,,,,,,,,,,,,,,,,,,,,,,,,,,,,,,,,"30.01","54","75","0.00","FU:3 |HZ FU |FU",,,"48","30.00","CLR:00","29.98","6.00","63","190",,"6",,,,,,,,,,,,,,,,,,,,,,,,,,,,,,,,,,,,,"MET10009/11/22 11:53:02 METAR KBFI 111953Z 19005KT 6SM FU CLR 24/12 A3001 RMK AO2 SLP160 T02390122 $ (TWR)","FM-15","7",,,,,,,,,,,,,,,,,,,,,,,,,,,"2007-05-17"
"72793524234","2022-09-11T12:53:00","FM-15","7",,,,,,,,,,,,,,,,,,,,,,,,,,,,,,,,,,,,,,,"30.02","54","74","0.00","FU:3 |HZ FU |FU","-0.00","3","50","30.01","CLR:00","29.99","7.00","62","170",,"9",,,,,,,,,,,,,,,,,,,,,,,,,,,,,,,,,,,,,"MET10609/11/22 12:53:02 METAR KBFI 112053Z 17008KT 7SM FU CLR 23/12 A3002 RMK AO2 SLP164 T02330122 53001 $ (TWR)","FM-15","7",,,,,,,,,,,,,,,,,,,,,,,,,,,"2007-05-17"
"72793524234","2022-09-11T13:53:00","FM-15","7",,,,,,,,,,,,,,,,,,,,,,,,,,,,,,,,,,,,,,,"30.01","54","73","0.00","FU:3 |HZ FU |FU",,,"51","30.01","CLR:00","29.98","10.00","62","150",,"8",,,,,,,,,,,,,,,,,,,,,,,,,,,,,,,,,,,,,"MET10109/11/22 13:53:02 METAR KBFI 112153Z 15007KT 10SM FU CLR 23/12 A3001 RMK AO2 SLP162 T02280122 $ (TWR)","FM-15","7",,,,,,,,,,,,,,,,,,,,,,,,,,,"2007-05-17"
"72793524234","2022-09-11T14:53:00","FM-15","7",,,,,,,,,,,,,,,,,,,,,,,,,,,,,,,,,,,,,,,"30.01","56","72","0.00","FU:3 |HZ FU |FU",,,"57","30.01","FEW:02 110","29.98","9.00","63","160",,"14",,,,,,,,,,,,,,,,,,,,,,,,,,,,,,,,,,,,,"MET09709/11/22 14:53:02 METAR KBFI 112253Z 16012KT 9SM FU FEW110 22/13 A3001 RMK AO2 SLP161 T02220133 $","FM-15","7",,,,,,,,,,,,,,,,,,,,,,,,,,,"2007-05-17"
"72793524234","2022-09-11T15:53:00","FM-15","7",,,,,,,,,,,,,,,,,,,,,,,,,,,,,,,,,,,,,,,"30.00","54","71","0.00","FU:3 |HZ FU |FU","+0.01","6","55","30.00","BKN:07 100","29.97","9.00","61","200",,"6",,,,,,,,,,,,,,,,,,,,,,,,,,,,,,,,,,,,,"MET12009/11/22 15:53:02 METAR KBFI 112353Z 20005KT 9SM FU BKN100 22/12 A3000 RMK AO2 SLP160 T02170122 10244 20211 56004 $ (MB)","FM-15","7",,,,,,,,,,,,,,,,,,,,,,,,,,,"2007-05-17"
"72793524234","2022-09-11T16:53:00","FM-15","7",,,,,,,,,,,,,,,,,,,,,,,,,,,,,,,,,,,,,,,"30.01","54","72","0.00","FU:3 |HZ FU |FU",,,"53","30.00","FEW:02 75 BKN:07 110","29.98","9.00","62","230",,"5",,,,,,,,,,,,,,,,,,,,,,,,,,,,,,,,,,,,,"MET10409/11/22 16:53:01 METAR KBFI 120053Z 23004KT 9SM FU FEW075 BKN110 22/12 A3001 RMK AO2 SLP160 T02220122 $","FM-15","7",,,,,,,,,,,,,,,,,,,,,,,,,,,"2007-05-17"
"72793524234","2022-09-11T17:53:00","FM-15","7",,,,,,,,,,,,,,,,,,,,,,,,,,,,,,,,,,,,,,,"30.02","55","70","0.00","FU:3 |HZ FU |FU",,,"59","30.02","BKN:07 150","29.99","10.00","61","200",,"7",,,,,,,,,,,,,,,,,,,,,,,,,,,,,,,,,,,,,"MET09809/11/22 17:53:01 METAR KBFI 120153Z 20006KT 10SM FU BKN150 21/13 A3002 RMK AO2 SLP165 T02110128 $","FM-15","7",,,,,,,,,,,,,,,,,,,,,,,,,,,"2007-05-17"
"72793524234","2022-09-11T18:53:00","FM-15","7",,,,,,,,,,,,,,,,,,,,,,,,,,,,,,,,,,,,,,,"30.03","56","69","0.00","FU:3 |HZ FU |FU","-0.02","3","63","30.03","CLR:00","30.00","10.00","61","000",,"0",,,,,,,,,,,,,,,,,,,,,,,,,,,,,,,,,,,,,"MET10109/11/22 18:53:02 METAR KBFI 120253Z 00000KT 10SM FU CLR 21/13 A3003 RMK AO2 SLP168 T02060133 53008 $","FM-15","7",,,,,,,,,,,,,,,,,,,,,,,,,,,"2007-05-17"
"72793524234","2022-09-11T19:53:00","FM-15","7",,,,,,,,,,,,,,,,,,,,,,,,,,,,,,,,,,,,,,,"30.05","58","68","0.00","FU:3 |HZ FU |FU",,,"70","30.04","FEW:02 120","30.02","10.00","62","190",,"5",,,,,,,,,,,,,,,,,,,,,,,,,,,,,,,,,,,,,"MET09809/11/22 19:53:02 METAR KBFI 120353Z 19004KT 10SM FU FEW120 20/14 A3005 RMK AO2 SLP174 T02000144 $","FM-15","7",,,,,,,,,,,,,,,,,,,,,,,,,,,"2007-05-17"
"72793524234","2022-09-11T20:53:00","FM-15","7",,,,,,,,,,,,,,,,,,,,,,,,,,,,,,,,,,,,,,,"30.05","58","67","0.00","FU:3 |HZ FU |FU",,,"73","30.05","SCT:04 110","30.02","10.00","62","VRB",,"3",,,,,,,,,,,,,,,,,,,,,,,,,,,,,,,,,,,,,"MET09809/11/22 20:53:02 METAR KBFI 120453Z VRB03KT 10SM FU SCT110 19/14 A3005 RMK AO2 SLP175 T01940144 $","FM-15","7",,,,,,,,,,,,,,,,,,,,,,,,,,,"2007-05-17"
"72793524234","2022-09-11T21:53:00","FM-15","7",,,,,,,,,,,,,,,,,,,,,,,,,,,,,,,,,,,,,,,"30.04","59","66","T","FU:3 |HZ FU |FU","-0.01","0","78","30.04","FEW:02 95 SCT:04 110","30.01","10.00","62","190",,"5",,,,,,,,,,,,,,,,,,,,,,,,,,,,,,,,,,,,,"MET14409/11/22 21:53:02 METAR KBFI 120553Z 19004KT 10SM FU FEW095 SCT110 19/15 A3004 RMK AO2 RAB26E35 SLP173 P0000 60000 T01890150 10222 20183 50005 $","FM-15","7",,,,,,,,,,,,,,,,,,,,,,,,,,,"2007-05-17"
"72793524234","2022-09-11T22:53:00","FM-15","7",,,,,,,,,,,,,,,,,,,,,,,,,,,,,,,,,,,,,,,"30.05","57","64","0.00","FU:3 |HZ FU |FU",,,"78","30.05","FEW:02 100","30.02","10.00","60","170",,"9",,,,,,,,,,,,,,,,,,,,,,,,,,,,,,,,,,,,,"MET09809/11/22 22:53:02 METAR KBFI 120653Z 17008KT 10SM FU FEW100 18/14 A3005 RMK AO2 SLP177 T01780139 $","FM-15","7",,,,,,,,,,,,,,,,,,,,,,,,,,,"2007-05-17"
"72793524234","2022-09-11T23:53:00","FM-15","7",,,,,,,,,,,,,,,,,,,,,,,,,,,,,,,,,,,,,,,"30.05","57","64","0.00","FU:3 |HZ FU |FU",,,"78","30.05","FEW:02 95 SCT:04 120","30.02","10.00","60","140",,"7",,,,,,,,,,,,,,,,,,,,,,,,,,,,,,,,,,,,,"MET11509/11/22 23:53:02 METAR KBFI 120753Z 14006KT 10SM FU FEW095 SCT120 18/14 A3005 RMK AO2 SLP175 T01780139 402440161 $","FM-15","7",,,,,,,,,,,,,,,,,,,,,,,,,,,"2007-05-17"
"72793524234","2022-09-11T23:59:00","SOD  ","6",,,,,,,,,,,,,,,,,,"69",,,"29.96",,"7.5","4","5.8","0","76","61","180","23","T",,,"160","15","HZ",,,,,,,,,,,,,,,,,,,,,,,,,,,,,,,,,,,,,,,,,,,,,,,,,,,,,,,"SOD73024 HR PRECIPITATION (IN):T     24 HR MAX TEMP (F):76 24 HR MAX TEMP TIME (LST):1229 24 HR MIN TEMP (F):61 24 HR MIN TEMP TIME (LST):0131 AVERAGE STATION PRESSURE:29.965 MINIMUM SEA LEVEL PRESSURE:29.89 TIME OF OCCURRENCE:0019 PEAK WIND SPEED (MPH):23  PEAK WIND DIR (DEG):180 PEAK WIND TIME (LST):1413  FASTEST 2MIN SPEED (MPH):15 FASTEST 2MIN DIR (DEG):160 FASTEST 2MIN TIME (LST):1339 AVERAGE WIND SPEED (MPH):7.5  24 HR AVG TEMP (F):69 HEATING DEGREE DAYS:0   COOLING DEGREE DAYS:4   LATEST DAY MAX TEMP (0700-1900 LST):76  LATEST NIGHT MIN TEMP(1900-0800 LST):61 HOURLY INCREMENTAL PRECIPITATION VALUES (IN):.00 0.00 0.00 0.00 0.00 0.00 0.00 0.00 0.00 0.00 0.00 0.00 0.00 0.00 0.00 0.00 0.00 0.00 0.00 0.00 0.00 T    0.00 0.00","SOD  ","6",,,,,,,,,,,,,,,,,,,,,,,,,"0541","1830","2007-05-17"
"72793524234","2022-09-12T00:53:00","FM-15","7",,,,,,,,,,,,,,,,,,,,,,,,,,,,,,,,,,,,,,,"30.03","57","63","0.00","FU:3 |HZ FU |FU","+0.01","8","81","30.03","CLR:00","30.00","10.00","60","000",,"0",,,,,,,,,,,,,,,,,,,,,,,,,,,,,,,,,,,,,"MET10609/12/22 00:53:02 METAR KBFI 120853Z 00000KT 10SM FU CLR 17/14 A3003 RMK AO2 SLP169 T01720139 58004 $ (SN)","FM-15","7",,,,,,,,,,,,,,,,,,,,,,,,,,,"2007-05-17"
"72793524234","2022-09-12T01:53:00","FM-15","7",,,,,,,,,,,,,,,,,,,,,,,,,,,,,,,,,,,,,,,"30.04","57","63","0.00","FU:3 |HZ FU |FU",,,"81","30.04","CLR:00","30.01","10.00","60","190",,"5",,,,,,,,,,,,,,,,,,,,,,,,,,,,,,,,,,,,,"MET10009/12/22 01:53:02 METAR KBFI 120953Z 19004KT 10SM FU CLR 17/14 A3004 RMK AO2 SLP172 T01720139 $ (SN)","FM-15","7",,,,,,,,,,,,,,,,,,,,,,,,,,,"2007-05-17"
"72793524234","2022-09-12T02:53:00","FM-15","7",,,,,,,,,,,,,,,,,,,,,,,,,,,,,,,,,,,,,,,"30.04","57","63","0.00","FU:3 |HZ FU |FU",,,"81","30.04","BKN:07 110","30.01","10.00","60","160",,"5",,,,,,,,,,,,,,,,,,,,,,,,,,,,,,,,,,,,,"MET10309/12/22 02:53:02 METAR KBFI 121053Z 16004KT 10SM FU BKN110 17/14 A3004 RMK AO2 SLP173 T01720139 $ (SN)","FM-15","7",,,,,,,,,,,,,,,,,,,,,,,,,,,"2007-05-17"
"72793524234","2022-09-12T03:53:00","FM-15","7",,,,,,,,,,,,,,,,,,,,,,,,,,,,,,,,,,,,,,,"30.04","57","62","0.00","FU:3 |HZ FU |FU","-0.01","0","84","30.04","CLR:00","30.01","10.00","59","150",,"5",,,,,,,,,,,,,,,,,,,,,,,,,,,,,,,,,,,,,"MET11809/12/22 03:53:02 METAR KBFI 121153Z 15004KT 10SM FU CLR 17/14 A3004 RMK AO2 SLP172 T01670139 10189 20167 50003 $ (SN)","FM-15","7",,,,,,,,,,,,,,,,,,,,,,,,,,,"2007-05-17"
"72793524234","2022-09-12T04:53:00","FM-15","7",,,,,,,,,,,,,,,,,,,,,,,,,,,,,,,,,,,,,,,"30.03","57","62","0.00","FU:3 |HZ FU |FU",,,"84","30.03","FEW:02 120","30.00","9.00","59","160",,"6",,,,,,,,,,,,,,,,,,,,,,,,,,,,,,,,,,,,,"MET10309/12/22 04:53:02 METAR KBFI 121253Z 16005KT 9SM FU FEW120 17/14 A3003 RMK AO2 SLP168 T01670139 $ (TWR)","FM-15","7",,,,,,,,,,,,,,,,,,,,,,,,,,,"2007-05-17"
"72793524234","2022-09-12T05:53:00","FM-15","7",,,,,,,,,,,,,,,,,,,,,,,,,,,,,,,,,,,,,,,"30.03","57","61","0.00","FU:3 |HZ FU |FU",,,"87","30.02","CLR:00","30.00","9.00","59","170",,"5",,,,,,,,,,,,,,,,,,,,,,,,,,,,,,,,,,,,,"MET09809/12/22 05:53:02 METAR KBFI 121353Z 17004KT 9SM FU CLR 16/14 A3003 RMK AO2 SLP167 T01610139 (TWR)","FM-15","7",,,,,,,,,,,,,,,,,,,,,,,,,,,"2007-05-17"
"72793524234","2022-09-12T06:53:00","FM-15","7",,,,,,,,,,,,,,,,,,,,,,,,,,,,,,,,,,,,,,,"30.03","56","62","0.00","FU:3 |HZ FU |FU","+0.01","5","80","30.03","CLR:00","30.00","8.00","59","200",,"5",,,,,,,,,,,,,,,,,,,,,,,,,,,,,,,,,,,,,"MET10409/12/22 06:53:02 METAR KBFI 121453Z 20004KT 8SM FU CLR 17/13 A3003 RMK AO2 SLP170 T01670133 55002 (TWR)","FM-15","7",,,,,,,,,,,,,,,,,,,,,,,,,,,"2007-05-17"
"72793524234","2022-09-12T07:53:00","FM-15","7",,,,,,,,,,,,,,,,,,,,,,,,,,,,,,,,,,,,,,,"30.03","56","62","0.00","HZ:7 FU:3 |HZ FU |FU HZ",,,"80","30.03","BKN:07 35","30.00","6.00","59","180",,"5",,,,,,,,,,,,,,,,,,,,,,,,,,,,,,,,,,,,,"MET10409/12/22 07:53:02 METAR KBFI 121553Z 18004KT 6SM HZ FU BKN035 17/13 A3003 RMK AO2 SLP170 T01670133 (TWR)","FM-15","7",,,,,,,,,,,,,,,,,,,,,,,,,,,"2007-05-17"
"72793524234","2022-09-12T08:53:00","FM-15","7",,,,,,,,,,,,,,,,,,,,,,,,,,,,,,,,,,,,,,,"30.04","57","65","0.00","FU:3 |HZ FU |FU",,,"76","30.04","OVC:08 32","30.01","10.00","60","VRB",,"5",,,,,,,,,,,,,,,,,,,,,,,,,,,,,,,,,,,,,"MET10209/12/22 08:53:02 METAR KBFI 121653Z VRB04KT 10SM FU OVC032 18/14 A3004 RMK AO2 SLP173 T01830139 (TWR)","FM-15","7",,,,,,,,,,,,,,,,,,,,,,,,,,,"2007-05-17"
"72793524234","2022-09-12T09:53:00","FM-15","7",,,,,,,,,,,,,,,,,,,,,,,,,,,,,,,,,,,,,,,"30.04","56","66","0.00","FU:3 |HZ FU |FU","-0.01","3","70","30.04","SCT:04 31 BKN:07 110","30.01","10.00","60","180",,"7",,,,,,,,,,,,,,,,,,,,,,,,,,,,,,,,,,,,,"MET12709/12/22 09:53:02 METAR KBFI 121753Z 18006KT 10SM FU SCT031 BKN110 19/13 A3004 RMK AO2 SLP173 T01890133 10189 20161 53003 (TWR)","FM-15","7",,,,,,,,,,,,,,,,,,,,,,,,,,,"2007-05-17"
"72793524234","2022-09-12T10:53:00","FM-15","7",,,,,,,,,,,,,,,,,,,,,,,,,,,,,,,,,,,,,,,"30.02","56","69","0.00","FU:3 |HZ FU |FU",,,"63","30.02","SCT:04 28","29.99","10.00","61","150",,"8",,,,,,,,,,,,,,,,,,,,,,,,,,,,,,,,,,,,,"MET10209/12/22 10:53:02 METAR KBFI 121853Z 15007KT 10SM FU SCT028 21/13 A3002 RMK AO2 SLP167 T02060133 (TWR)","FM-15","7",,,,,,,,,,,,,,,,,,,,,,,,,,,"2007-05-17"
"72793524234","2022-09-12T11:03:00","FM-16","7",,,,,,,,,,,,,,,,,,,,,,,,,,,,,,,,,,,,,,,"30.02","56","69",,"FU:3 |HZ FU |FU",,,"63",,"BKN:07 28","29.99","10.00","61","170",,"10",,,,,,,,,,,,,,,,,,,,,,,,,,,,,,,,,,,,,"MET09509/12/22 11:03:02 SPECI KBFI 121903Z 17009KT 10SM FU BKN028 21/13 A3002 RMK AO2 T02060133 (TWR)","FM-16","7",,,,,,,,,,,,,,,,,,,,,,,,,,,"2007-05-17"
"72793524234","2022-09-12T11:43:00","FM-16","7",,,,,,,,,,,,,,,,,,,,,,,,,,,,,,,,,,,,,,,"30.00","56","69",,"FU:3 |HZ FU |FU",,,"63",,"SCT:04 29","29.97","10.00","61","180",,"6",,,,,,,,,,,,,,,,,,,,,,,,,,,,,,,,,,,,,"MET09509/12/22 11:43:02 SPECI KBFI 121943Z 18005KT 10SM FU SCT029 21/13 A3000 RMK AO2 T02060133 (TWR)","FM-16","7",,,,,,,,,,,,,,,,,,,,,,,,,,,"2007-05-17"
"72793524234","2022-09-12T11:51:00","FM-16","6",,,,,,,,,,,,,,,,,,,,,,,,,,,,,,,,,,,,,,,"30.00","55","72",,"FU:3 |FU |FU",,,"57",,"BKN:07 29","29.97","10.00","62","150",,"6",,,,,,,,,,,,,,,,,,,,,,,,,,,,,,,,,,,,,"MET09009/12/22 11:51:02 SPECI KBFI 121951Z 15005KT 10SM FU BKN029 22/13 A3000 RMK AO2 FIBI (TWR)","FM-16","6",,,,,,,,,,,,,,,,,,,,,,,,,,,"2007-05-17"
"72793524234","2022-09-12T11:53:00","FM-15","7",,,,,,,,,,,,,,,,,,,,,,,,,,,,,,,,,,,,,,,"30.00","56","70","0.00","FU:3 |HZ FU |FU",,,"61","29.99","SCT:04 29","29.97","10.00","62","150",,"7",,,,,,,,,,,,,,,,,,,,,,,,,,,,,,,,,,,,,"MET10209/12/22 11:53:02 METAR KBFI 121953Z 15006KT 10SM FU SCT029 21/13 A3000 RMK AO2 SLP157 T02110133 (TWR)","FM-15","7",,,,,,,,,,,,,,,,,,,,,,,,,,,"2007-05-17"
"72793524234","2022-09-12T12:53:00","FM-15","7",,,,,,,,,,,,,,,,,,,,,,,,,,,,,,,,,,,,,,,"29.97","56","71","0.00","FU:3 |HZ FU |FU","+0.05","6","59","29.97","CLR:00","29.94","10.00","62","VRB",,"3",,,,,,,,,,,,,,,,,,,,,,,,,,,,,,,,,,,,,"MET10509/12/22 12:53:02 METAR KBFI 122053Z VRB03KT 10SM FU CLR 22/13 A2997 RMK AO2 SLP149 T02170133 56017 (TWR)","FM-15","7",,,,,,,,,,,,,,,,,,,,,,,,,,,"2007-05-17"
"72793524234","2022-09-12T13:53:00","FM-15","7",,,,,,,,,,,,,,,,,,,,,,,,,,,,,,,,,,,,,,,"29.95","56","72","0.00","FU:3 |HZ FU |FU",,,"57","29.95","CLR:00","29.92","10.00","63","VRB",,"7",,,,,,,,,,,,,,,,,,,,,,,,,,,,,,,,,,,,,"MET09309/12/22 13:53:02 METAR KBFI 122153Z VRB06KT 10SM FU CLR 22/13 A2995 RMK AO2 SLP142 T02220133","FM-15","7",,,,,,,,,,,,,,,,,,,,,,,,,,,"2007-05-17"
"72793524234","2022-09-12T14:53:00","FM-15","7",,,,,,,,,,,,,,,,,,,,,,,,,,,,,,,,,,,,,,,"29.94","57","73","0.00","FU:3 |HZ FU |FU",,,"57","29.94","CLR:00","29.91","10.00","63","VRB",,"6",,,,,,,,,,,,,,,,,,,,,,,,,,,,,,,,,,,,,"MET09809/12/22 14:53:02 METAR KBFI 122253Z VRB05KT 10SM FU CLR 23/14 A2994 RMK AO2 SLP138 T02280139 (SN)","FM-15","7",,,,,,,,,,,,,,,,,,,,,,,,,,,"2007-05-17"
"72793524234","2022-09-12T15:53:00","FM-15","7",,,,,,,,,,,,,,,,,,,,,,,,,,,,,,,,,,,,,,,"29.93","56","73","0.00","FU:3 |HZ FU |FU","+0.04","6","55","29.93","CLR:00","29.90","10.00","63","240",,"6",,,,,,,,,,,,,,,,,,,,,,,,,,,,,,,,,,,,,"MET11609/12/22 15:53:02 METAR KBFI 122353Z 24005KT 10SM FU CLR 23/13 A2993 RMK AO2 SLP134 T02280133 10233 20183 56015 (SN)","FM-15","7",,,,,,,,,,,,,,,,,,,,,,,,,,,"2007-05-17"
"72793524234","2022-09-12T16:53:00","FM-15","7",,,,,,,,,,,,,,,,,,,,,,,,,,,,,,,,,,,,,,,"29.92","56","72","0.00","FU:3 |HZ FU |FU",,,"57","29.91","CLR:00","29.89","10.00","63","180",,"6",,,,,,,,,,,,,,,,,,,,,,,,,,,,,,,,,,,,,"MET09309/12/22 16:53:01 METAR KBFI 130053Z 18005KT 10SM FU CLR 22/13 A2992 RMK AO2 SLP130 T02220133","FM-15","7",,,,,,,,,,,,,,,,,,,,,,,,,,,"2007-05-17"
"72793524234","2022-09-12T17:53:00","FM-15","7",,,,,,,,,,,,,,,,,,,,,,,,,,,,,,,,,,,,,,,"29.91","55","70","0.00","FU:3 |HZ FU |FU",,,"59","29.91","CLR:00","29.88","10.00","61","170",,"5",,,,,,,,,,,,,,,,,,,,,,,,,,,,,,,,,,,,,"MET09309/12/22 17:53:01 METAR KBFI 130153Z 17004KT 10SM FU CLR 21/13 A2991 RMK AO2 SLP129 T02110128","FM-15","7",,,,,,,,,,,,,,,,,,,,,,,,,,,"2007-05-17"
"72793524234","2022-09-12T18:53:00","FM-15","7",,,,,,,,,,,,,,,,,,,,,,,,,,,,,,,,,,,,,,,"29.90","55","69","0.00","FU:3 |HZ FU |FU","+0.02","6","61","29.90","CLR:00","29.87","10.00","61","330",,"3",,,,,,,,,,,,,,,,,,,,,,,,,,,,,,,,,,,,,"MET09909/12/22 18:53:01 METAR KBFI 130253Z 33003KT 10SM FU CLR 21/13 A2990 RMK AO2 SLP126 T02060128 56008","FM-15","7",,,,,,,,,,,,,,,,,,,,,,,,,,,"2007-05-17"
"72793524234","2022-09-12T19:53:00","FM-15","7",,,,,,,,,,,,,,,,,,,,,,,,,,,,,,,,,,,,,,,"29.92","55","65","0.00","FU:3 |HZ FU |FU",,,"70","29.92","CLR:00","29.89","10.00","59","000",,"0",,,,,,,,,,,,,,,,,,,,,,,,,,,,,,,,,,,,,"MET09309/12/22 19:53:02 METAR KBFI 130353Z 00000KT 10SM FU CLR 18/13 A2992 RMK AO2 SLP131 T01830128","FM-15","7",,,,,,,,,,,,,,,,,,,,,,,,,,,"2007-05-17"
"72793524234","2022-09-12T20:53:00","FM-15","7",,,,,,,,,,,,,,,,,,,,,,,,,,,,,,,,,,,,,,,"29.92","53","63","0.00","FU:3 |HZ FU |FU",,,"70","29.92","CLR:00","29.89","10.00","57","VRB",,"3",,,,,,,,,,,,,,,,,,,,,,,,,,,,,,,,,,,,,"MET09309/12/22 20:53:02 METAR KBFI 130453Z VRB03KT 10SM FU CLR 17/12 A2992 RMK AO2 SLP133 T01720117","FM-15","7",,,,,,,,,,,,,,,,,,,,,,,,,,,"2007-05-17"
"72793524234","2022-09-12T21:53:00","FM-15","7",,,,,,,,,,,,,,,,,,,,,,,,,,,,,,,,,,,,,,,"29.92","53","62","0.00","FU:3 |HZ FU |FU","-0.02","0","73","29.92","FEW:02 40 BKN:07 65","29.89","10.00","57","000",,"0",,,,,,,,,,,,,,,,,,,,,,,,,,,,,,,,,,,,,"MET12109/12/22 21:53:02 METAR KBFI 130553Z 00000KT 10SM FU FEW040 BKN065 17/12 A2992 RMK AO2 SLP132 T01670117 10233 20167 50006","FM-15","7",,,,,,,,,,,,,,,,,,,,,,,,,,,"2007-05-17"
"72793524234","2022-09-12T22:53:00","FM-15","7",,,,,,,,,,,,,,,,,,,,,,,,,,,,,,,,,,,,,,,"29.93","54","64","0.00","FU:3 |HZ FU |FU",,,"70","29.92","OVC:08 47","29.90","10.00","58","000",,"0",,,,,,,,,,,,,,,,,,,,,,,,,,,,,,,,,,,,,"MET09609/12/22 22:53:02 METAR KBFI 130653Z 00000KT 10SM FU OVC047 18/12 A2993 RMK AO2 SLP133 T01780122","FM-15","7",,,,,,,,,,,,,,,,,,,,,,,,,,,"2007-05-17"
"72793524234","2022-09-12T23:53:00","FM-15","7",,,,,,,,,,,,,,,,,,,,,,,,,,,,,,,,,,,,,,,"29.92","54","63","0.00","FU:3 |HZ FU |FU",,,"73","29.92","OVC:08 50","29.89","10.00","58","000",,"0",,,,,,,,,,,,,,,,,,,,,,,,,,,,,,,,,,,,,"MET10609/12/22 23:53:02 METAR KBFI 130753Z 00000KT 10SM FU OVC050 17/12 A2992 RMK AO2 SLP133 T01720122 402330161","FM-15","7",,,,,,,,,,,,,,,,,,,,,,,,,,,"2007-05-17"
"72793524234","2022-09-12T23:59:00","SOD  ","6",,,,,,,,,,,,,,,,,,"68",,,"29.95",,"4.1","3","5.1","0","74","61","290","16","0.00",,,"190","10","HZ",,,,,,,,,,,,,,,,,,,,,,,,,,,,,,,,,,,,,,,,,,,,,,,,,,,,,,,"SOD73024 HR PRECIPITATION (IN):0.00  24 HR MAX TEMP (F):74 24 HR MAX TEMP TIME (LST):1615 24 HR MIN TEMP (F):61 24 HR MIN TEMP TIME (LST):0636 AVERAGE STATION PRESSURE:29.945 MINIMUM SEA LEVEL PRESSURE:29.90 TIME OF OCCURRENCE:1912 PEAK WIND SPEED (MPH):16  PEAK WIND DIR (DEG):290 PEAK WIND TIME (LST):1303  FASTEST 2MIN SPEED (MPH):10 FASTEST 2MIN DIR (DEG):190 FASTEST 2MIN TIME (LST):1232 AVERAGE WIND SPEED (MPH):4.1  24 HR AVG TEMP (F):68 HEATING DEGREE DAYS:0   COOLING DEGREE DAYS:3   LATEST DAY MAX TEMP (0700-1900 LST):74  LATEST NIGHT MIN TEMP(1900-0800 LST):61 HOURLY INCREMENTAL PRECIPITATION VALUES (IN):.00 0.00 0.00 0.00 0.00 0.00 0.00 0.00 0.00 0.00 0.00 0.00 0.00 0.00 0.00 0.00 0.00 0.00 0.00 0.00 0.00 0.00 0.00 0.00","SOD  ","6",,,,,,,,,,,,,,,,,,,,,,,,,"0542","1828","2007-05-17"
"72793524234","2022-09-13T00:53:00","FM-15","7",,,,,,,,,,,,,,,,,,,,,,,,,,,,,,,,,,,,,,,"29.92","53","64","0.00","FU:3 |HZ FU |FU","+0.00","8","68","29.92","SCT:04 38 OVC:08 48","29.89","10.00","58","000",,"0",,,,,,,,,,,,,,,,,,,,,,,,,,,,,,,,,,,,,"MET11409/13/22 00:53:02 METAR KBFI 130853Z 00000KT 10SM FU SCT038 OVC048 18/12 A2992 RMK AO2 SLP131 T01780117 58001 (SN)","FM-15","7",,,,,,,,,,,,,,,,,,,,,,,,,,,"2007-05-17"
"72793524234","2022-09-13T01:53:00","FM-15","7",,,,,,,,,,,,,,,,,,,,,,,,,,,,,,,,,,,,,,,"29.91","54","64","0.00","FU:3 |HZ FU |FU",,,"70","29.91","OVC:08 39","29.88","10.00","58","000",,"0",,,,,,,,,,,,,,,,,,,,,,,,,,,,,,,,,,,,,"MET10109/13/22 01:53:02 METAR KBFI 130953Z 00000KT 10SM FU OVC039 18/12 A2991 RMK AO2 SLP128 T01780122 (SN)","FM-15","7",,,,,,,,,,,,,,,,,,,,,,,,,,,"2007-05-17"
"72793524234","2022-09-13T02:53:00","FM-15","7",,,,,,,,,,,,,,,,,,,,,,,,,,,,,,,,,,,,,,,"29.91","54","63","0.00","FU:3 |HZ FU |FU",,,"73","29.91","OVC:08 48","29.88","10.00","58","000",,"0",,,,,,,,,,,,,,,,,,,,,,,,,,,,,,,,,,,,,"MET10109/13/22 02:53:02 METAR KBFI 131053Z 00000KT 10SM FU OVC048 17/12 A2991 RMK AO2 SLP128 T01720122 (MM)","FM-15","7",,,,,,,,,,,,,,,,,,,,,,,,,,,"2007-05-17"
"72793524234","2022-09-13T03:53:00","FM-15","7",,,,,,,,,,,,,,,,,,,,,,,,,,,,,,,,,,,,,,,"29.91","53","63","0.00","FU:3 |HZ FU |FU","+0.01","6","70","29.91","OVC:08 55","29.88","10.00","57","000",,"0",,,,,,,,,,,,,,,,,,,,,,,,,,,,,,,,,,,,,"MET11909/13/22 03:53:02 METAR KBFI 131153Z 00000KT 10SM FU OVC055 17/12 A2991 RMK AO2 SLP128 T01720117 10178 20167 56003 (MM)","FM-15","7",,,,,,,,,,,,,,,,,,,,,,,,,,,"2007-05-17"
"72793524234","2022-09-13T04:53:00","FM-15","7",,,,,,,,,,,,,,,,,,,,,,,,,,,,,,,,,,,,,,,"29.90","53","63","0.00","FU:3 |HZ FU |FU",,,"70","29.90","OVC:08 60","29.87","10.00","57","000",,"0",,,,,,,,,,,,,,,,,,,,,,,,,,,,,,,,,,,,,"MET10109/13/22 04:53:02 METAR KBFI 131253Z 00000KT 10SM FU OVC060 17/12 A2990 RMK AO2 SLP125 T01720117 (MM)","FM-15","7",,,,,,,,,,,,,,,,,,,,,,,,,,,"2007-05-17"
"72793524234","2022-09-13T05:53:00","FM-15","7",,,,,,,,,,,,,,,,,,,,,,,,,,,,,,,,,,,,,,,"29.91","52","63","0.00","FU:3 |HZ FU |FU",,,"68","29.90","OVC:08 70","29.88","10.00","57","000",,"0",,,,,,,,,,,,,,,,,,,,,,,,,,,,,,,,,,,,,"MET10109/13/22 05:53:02 METAR KBFI 131353Z 00000KT 10SM FU OVC070 17/11 A2991 RMK AO2 SLP126 T01720111 (MM)","FM-15","7",,,,,,,,,,,,,,,,,,,,,,,,,,,"2007-05-17"
"72793524234","2022-09-13T06:53:00","FM-15","7",,,,,,,,,,,,,,,,,,,,,,,,,,,,,,,,,,,,,,,"29.91","53","63","0.00","FU:3 |HZ FU |FU","+0.00","5","70","29.91","OVC:08 70","29.88","10.00","57","000",,"0",,,,,,,,,,,,,,,,,,,,,,,,,,,,,,,,,,,,,"MET10709/13/22 06:53:02 METAR KBFI 131453Z 00000KT 10SM FU OVC070 17/12 A2991 RMK AO2 SLP127 T01720117 55001 (MM)","FM-15","7",,,,,,,,,,,,,,,,,,,,,,,,,,,"2007-05-17"
"72793524234","2022-09-13T07:53:00","FM-15","7",,,,,,,,,,,,,,,,,,,,,,,,,,,,,,,,,,,,,,,"29.90","53","64","0.00","FU:3 |HZ FU |FU",,,"68","29.90","BKN:07 37 OVC:08 70","29.87","10.00","58","000",,"0",,,,,,,,,,,,,,,,,,,,,,,,,,,,,,,,,,,,,"MET10809/13/22 07:53:02 METAR KBFI 131553Z 00000KT 10SM FU BKN037 OVC070 18/12 A2990 RMK AO2 SLP125 T01780117 (MM)","FM-15","7",,,,,,,,,,,,,,,,,,,,,,,,,,,"2007-05-17"
"72793524234","2022-09-13T08:53:00","FM-15","7",,,,,,,,,,,,,,,,,,,,,,,,,,,,,,,,,,,,,,,"29.90","54","65","0.00","FU:3 |HZ FU |FU",,,"68","29.90","BKN:07 30","29.87","10.00","59","330",,"3",,,,,,,,,,,,,,,,,,,,,,,,,,,,,,,,,,,,,"MET10109/13/22 08:53:02 METAR KBFI 131653Z 33003KT 10SM FU BKN030 18/12 A2990 RMK AO2 SLP124 T01830122 (MM)","FM-15","7",,,,,,,,,,,,,,,,,,,,,,,,,,,"2007-05-17"
"72793524234","2022-09-13T09:53:00","FM-15","7",,,,,,,,,,,,,,,,,,,,,,,,,,,,,,,,,,,,,,,"29.90","54","67","0.00","FU:3 |HZ FU |FU","+0.01","6","63","29.89","BKN:07 38","29.87","10.00","60","290",,"3",,,,,,,,,,,,,,,,,,,,,,,,,,,,,,,,,,,,,"MET11909/13/22 09:53:02 METAR KBFI 131753Z 29003KT 10SM FU BKN038 19/12 A2990 RMK AO2 SLP123 T01940122 10194 20167 56003 (MM)","FM-15","7",,,,,,,,,,,,,,,,,,,,,,,,,,,"2007-05-17"
"72793524234","2022-09-13T10:53:00","FM-15","7",,,,,,,,,,,,,,,,,,,,,,,,,,,,,,,,,,,,,,,"29.89","53","68","0.00","FU:3 |HZ FU |FU",,,"59","29.89","BKN:07 34","29.86","10.00","59","290",,"5",,,,,,,,,,,,,,,,,,,,,,,,,,,,,,,,,,,,,"MET10109/13/22 10:53:02 METAR KBFI 131853Z 29004KT 10SM FU BKN034 20/12 A2989 RMK AO2 SLP121 T02000117 (MM)","FM-15","7",,,,,,,,,,,,,,,,,,,,,,,,,,,"2007-05-17"
"72793524234","2022-09-13T11:53:00","FM-15","7",,,,,,,,,,,,,,,,,,,,,,,,,,,,,,,,,,,,,,,"29.88","53","69","0.00","FU:3 |HZ FU |FU",,,"57","29.88","BKN:07 85","29.85","10.00","60","VRB",,"5",,,,,,,,,,,,,,,,,,,,,,,,,,,,,,,,,,,,,"MET10109/13/22 11:53:02 METAR KBFI 131953Z VRB04KT 10SM FU BKN085 21/12 A2988 RMK AO2 SLP119 T02060117 (AD)","FM-15","7",,,,,,,,,,,,,,,,,,,,,,,,,,,"2007-05-17"
"72793524234","2022-09-13T12:53:00","FM-15","7",,,,,,,,,,,,,,,,,,,,,,,,,,,,,,,,,,,,,,,"29.88","53","70","0.00","FU:3 |HZ FU |FU","+0.02","6","55","29.88","BKN:07 90","29.85","10.00","60","310",,"5",,,,,,,,,,,,,,,,,,,,,,,,,,,,,,,,,,,,,"MET10709/13/22 12:53:02 METAR KBFI 132053Z 31004KT 10SM FU BKN090 21/12 A2988 RMK AO2 SLP118 T02110117 56006 (AD)","FM-15","7",,,,,,,,,,,,,,,,,,,,,,,,,,,"2007-05-17"
"72793524234","2022-09-13T13:53:00","FM-15","7",,,,,,,,,,,,,,,,,,,,,,,,,,,,,,,,,,,,,,,"29.87","54","69","0.00","FU:3 |HZ FU |FU",,,"59","29.87","FEW:02 70 OVC:08 90","29.84","10.00","60","000",,"0",,,,,,,,,,,,,,,,,,,,,,,,,,,,,,,,,,,,,"MET10909/13/22 13:53:02 METAR KBFI 132153Z 00000KT 10SM FU FEW070 OVC090 21/12 A2987 RMK AO2 SLP114 T02060122 (TWR)","FM-15","7",,,,,,,,,,,,,,,,,,,,,,,,,,,"2007-05-17"
"72793524234","2022-09-13T14:53:00","FM-15","7",,,,,,,,,,,,,,,,,,,,,,,,,,,,,,,,,,,,,,,"29.86","53","69","0.00","FU:3 |HZ FU |FU",,,"57","29.85","SCT:04 55 OVC:08 90","29.83","10.00","60",,,,,,,,,,,,,,,,,,,,,,,,,,,,,,,,,,,,,,,,"MET10809/13/22 14:53:02 METAR KBFI 132253Z      KT 10SM FU SCT055 OVC090 21/12 A2986 RMK AO2 SLP109 T02060117 (SN)","FM-15","7",,,,,,,,,,,,,,,,,,,,,,,,,,,"2007-05-17"
"72793524234","2022-09-13T15:53:00","FM-15","7",,,,,,,,,,,,,,,,,,,,,,,,,,,,,,,,,,,,,,,"29.84","53","70","0.00","FU:3 |HZ FU |FU","+0.04","6","55","29.84","BKN:07 65 OVC:08 90","29.81","10.00","60","320",,"5",,,,,,,,,,,,,,,,,,,,,,,,,,,,,,,,,,,,,"MET12609/13/22 15:53:02 METAR KBFI 132353Z 32004KT 10SM FU BKN065 OVC090 21/12 A2984 RMK AO2 SLP106 T02110117 10211 20194 56012 (SN)","FM-15","7",,,,,,,,,,,,,,,,,,,,,,,,,,,"2007-05-17"
"72793524234","2022-09-13T16:53:00","FM-15","7",,,,,,,,,,,,,,,,,,,,,,,,,,,,,,,,,,,,,,,"29.85","54","68","0.00","FU:3 |HZ FU |FU",,,"61","29.85","FEW:02 75 OVC:08 90","29.82","10.00","60","300",,"5",,,,,,,,,,,,,,,,,,,,,,,,,,,,,,,,,,,,,"MET10309/13/22 16:53:01 METAR KBFI 140053Z 30004KT 10SM FU FEW075 OVC090 20/12 A2985 RMK AO2 SLP109 T02000122","FM-15","7",,,,,,,,,,,,,,,,,,,,,,,,,,,"2007-05-17"
"72793524234","2022-09-13T17:53:00","FM-15","7",,,,,,,,,,,,,,,,,,,,,,,,,,,,,,,,,,,,,,,"29.86","53","67","0.00","FU:3 |HZ FU |FU",,,"61","29.86","OVC:08 90","29.83","10.00","59","300",,"5",,,,,,,,,,,,,,,,,,,,,,,,,,,,,,,,,,,,,"MET09609/13/22 17:53:01 METAR KBFI 140153Z 30004KT 10SM FU OVC090 19/12 A2986 RMK AO2 SLP111 T01940117","FM-15","7",,,,,,,,,,,,,,,,,,,,,,,,,,,"2007-05-17"
"72793524234","2022-09-13T18:53:00","FM-15","7",,,,,,,,,,,,,,,,,,,,,,,,,,,,,,,,,,,,,,,"29.86","53","66","0.00","FU:3 |HZ FU |FU","-0.01","0","63","29.85","OVC:08 90","29.83","10.00","59","310",,"5",,,,,,,,,,,,,,,,,,,,,,,,,,,,,,,,,,,,,"MET10209/13/22 18:53:01 METAR KBFI 140253Z 31004KT 10SM FU OVC090 19/12 A2986 RMK AO2 SLP110 T01890117 50004","FM-15","7",,,,,,,,,,,,,,,,,,,,,,,,,,,"2007-05-17"
"72793524234","2022-09-13T19:53:00","FM-15","7",,,,,,,,,,,,,,,,,,,,,,,,,,,,,,,,,,,,,,,"29.87","54","65","0.00","FU:3 |HZ FU |FU",,,"68","29.87","OVC:08 95","29.84","10.00","59","000",,"0",,,,,,,,,,,,,,,,,,,,,,,,,,,,,,,,,,,,,"MET09609/13/22 19:53:02 METAR KBFI 140353Z 00000KT 10SM FU OVC095 18/12 A2987 RMK AO2 SLP114 T01830122","FM-15","7",,,,,,,,,,,,,,,,,,,,,,,,,,,"2007-05-17"
"72793524234","2022-09-13T20:53:00","FM-15","7",,,,,,,,,,,,,,,,,,,,,,,,,,,,,,,,,,,,,,,"29.87","54","64","0.00","FU:3 |HZ FU |FU",,,"70","29.87","SCT:04 47 OVC:08 95","29.84","10.00","58","310",,"3",,,,,,,,,,,,,,,,,,,,,,,,,,,,,,,,,,,,,"MET10309/13/22 20:53:02 METAR KBFI 140453Z 31003KT 10SM FU SCT047 OVC095 18/12 A2987 RMK AO2 SLP114 T01780122","FM-15","7",,,,,,,,,,,,,,,,,,,,,,,,,,,"2007-05-17"
"72793524234","2022-09-13T21:53:00","FM-15","7",,,,,,,,,,,,,,,,,,,,,,,,,,,,,,,,,,,,,,,"29.87","54","63","0.00","FU:3 |HZ FU |FU","-0.01","0","73","29.86","SCT:04 49 BKN:07 95","29.84","10.00","58","000",,"0",,,,,,,,,,,,,,,,,,,,,,,,,,,,,,,,,,,,,"MET12109/13/22 21:53:02 METAR KBFI 140553Z 00000KT 10SM FU SCT049 BKN095 17/12 A2987 RMK AO2 SLP113 T01720122 10211 20172 50003","FM-15","7",,,,,,,,,,,,,,,,,,,,,,,,,,,"2007-05-17"
"72793524234","2022-09-13T22:53:00","FM-15","7",,,,,,,,,,,,,,,,,,,,,,,,,,,,,,,,,,,,,,,"29.87","54","62","0.00","FU:3 |HZ FU |FU",,,"75","29.87","SCT:04 48 OVC:08 95","29.84","10.00","58","270",,"3",,,,,,,,,,,,,,,,,,,,,,,,,,,,,,,,,,,,,"MET10309/13/22 22:53:02 METAR KBFI 140653Z 27003KT 10SM FU SCT048 OVC095 17/12 A2987 RMK AO2 SLP115 T01670122","FM-15","7",,,,,,,,,,,,,,,,,,,,,,,,,,,"2007-05-17"
"72793524234","2022-09-13T23:53:00","FM-15","7",,,,,,,,,,,,,,,,,,,,,,,,,,,,,,,,,,,,,,,"29.87","55","63","0.00","FU:3 |HZ FU |FU",,,"75","29.87","OVC:08 46","29.84","10.00","58","000",,"0",,,,,,,,,,,,,,,,,,,,,,,,,,,,,,,,,,,,,"MET10609/13/22 23:53:02 METAR KBFI 140753Z 00000KT 10SM FU OVC046 17/13 A2987 RMK AO2 SLP115 T01720128 402110167","FM-15","7",,,,,,,,,,,,,,,,,,,,,,,,,,,"2007-05-17"
"72793524234","2022-09-13T23:59:00","SOD  ","6",,,,,,,,,,,,,,,,,,"66",,,"29.85",,"2.0","1","3.3","0","70","62","290","16","0.00",,,"300","8","HZ",,,,,,,,,,,,,,,,,,,,,,,,,,,,,,,,,,,,,,,,,,,,,,,,,,,,,,,"SOD73024 HR PRECIPITATION (IN):0.00  24 HR MAX TEMP (F):70 24 HR MAX TEMP TIME (LST):1554 24 HR MIN TEMP (F):62 24 HR MIN TEMP TIME (LST):2336 AVERAGE STATION PRESSURE:29.845 MINIMUM SEA LEVEL PRESSURE:29.84 TIME OF OCCURRENCE:1612 PEAK WIND SPEED (MPH):16  PEAK WIND DIR (DEG):290 PEAK WIND TIME (LST):1659  FASTEST 2MIN SPEED (MPH):8  FASTEST 2MIN DIR (DEG):300 FASTEST 2MIN TIME (LST):1732 AVERAGE WIND SPEED (MPH):2.0  24 HR AVG TEMP (F):66 HEATING DEGREE DAYS:0   COOLING DEGREE DAYS:1   LATEST DAY MAX TEMP (0700-1900 LST):70  LATEST NIGHT MIN TEMP(1900-0800 LST):62 HOURLY INCREMENTAL PRECIPITATION VALUES (IN):.00 0.00 0.00 0.00 0.00 0.00 0.00 0.00 0.00 0.00 0.00 0.00 0.00 0.00 0.00 0.00 0.00 0.00 0.00 0.00 0.00 0.00 0.00 0.00","SOD  ","6",,,,,,,,,,,,,,,,,,,,,,,,,"0544","1826","2007-05-17"
"72793524234","2022-09-14T00:53:00","FM-15","7",,,,,,,,,,,,,,,,,,,,,,,,,,,,,,,,,,,,,,,"29.88","54","62","0.00","FU:3 |HZ FU |FU","-0.01","1","75","29.87","SCT:04 50 OVC:08 65","29.85","10.00","58","000",,"0",,,,,,,,,,,,,,,,,,,,,,,,,,,,,,,,,,,,,"MET10909/14/22 00:53:02 METAR KBFI 140853Z 00000KT 10SM FU SCT050 OVC065 17/12 A2988 RMK AO2 SLP116 T01670122 51003","FM-15","7",,,,,,,,,,,,,,,,,,,,,,,,,,,"2007-05-17"
"72793524234","2022-09-14T01:53:00","FM-15","7",,,,,,,,,,,,,,,,,,,,,,,,,,,,,,,,,,,,,,,"29.88","54","62","0.00","FU:3 |HZ FU |FU",,,"75","29.88","OVC:08 65","29.85","10.00","58","000",,"0",,,,,,,,,,,,,,,,,,,,,,,,,,,,,,,,,,,,,"MET10109/14/22 01:53:02 METAR KBFI 140953Z 00000KT 10SM FU OVC065 17/12 A2988 RMK AO2 SLP117 T01670122 (MB)","FM-15","7",,,,,,,,,,,,,,,,,,,,,,,,,,,"2007-05-17"
"72793524234","2022-09-14T02:53:00","FM-15","7",,,,,,,,,,,,,,,,,,,,,,,,,,,,,,,,,,,,,,,"29.88","54","62","0.00","FU:3 |HZ FU |FU",,,"75","29.88","OVC:08 70","29.85","10.00","58","000",,"0",,,,,,,,,,,,,,,,,,,,,,,,,,,,,,,,,,,,,"MET10109/14/22 02:53:02 METAR KBFI 141053Z 00000KT 10SM FU OVC070 17/12 A2988 RMK AO2 SLP117 T01670122 (MB)","FM-15","7",,,,,,,,,,,,,,,,,,,,,,,,,,,"2007-05-17"
"72793524234","2022-09-14T03:53:00","FM-15","7",,,,,,,,,,,,,,,,,,,,,,,,,,,,,,,,,,,,,,,"29.88","54","63","0.00","FU:3 |HZ FU |FU","-0.01","3","73","29.88","OVC:08 65","29.85","10.00","58","000",,"0",,,,,,,,,,,,,,,,,,,,,,,,,,,,,,,,,,,,,"MET11909/14/22 03:53:02 METAR KBFI 141153Z 00000KT 10SM FU OVC065 17/12 A2988 RMK AO2 SLP118 T01720122 10172 20161 53002 (MB)","FM-15","7",,,,,,,,,,,,,,,,,,,,,,,,,,,"2007-05-17"
"72793524234","2022-09-14T04:53:00","FM-15","7",,,,,,,,,,,,,,,,,,,,,,,,,,,,,,,,,,,,,,,"29.88","54","63","0.00","FU:3 |HZ FU |FU",,,"73","29.88","BKN:07 60 OVC:08 90","29.85","10.00","58","000",,"0",,,,,,,,,,,,,,,,,,,,,,,,,,,,,,,,,,,,,"MET10809/14/22 04:53:02 METAR KBFI 141253Z 00000KT 10SM FU BKN060 OVC090 17/12 A2988 RMK AO2 SLP119 T01720122 (MB)","FM-15","7",,,,,,,,,,,,,,,,,,,,,,,,,,,"2007-05-17"
"72793524234","2022-09-14T05:53:00","FM-15","7",,,,,,,,,,,,,,,,,,,,,,,,,,,,,,,,,,,,,,,"29.89","54","62","0.00","FU:3 |HZ FU |FU",,,"75","29.89","FEW:02 55 OVC:08 85","29.86","10.00","58","000",,"0",,,,,,,,,,,,,,,,,,,,,,,,,,,,,,,,,,,,,"MET10809/14/22 05:53:02 METAR KBFI 141353Z 00000KT 10SM FU FEW055 OVC085 17/12 A2989 RMK AO2 SLP121 T01670122 (MB)","FM-15","7",,,,,,,,,,,,,,,,,,,,,,,,,,,"2007-05-17"
"72793524234","2022-09-14T06:53:00","FM-15","7",,,,,,,,,,,,,,,,,,,,,,,,,,,,,,,,,,,,,,,"29.91","54","62","0.00","FU:3 |HZ FU |FU","-0.03","3","75","29.91","SCT:04 55 OVC:08 80","29.88","10.00","58","000",,"0",,,,,,,,,,,,,,,,,,,,,,,,,,,,,,,,,,,,,"MET11409/14/22 06:53:02 METAR KBFI 141453Z 00000KT 10SM FU SCT055 OVC080 17/12 A2991 RMK AO2 SLP127 T01670122 53009 (MB)","FM-15","7",,,,,,,,,,,,,,,,,,,,,,,,,,,"2007-05-17"
"72793524234","2022-09-14T07:53:00","FM-15","7",,,,,,,,,,,,,,,,,,,,,,,,,,,,,,,,,,,,,,,"29.90","55","63","0.00","FU:3 |HZ FU |FU",,,"75","29.90","FEW:02 60 OVC:08 80","29.87","10.00","58","000",,"0",,,,,,,,,,,,,,,,,,,,,,,,,,,,,,,,,,,,,"MET10809/14/22 07:53:02 METAR KBFI 141553Z 00000KT 10SM FU FEW060 OVC080 17/13 A2990 RMK AO2 SLP125 T01720128 (MB)","FM-15","7",,,,,,,,,,,,,,,,,,,,,,,,,,,"2007-05-17"
"72793524234","2022-09-14T08:53:00","FM-15","7",,,,,,,,,,,,,,,,,,,,,,,,,,,,,,,,,,,,,,,"29.91","55","65","0.00","FU:3 |HZ FU |FU",,,"70","29.91","SCT:04 47 SCT:04 65 BKN:07 80","29.88","10.00","59","000",,"0",,,,,,,,,,,,,,,,,,,,,,,,,,,,,,,,,,,,,"MET11509/14/22 08:53:02 METAR KBFI 141653Z 00000KT 10SM FU SCT047 SCT065 BKN080 18/13 A2991 RMK AO2 SLP128 T01830128 (MB)","FM-15","7",,,,,,,,,,,,,,,,,,,,,,,,,,,"2007-05-17"
"72793524234","2022-09-14T09:51:00","FM-16","6",,,,,,,,,,,,,,,,,,,,,,,,,,,,,,,,,,,,,,,"29.93","55","66",,"FU:3 |FU |FU",,,"68",,"BKN:07 24 BKN:07 50 OVC:08 70","29.90","10.00","60","000",,"0",,,,,,,,,,,,,,,,,,,,,,,,,,,,,,,,,,,,,"MET10309/14/22 09:51:02 SPECI KBFI 141751Z 00000KT 10SM FU BKN024 BKN050 OVC070 19/13 A2993 RMK AO2 FIBI (MB)","FM-16","6",,,,,,,,,,,,,,,,,,,,,,,,,,,"2007-05-17"
"72793524234","2022-09-14T09:53:00","FM-15","7",,,,,,,,,,,,,,,,,,,,,,,,,,,,,,,,,,,,,,,"29.93","56","66","0.00","FU:3 |HZ FU |FU","-0.02","3","70","29.92","BKN:07 24 BKN:07 50 OVC:08 70","29.90","10.00","60","190",,"3",,,,,,,,,,,,,,,,,,,,,,,,,,,,,,,,,,,,,"MET13309/14/22 09:53:02 METAR KBFI 141753Z 19003KT 10SM FU BKN024 BKN050 OVC070 19/13 A2993 RMK AO2 SLP133 T01890133 10189 20161 53006 (MB)","FM-15","7",,,,,,,,,,,,,,,,,,,,,,,,,,,"2007-05-17"
"72793524234","2022-09-14T10:51:00","FM-16","6",,,,,,,,,,,,,,,,,,,,,,,,,,,,,,,,,,,,,,,"29.92","55","66",,"FU:3 |FU |FU",,,"68",,"SCT:04 27 OVC:08 55","29.89","10.00","60","VRB",,"5",,,,,,,,,,,,,,,,,,,,,,,,,,,,,,,,,,,,,"MET09109/14/22 10:51:02 SPECI KBFI 141851Z VRB04KT 10SM FU SCT027 OVC055 19/13 A2992 RMK AO2 FIBI","FM-16","6",,,,,,,,,,,,,,,,,,,,,,,,,,,"2007-05-17"
"72793524234","2022-09-14T10:53:00","FM-15","7",,,,,,,,,,,,,,,,,,,,,,,,,,,,,,,,,,,,,,,"29.92","55","67","0.00","FU:3 |HZ FU |FU",,,"66","29.92","SCT:04 27 OVC:08 55","29.89","10.00","60","340",,"5",,,,,,,,,,,,,,,,,,,,,,,,,,,,,,,,,,,,,"MET10309/14/22 10:53:02 METAR KBFI 141853Z 34004KT 10SM FU SCT027 OVC055 19/13 A2992 RMK AO2 SLP133 T01940128","FM-15","7",,,,,,,,,,,,,,,,,,,,,,,,,,,"2007-05-17"
"72793524234","2022-09-14T11:51:00","FM-16","6",,,,,,,,,,,,,,,,,,,,,,,,,,,,,,,,,,,,,,,"29.93","55","68",,"FU:3 |FU |FU",,,"64",,"BKN:07 28 OVC:08 50","29.90","10.00","60","320",,"5",,,,,,,,,,,,,,,,,,,,,,,,,,,,,,,,,,,,,"MET09609/14/22 11:51:02 SPECI KBFI 141951Z 32004KT 10SM FU BKN028 OVC050 20/13 A2993 RMK AO2 FIBI (TA)","FM-16","6",,,,,,,,,,,,,,,,,,,,,,,,,,,"2007-05-17"
"72793524234","2022-09-14T11:53:00","FM-15","7",,,,,,,,,,,,,,,,,,,,,,,,,,,,,,,,,,,,,,,"29.93","55","68","0.00","FU:3 |HZ FU |FU",,,"63","29.92","BKN:07 28 OVC:08 50","29.90","10.00","60","VRB",,"3",,,,,,,,,,,,,,,,,,,,,,,,,,,,,,,,,,,,,"MET10809/14/22 11:53:02 METAR KBFI 141953Z VRB03KT 10SM FU BKN028 OVC050 20/13 A2993 RMK AO2 SLP133 T02000128 (TA)","FM-15","7",,,,,,,,,,,,,,,,,,,,,,,,,,,"2007-05-17"
"72793524234","2022-09-14T12:51:00","FM-16","6",,,,,,,,,,,,,,,,,,,,,,,,,,,,,,,,,,,,,,,"29.91","55","70",,"FU:3 |FU |FU",,,"60",,"BKN:07 100","29.88","10.00","61","VRB",,"6",,,,,,,,,,,,,,,,,,,,,,,,,,,,,,,,,,,,,"MET08909/14/22 12:51:02 SPECI KBFI 142051Z VRB05KT 10SM FU BKN100 21/13 A2991 RMK AO2 FIBI (TA)","FM-16","6",,,,,,,,,,,,,,,,,,,,,,,,,,,"2007-05-17"
"72793524234","2022-09-14T12:53:00","FM-15","7",,,,,,,,,,,,,,,,,,,,,,,,,,,,,,,,,,,,,,,"29.91","56","70","0.00","FU:3 |HZ FU |FU","+0.01","8","61","29.91","FEW:02 25 OVC:08 100","29.88","10.00","62","260",,"6",,,,,,,,,,,,,,,,,,,,,,,,,,,,,,,,,,,,,"MET11409/14/22 12:53:02 METAR KBFI 142053Z 26005KT 10SM FU FEW025 OVC100 21/13 A2991 RMK AO2 SLP129 T02110133 58004 (TA)","FM-15","7",,,,,,,,,,,,,,,,,,,,,,,,,,,"2007-05-17"
"72793524234","2022-09-14T13:53:00","FM-15","7",,,,,,,,,,,,,,,,,,,,,,,,,,,,,,,,,,,,,,,"29.91","55","70","0.00","FU:3 |HZ FU |FU",,,"59","29.91","FEW:02 25 BKN:07 100","29.88","10.00","61","VRB",,"6",,,,,,,,,,,,,,,,,,,,,,,,,,,,,,,,,,,,,"MET10809/14/22 13:53:02 METAR KBFI 142153Z VRB05KT 10SM FU FEW025 BKN100 21/13 A2991 RMK AO2 SLP129 T02110128 (TA)","FM-15","7",,,,,,,,,,,,,,,,,,,,,,,,,,,"2007-05-17"
"72793524234","2022-09-14T14:53:00","FM-15","7",,,,,,,,,,,,,,,,,,,,,,,,,,,,,,,,,,,,,,,"29.91","53","70","0.00","FU:3 |HZ FU |FU",,,"55","29.91","SCT:04 60 OVC:08 95","29.88","10.00","60","310",,"6",,,,,,,,,,,,,,,,,,,,,,,,,,,,,,,,,,,,,"MET10809/14/22 14:53:02 METAR KBFI 142253Z 31005KT 10SM FU SCT060 OVC095 21/12 A2991 RMK AO2 SLP129 T02110117 (TA)","FM-15","7",,,,,,,,,,,,,,,,,,,,,,,,,,,"2007-05-17"
"72793524234","2022-09-14T15:53:00","FM-15","7",,,,,,,,,,,,,,,,,,,,,,,,,,,,,,,,,,,,,,,"29.91","53","70","0.00","FU:3 |HZ FU |FU","+0.00","8","55","29.91","OVC:08 60","29.88","10.00","60","VRB",,"3",,,,,,,,,,,,,,,,,,,,,,,,,,,,,,,,,,,,,"MET11909/14/22 15:53:02 METAR KBFI 142353Z VRB03KT 10SM FU OVC060 21/12 A2991 RMK AO2 SLP129 T02110117 10217 20189 58001 (TA)","FM-15","7",,,,,,,,,,,,,,,,,,,,,,,,,,,"2007-05-17"
"72793524234","2022-09-14T16:53:00","FM-15","7",,,,,,,,,,,,,,,,,,,,,,,,,,,,,,,,,,,,,,,"29.91","54","69","0.00","FU:3 |HZ FU |FU",,,"59","29.91","OVC:08 60","29.88","10.00","60","000",,"0",,,,,,,,,,,,,,,,,,,,,,,,,,,,,,,,,,,,,"MET09609/14/22 16:53:01 METAR KBFI 150053Z 00000KT 10SM FU OVC060 21/12 A2991 RMK AO2 SLP127 T02060122","FM-15","7",,,,,,,,,,,,,,,,,,,,,,,,,,,"2007-05-17"
"72793524234","2022-09-14T17:53:00","FM-15","7",,,,,,,,,,,,,,,,,,,,,,,,,,,,,,,,,,,,,,,"29.92","55","67","0.00","FU:3 |HZ FU |FU",,,"66","29.92","BKN:07 65","29.89","10.00","60","320",,"5",,,,,,,,,,,,,,,,,,,,,,,,,,,,,,,,,,,,,"MET09609/14/22 17:53:01 METAR KBFI 150153Z 32004KT 10SM FU BKN065 19/13 A2992 RMK AO2 SLP132 T01940128","FM-15","7",,,,,,,,,,,,,,,,,,,,,,,,,,,"2007-05-17"
"72793524234","2022-09-14T18:53:00","FM-15","7",,,,,,,,,,,,,,,,,,,,,,,,,,,,,,,,,,,,,,,"29.93","55","66","0.00","FU:3 |HZ FU |FU","-0.02","3","68","29.93","OVC:08 65","29.90","10.00","60","330",,"5",,,,,,,,,,,,,,,,,,,,,,,,,,,,,,,,,,,,,"MET10209/14/22 18:53:02 METAR KBFI 150253Z 33004KT 10SM FU OVC065 19/13 A2993 RMK AO2 SLP136 T01890128 53007","FM-15","7",,,,,,,,,,,,,,,,,,,,,,,,,,,"2007-05-17"
"72793524234","2022-09-14T19:53:00","FM-15","7",,,,,,,,,,,,,,,,,,,,,,,,,,,,,,,,,,,,,,,"29.95","53","65","0.00","FU:3 |HZ FU |FU",,,"66","29.95","OVC:08 70","29.92","10.00","58","000",,"0",,,,,,,,,,,,,,,,,,,,,,,,,,,,,,,,,,,,,"MET09609/14/22 19:53:02 METAR KBFI 150353Z 00000KT 10SM FU OVC070 18/12 A2995 RMK AO2 SLP141 T01830117","FM-15","7",,,,,,,,,,,,,,,,,,,,,,,,,,,"2007-05-17"
"72793524234","2022-09-14T20:53:00","FM-15","7",,,,,,,,,,,,,,,,,,,,,,,,,,,,,,,,,,,,,,,"29.96","53","64","0.00","FU:3 |HZ FU |FU",,,"68","29.96","FEW:02 40 SCT:04 70","29.93","10.00","58","000",,"0",,,,,,,,,,,,,,,,,,,,,,,,,,,,,,,,,,,,,"MET10309/14/22 20:53:02 METAR KBFI 150453Z 00000KT 10SM FU FEW040 SCT070 18/12 A2996 RMK AO2 SLP145 T01780117","FM-15","7",,,,,,,,,,,,,,,,,,,,,,,,,,,"2007-05-17"
"72793524234","2022-09-14T21:53:00","FM-15","7",,,,,,,,,,,,,,,,,,,,,,,,,,,,,,,,,,,,,,,"29.97","54","64","0.00","FU:3 |HZ FU |FU","-0.04","1","70","29.97","BKN:07 41","29.94","10.00","58","000",,"0",,,,,,,,,,,,,,,,,,,,,,,,,,,,,,,,,,,,,"MET11409/14/22 21:53:02 METAR KBFI 150553Z 00000KT 10SM FU BKN041 18/12 A2997 RMK AO2 SLP148 T01780122 10211 20172 51013","FM-15","7",,,,,,,,,,,,,,,,,,,,,,,,,,,"2007-05-17"
"72793524234","2022-09-14T22:53:00","FM-15","7",,,,,,,,,,,,,,,,,,,,,,,,,,,,,,,,,,,,,,,"29.98","53","63","0.00","FU:3 |HZ FU |FU",,,"70","29.98","FEW:02 100","29.95","10.00","57","000",,"0",,,,,,,,,,,,,,,,,,,,,,,,,,,,,,,,,,,,,"MET09609/14/22 22:53:02 METAR KBFI 150653Z 00000KT 10SM FU FEW100 17/12 A2998 RMK AO2 SLP151 T01720117","FM-15","7",,,,,,,,,,,,,,,,,,,,,,,,,,,"2007-05-17"
"72793524234","2022-09-14T23:53:00","FM-15","7",,,,,,,,,,,,,,,,,,,,,,,,,,,,,,,,,,,,,,,"29.99","53","61","0.00","FU:3 |HZ FU |FU",,,"75","29.98","BKN:07 55 BKN:07 100","29.96","10.00","57","000",,"0",,,,,,,,,,,,,,,,,,,,,,,,,,,,,,,,,,,,,"MET11309/14/22 23:53:02 METAR KBFI 150753Z 00000KT 10SM FU BKN055 BKN100 16/12 A2999 RMK AO2 SLP154 T01610117 402170161","FM-15","7",,,,,,,,,,,,,,,,,,,,,,,,,,,"2007-05-17"
"72793524234","2022-09-14T23:59:00","SOD  ","6",,,,,,,,,,,,,,,,,,"66",,,"29.88",,"1.7","1","3.6","0","71","61","290","14","0.00",,,"300","7","HZ",,,,,,,,,,,,,,,,,,,,,,,,,,,,,,,,,,,,,,,,,,,,,,,,,,,,,,,"SOD73024 HR PRECIPITATION (IN):0.00  24 HR MAX TEMP (F):71 24 HR MAX TEMP TIME (LST):1402 24 HR MIN TEMP (F):61 24 HR MIN TEMP TIME (LST):2359 AVERAGE STATION PRESSURE:29.885 MINIMUM SEA LEVEL PRESSURE:29.87 TIME OF OCCURRENCE:0255 PEAK WIND SPEED (MPH):14  PEAK WIND DIR (DEG):290 PEAK WIND TIME (LST):1322  FASTEST 2MIN SPEED (MPH):7  FASTEST 2MIN DIR (DEG):300 FASTEST 2MIN TIME (LST):1742 AVERAGE WIND SPEED (MPH):1.7  24 HR AVG TEMP (F):66 HEATING DEGREE DAYS:0   COOLING DEGREE DAYS:1   LATEST DAY MAX TEMP (0700-1900 LST):71  LATEST NIGHT MIN TEMP(1900-0800 LST):61 HOURLY INCREMENTAL PRECIPITATION VALUES (IN):.00 0.00 0.00 0.00 0.00 0.00 0.00 0.00 0.00 0.00 0.00 0.00 0.00 0.00 0.00 0.00 0.00 0.00 0.00 0.00 0.00 0.00 0.00 0.00","SOD  ","6",,,,,,,,,,,,,,,,,,,,,,,,,"0545","1824","2007-05-17"
"72793524234","2022-09-15T00:53:00","FM-15","7",,,,,,,,,,,,,,,,,,,,,,,,,,,,,,,,,,,,,,,"29.99","54","61","0.00","FU:3 |HZ FU |FU","-0.02","1","78","29.99","OVC:08 100","29.96","10.00","57","000",,"0",,,,,,,,,,,,,,,,,,,,,,,,,,,,,,,,,,,,,"MET10809/15/22 00:53:02 METAR KBFI 150853Z 00000KT 10SM FU OVC100 16/12 A2999 RMK AO2 SLP155 T01610122 51007 (TWR)","FM-15","7",,,,,,,,,,,,,,,,,,,,,,,,,,,"2007-05-17"
"72793524234","2022-09-15T01:53:00","FM-15","7",,,,,,,,,,,,,,,,,,,,,,,,,,,,,,,,,,,,,,,"30.00","54","60","0.00","FU:3 |HZ FU |FU",,,"80","29.99","OVC:08 100","29.97","10.00","57","000",,"0",,,,,,,,,,,,,,,,,,,,,,,,,,,,,,,,,,,,,"MET10209/15/22 01:53:02 METAR KBFI 150953Z 00000KT 10SM FU OVC100 16/12 A3000 RMK AO2 SLP157 T01560122 (TWR)","FM-15","7",,,,,,,,,,,,,,,,,,,,,,,,,,,"2007-05-17"
"72793524234","2022-09-15T02:53:00","FM-15","7",,,,,,,,,,,,,,,,,,,,,,,,,,,,,,,,,,,,,,,"30.01","53","60","0.00","FU:3 |HZ FU |FU",,,"78","30.01","OVC:08 100","29.98","10.00","56","000",,"0",,,,,,,,,,,,,,,,,,,,,,,,,,,,,,,,,,,,,"MET10209/15/22 02:53:02 METAR KBFI 151053Z 00000KT 10SM FU OVC100 16/12 A3001 RMK AO2 SLP161 T01560117 (TWR)","FM-15","7",,,,,,,,,,,,,,,,,,,,,,,,,,,"2007-05-17"
"72793524234","2022-09-15T03:53:00","FM-15","7",,,,,,,,,,,,,,,,,,,,,,,,,,,,,,,,,,,,,,,"30.01","54","59","0.00","FU:3 |HZ FU |FU","-0.02","3","83","30.01","OVC:08 55","29.98","10.00","56","VRB",,"3",,,,,,,,,,,,,,,,,,,,,,,,,,,,,,,,,,,,,"MET12009/15/22 03:53:02 METAR KBFI 151153Z VRB03KT 10SM FU OVC055 15/12 A3001 RMK AO2 SLP163 T01500122 10178 20150 53008 (TWR)","FM-15","7",,,,,,,,,,,,,,,,,,,,,,,,,,,"2007-05-17"
"72793524234","2022-09-15T04:53:00","FM-15","7",,,,,,,,,,,,,,,,,,,,,,,,,,,,,,,,,,,,,,,"30.02","54","59","0.00","FU:3 |HZ FU |FU",,,"83","30.02","OVC:08 65","29.99","10.00","56","000",,"0",,,,,,,,,,,,,,,,,,,,,,,,,,,,,,,,,,,,,"MET10209/15/22 04:53:02 METAR KBFI 151253Z 00000KT 10SM FU OVC065 15/12 A3002 RMK AO2 SLP166 T01500122 (TWR)","FM-15","7",,,,,,,,,,,,,,,,,,,,,,,,,,,"2007-05-17"
"72793524234","2022-09-15T05:51:00","FM-16","6",,,,,,,,,,,,,,,,,,,,,,,,,,,,,,,,,,,,,,,"30.04","54","59",,"FU:3 |FU |FU",,,"82",,"OVC:08 21","30.01","10.00","56","180",,"5",,,,,,,,,,,,,,,,,,,,,,,,,,,,,,,,,,,,,"MET09009/15/22 05:51:02 SPECI KBFI 151351Z 18004KT 10SM FU OVC021 15/12 A3004 RMK AO2 FIBI (TWR)","FM-16","6",,,,,,,,,,,,,,,,,,,,,,,,,,,"2007-05-17"
"72793524234","2022-09-15T05:53:00","FM-15","7",,,,,,,,,,,,,,,,,,,,,,,,,,,,,,,,,,,,,,,"30.04","54","58","0.00","FU:3 |HZ FU |FU",,,"87","30.04","OVC:08 21","30.01","10.00","56","170",,"5",,,,,,,,,,,,,,,,,,,,,,,,,,,,,,,,,,,,,"MET10209/15/22 05:53:02 METAR KBFI 151353Z 17004KT 10SM FU OVC021 14/12 A3004 RMK AO2 SLP172 T01440122 (TWR)","FM-15","7",,,,,,,,,,,,,,,,,,,,,,,,,,,"2007-05-17"
"72793524234","2022-09-15T06:53:00","FM-15","7",,,,,,,,,,,,,,,,,,,,,,,,,,,,,,,,,,,,,,,"30.05","54","58","0.00","FU:3 |HZ FU |FU","-0.04","3","87","30.05","BKN:07 21 OVC:08 32","30.02","10.00","56","190",,"5",,,,,,,,,,,,,,,,,,,,,,,,,,,,,,,,,,,,,"MET11509/15/22 06:53:02 METAR KBFI 151453Z 19004KT 10SM FU BKN021 OVC032 14/12 A3005 RMK AO2 SLP177 T01440122 53014 (TWR)","FM-15","7",,,,,,,,,,,,,,,,,,,,,,,,,,,"2007-05-17"
"72793524234","2022-09-15T07:51:00","FM-16","6",,,,,,,,,,,,,,,,,,,,,,,,,,,,,,,,,,,,,,,"30.06","54","57",,"FU:3 |FU |FU",,,"88",,"BKN:07 13 OVC:08 22","30.03","10.00","55","240",,"5",,,,,,,,,,,,,,,,,,,,,,,,,,,,,,,,,,,,,"MET09609/15/22 07:51:02 SPECI KBFI 151551Z 24004KT 10SM FU BKN013 OVC022 14/12 A3006 RMK AO2 FIBI (PC)","FM-16","6",,,,,,,,,,,,,,,,,,,,,,,,,,,"2007-05-17"
"72793524234","2022-09-15T07:53:00","FM-15","7",,,,,,,,,,,,,,,,,,,,,,,,,,,,,,,,,,,,,,,"30.06","54","58","0.00","FU:3 |HZ FU |FU",,,"87","30.06","BKN:07 13 OVC:08 22","30.03","10.00","56","230",,"3",,,,,,,,,,,,,,,,,,,,,,,,,,,,,,,,,,,,,"MET10809/15/22 07:53:02 METAR KBFI 151553Z 23003KT 10SM FU BKN013 OVC022 14/12 A3006 RMK AO2 SLP180 T01440122 (PC)","FM-15","7",,,,,,,,,,,,,,,,,,,,,,,,,,,"2007-05-17"
"72793524234","2022-09-15T08:53:00","FM-15","7",,,,,,,,,,,,,,,,,,,,,,,,,,,,,,,,,,,,,,,"30.07","54","59","0.00","FU:3 |HZ FU |FU",,,"83","30.07","BKN:07 13 OVC:08 17","30.04","10.00","56","220",,"3",,,,,,,,,,,,,,,,,,,,,,,,,,,,,,,,,,,,,"MET10809/15/22 08:53:02 METAR KBFI 151653Z 22003KT 10SM FU BKN013 OVC017 15/12 A3007 RMK AO2 SLP183 T01500122 (PC)","FM-15","7",,,,,,,,,,,,,,,,,,,,,,,,,,,"2007-05-17"
"72793524234","2022-09-15T09:53:00","FM-15","7",,,,,,,,,,,,,,,,,,,,,,,,,,,,,,,,,,,,,,,"30.08","54","60","0.00","FU:3 |HZ FU |FU","-0.02","1","80","30.08","BKN:07 13 OVC:08 17","30.05","10.00","57","VRB",,"3",,,,,,,,,,,,,,,,,,,,,,,,,,,,,,,,,,,,,"MET12609/15/22 09:53:02 METAR KBFI 151753Z VRB03KT 10SM FU BKN013 OVC017 16/12 A3008 RMK AO2 SLP185 T01560122 10156 20144 51008 (PC)","FM-15","7",,,,,,,,,,,,,,,,,,,,,,,,,,,"2007-05-17"
"72793524234","2022-09-15T10:53:00","FM-15","7",,,,,,,,,,,,,,,,,,,,,,,,,,,,,,,,,,,,,,,"30.08","54","62","0.00","FU:3 |HZ FU |FU",,,"75","30.08","BKN:07 13 OVC:08 32","30.05","10.00","58","VRB",,"3",,,,,,,,,,,,,,,,,,,,,,,,,,,,,,,,,,,,,"MET10809/15/22 10:53:02 METAR KBFI 151853Z VRB03KT 10SM FU BKN013 OVC032 17/12 A3008 RMK AO2 SLP185 T01670122 (PC)","FM-15","7",,,,,,,,,,,,,,,,,,,,,,,,,,,"2007-05-17"
"72793524234","2022-09-15T11:00:00","FM-16","7",,,,,,,,,,,,,,,,,,,,,,,,,,,,,,,,,,,,,,,"30.08","54","63",,"FU:3 |HZ FU |FU",,,"73",,"OVC:08 24","30.05","10.00","58","000",,"0",,,,,,,,,,,,,,,,,,,,,,,,,,,,,,,,,,,,,"MET09409/15/22 11:00:02 SPECI KBFI 151900Z 00000KT 10SM FU OVC024 17/12 A3008 RMK AO2 T01720122 (PC)","FM-16","7",,,,,,,,,,,,,,,,,,,,,,,,,,,"2007-05-17"
"72793524234","2022-09-15T11:53:00","FM-15","7",,,,,,,,,,,,,,,,,,,,,,,,,,,,,,,,,,,,,,,"30.07","54","65","0.00","FU:3 |HZ FU |FU",,,"68","30.07","OVC:08 28","30.04","10.00","59","000",,"0",,,,,,,,,,,,,,,,,,,,,,,,,,,,,,,,,,,,,"MET10109/15/22 11:53:02 METAR KBFI 151953Z 00000KT 10SM FU OVC028 18/12 A3007 RMK AO2 SLP182 T01830122 (PC)","FM-15","7",,,,,,,,,,,,,,,,,,,,,,,,,,,"2007-05-17"
"72793524234","2022-09-15T12:53:00","FM-15","7",,,,,,,,,,,,,,,,,,,,,,,,,,,,,,,,,,,,,,,"30.07","54","65","0.00","FU:3 |HZ FU |FU","+0.01","8","68","30.07","OVC:08 26","30.04","10.00","59","VRB",,"3",,,,,,,,,,,,,,,,,,,,,,,,,,,,,,,,,,,,,"MET10709/15/22 12:53:02 METAR KBFI 152053Z VRB03KT 10SM FU OVC026 18/12 A3007 RMK AO2 SLP182 T01830122 58003 (PC)","FM-15","7",,,,,,,,,,,,,,,,,,,,,,,,,,,"2007-05-17"
"72793524234","2022-09-15T13:53:00","FM-15","7",,,,,,,,,,,,,,,,,,,,,,,,,,,,,,,,,,,,,,,"30.06","54","65","0.00","FU:3 |HZ FU |FU",,,"68","30.06","BKN:07 29","30.03","10.00","59","300",,"3",,,,,,,,,,,,,,,,,,,,,,,,,,,,,,,,,,,,,"MET10209/15/22 13:53:02 METAR KBFI 152153Z 30003KT 10SM FU BKN029 18/12 A3006 RMK AO2 SLP178 T01830122 (TWR)","FM-15","7",,,,,,,,,,,,,,,,,,,,,,,,,,,"2007-05-17"
"72793524234","2022-09-15T14:53:00","FM-15","7",,,,,,,,,,,,,,,,,,,,,,,,,,,,,,,,,,,,,,,"30.05","55","67","0.00","FU:3 |HZ FU |FU",,,"66","30.05","BKN:07 29","30.02","10.00","60","VRB",,"3",,,,,,,,,,,,,,,,,,,,,,,,,,,,,,,,,,,,,"MET10209/15/22 14:53:02 METAR KBFI 152253Z VRB03KT 10SM FU BKN029 19/13 A3005 RMK AO2 SLP176 T01940128 (TWR)","FM-15","7",,,,,,,,,,,,,,,,,,,,,,,,,,,"2007-05-17"
"72793524234","2022-09-15T15:00:00","FM-16","7",,,,,,,,,,,,,,,,,,,,,,,,,,,,,,,,,,,,,,,"30.05","55","67",,"FU:3 |HZ FU |FU",,,"66",,"CLR:00","30.02","10.00","60","VRB",,"6",,,,,,,,,,,,,,,,,,,,,,,,,,,,,,,,,,,,,"MET09209/15/22 15:00:02 SPECI KBFI 152300Z VRB05KT 10SM FU CLR 19/13 A3005 RMK AO2 T01940128 (TWR)","FM-16","7",,,,,,,,,,,,,,,,,,,,,,,,,,,"2007-05-17"
"72793524234","2022-09-15T15:53:00","FM-15","7",,,,,,,,,,,,,,,,,,,,,,,,,,,,,,,,,,,,,,,"30.04","54","68","0.00","FU:3 |HZ FU |FU","+0.03","8","61","30.03","CLR:00","30.01","10.00","60","350",,"3",,,,,,,,,,,,,,,,,,,,,,,,,,,,,,,,,,,,,"MET11709/15/22 15:53:02 METAR KBFI 152353Z 35003KT 10SM FU CLR 20/12 A3004 RMK AO2 SLP171 T02000122 10200 20156 58010 (TWR)","FM-15","7",,,,,,,,,,,,,,,,,,,,,,,,,,,"2007-05-17"
"72793524234","2022-09-15T16:53:00","FM-15","7",,,,,,,,,,,,,,,,,,,,,,,,,,,,,,,,,,,,,,,"30.04","54","67","0.00","FU:3 |HZ FU |FU",,,"63","30.04","CLR:00","30.01","10.00","60","310",,"6",,,,,,,,,,,,,,,,,,,,,,,,,,,,,,,,,,,,,"MET09309/15/22 16:53:01 METAR KBFI 160053Z 31005KT 10SM FU CLR 19/12 A3004 RMK AO2 SLP172 T01940122","FM-15","7",,,,,,,,,,,,,,,,,,,,,,,,,,,"2007-05-17"
"72793524234","2022-09-15T17:53:00","FM-15","7",,,,,,,,,,,,,,,,,,,,,,,,,,,,,,,,,,,,,,,"30.04","54","64","0.00","FU:3 |HZ FU |FU",,,"70","30.04","CLR:00","30.01","10.00","58","VRB",,"5",,,,,,,,,,,,,,,,,,,,,,,,,,,,,,,,,,,,,"MET09309/15/22 17:53:01 METAR KBFI 160153Z VRB04KT 10SM FU CLR 18/12 A3004 RMK AO2 SLP172 T01780122","FM-15","7",,,,,,,,,,,,,,,,,,,,,,,,,,,"2007-05-17"
"72793524234","2022-09-15T18:53:00","FM-15","7",,,,,,,,,,,,,,,,,,,,,,,,,,,,,,,,,,,,,,,"30.05","53","62","0.00","FU:3 |HZ FU |FU","-0.01","3","73","30.05","CLR:00","30.02","10.00","57","310",,"7",,,,,,,,,,,,,,,,,,,,,,,,,,,,,,,,,,,,,"MET09909/15/22 18:53:01 METAR KBFI 160253Z 31006KT 10SM FU CLR 17/12 A3005 RMK AO2 SLP175 T01670117 53004","FM-15","7",,,,,,,,,,,,,,,,,,,,,,,,,,,"2007-05-17"
"72793524234","2022-09-15T19:53:00","FM-15","7",,,,,,,,,,,,,,,,,,,,,,,,,,,,,,,,,,,,,,,"30.07","53","61","0.00","FU:3 |HZ FU |FU",,,"75","30.06","FEW:02 70","30.04","10.00","57","310",,"3",,,,,,,,,,,,,,,,,,,,,,,,,,,,,,,,,,,,,"MET09609/15/22 19:53:02 METAR KBFI 160353Z 31003KT 10SM FU FEW070 16/12 A3007 RMK AO2 SLP180 T01610117","FM-15","7",,,,,,,,,,,,,,,,,,,,,,,,,,,"2007-05-17"
"72793524234","2022-09-15T20:53:00","FM-15","7",,,,,,,,,,,,,,,,,,,,,,,,,,,,,,,,,,,,,,,"30.07","52","61","0.00","FU:3 |HZ FU |FU",,,"72","30.06","FEW:02 40 OVC:08 80","30.04","10.00","56","340",,"5",,,,,,,,,,,,,,,,,,,,,,,,,,,,,,,,,,,,,"MET10309/15/22 20:53:02 METAR KBFI 160453Z 34004KT 10SM FU FEW040 OVC080 16/11 A3007 RMK AO2 SLP180 T01610111","FM-15","7",,,,,,,,,,,,,,,,,,,,,,,,,,,"2007-05-17"
"72793524234","2022-09-15T21:53:00","FM-15","7",,,,,,,,,,,,,,,,,,,,,,,,,,,,,,,,,,,,,,,"30.07","51","61","0.00","FU:3 |HZ FU |FU","-0.02","1","70","30.06","OVC:08 80","30.04","10.00","56","000",,"0",,,,,,,,,,,,,,,,,,,,,,,,,,,,,,,,,,,,,"MET11409/15/22 21:53:02 METAR KBFI 160553Z 00000KT 10SM FU OVC080 16/11 A3007 RMK AO2 SLP181 T01610106 10200 20156 51007","FM-15","7",,,,,,,,,,,,,,,,,,,,,,,,,,,"2007-05-17"
"72793524234","2022-09-15T22:53:00","FM-15","7",,,,,,,,,,,,,,,,,,,,,,,,,,,,,,,,,,,,,,,"30.07","48","60","0.00","FU:3 |HZ FU |FU",,,"65","30.07","BKN:07 33 OVC:08 80","30.04","10.00","54","070",,"3",,,,,,,,,,,,,,,,,,,,,,,,,,,,,,,,,,,,,"MET10309/15/22 22:53:02 METAR KBFI 160653Z 07003KT 10SM FU BKN033 OVC080 16/09 A3007 RMK AO2 SLP183 T01560089","FM-15","7",,,,,,,,,,,,,,,,,,,,,,,,,,,"2007-05-17"
"72793524234","2022-09-15T23:53:00","FM-15","7",,,,,,,,,,,,,,,,,,,,,,,,,,,,,,,,,,,,,,,"30.08","47","59","0.00","FU:3 |HZ FU |FU",,,"64","30.08","BKN:07 32 OVC:08 60","30.05","10.00","53","000",,"0",,,,,,,,,,,,,,,,,,,,,,,,,,,,,,,,,,,,,"MET11309/15/22 23:53:02 METAR KBFI 160753Z 00000KT 10SM FU BKN032 OVC060 15/08 A3008 RMK AO2 SLP185 T01500083 402000144","FM-15","7",,,,,,,,,,,,,,,,,,,,,,,,,,,"2007-05-17"
"72793524234","2022-09-15T23:59:00","SOD  ","6",,,,,,,,,,,,,,,,,,"63",,,"30.01",,"2.9","0","0.9","2","68","58","300","14","0.00",,,"310","8","HZ",,,,,,,,,,,,,,,,,,,,,,,,,,,,,,,,,,,,,,,,,,,,,,,,,,,,,,,"SOD73024 HR PRECIPITATION (IN):0.00  24 HR MAX TEMP (F):68 24 HR MAX TEMP TIME (LST):1637 24 HR MIN TEMP (F):58 24 HR MIN TEMP TIME (LST):0801 AVERAGE STATION PRESSURE:30.010 MINIMUM SEA LEVEL PRESSURE:29.98 TIME OF OCCURRENCE:0036 PEAK WIND SPEED (MPH):14  PEAK WIND DIR (DEG):300 PEAK WIND TIME (LST):1738  FASTEST 2MIN SPEED (MPH):8  FASTEST 2MIN DIR (DEG):310 FASTEST 2MIN TIME (LST):1834 AVERAGE WIND SPEED (MPH):2.9  24 HR AVG TEMP (F):63 HEATING DEGREE DAYS:2   COOLING DEGREE DAYS:0   LATEST DAY MAX TEMP (0700-1900 LST):68  LATEST NIGHT MIN TEMP(1900-0800 LST):58 HOURLY INCREMENTAL PRECIPITATION VALUES (IN):.00 0.00 0.00 0.00 0.00 0.00 0.00 0.00 0.00 0.00 0.00 0.00 0.00 0.00 0.00 0.00 0.00 0.00 0.00 0.00 0.00 0.00 0.00 0.00","SOD  ","6",,,,,,,,,,,,,,,,,,,,,,,,,"0546","1822","2007-05-17"
"72793524234","2022-09-16T00:53:00","FM-15","7",,,,,,,,,,,,,,,,,,,,,,,,,,,,,,,,,,,,,,,"30.08","47","59","0.00","FU:3 |HZ FU |FU","-0.01","3","64","30.08","OVC:08 34","30.05","10.00","53","000",,"0",,,,,,,,,,,,,,,,,,,,,,,,,,,,,,,,,,,,,"MET10709/16/22 00:53:02 METAR KBFI 160853Z 00000KT 10SM FU OVC034 15/08 A3008 RMK AO2 SLP187 T01500083 53005 (MB)","FM-15","7",,,,,,,,,,,,,,,,,,,,,,,,,,,"2007-05-17"
"72793524234","2022-09-16T01:53:00","FM-15","7",,,,,,,,,,,,,,,,,,,,,,,,,,,,,,,,,,,,,,,"30.09","47","57","0.00","FU:3 |HZ FU |FU",,,"69","30.08","SCT:04 35 BKN:07 60 BKN:07 75","30.06","10.00","52","000",,"0",,,,,,,,,,,,,,,,,,,,,,,,,,,,,,,,,,,,,"MET11509/16/22 01:53:02 METAR KBFI 160953Z 00000KT 10SM FU SCT035 BKN060 BKN075 14/08 A3009 RMK AO2 SLP187 T01390083 (MB)","FM-15","7",,,,,,,,,,,,,,,,,,,,,,,,,,,"2007-05-17"
"72793524234","2022-09-16T02:53:00","FM-15","7",,,,,,,,,,,,,,,,,,,,,,,,,,,,,,,,,,,,,,,"30.08","49","57","0.00","FU:3 |HZ FU |FU",,,"74","30.08","FEW:02 35 OVC:08 75","30.05","10.00","53","000",,"0",,,,,,,,,,,,,,,,,,,,,,,,,,,,,,,,,,,,,"MET10809/16/22 02:53:02 METAR KBFI 161053Z 00000KT 10SM FU FEW035 OVC075 14/09 A3008 RMK AO2 SLP186 T01390094 (MB)","FM-15","7",,,,,,,,,,,,,,,,,,,,,,,,,,,"2007-05-17"
"72793524234","2022-09-16T03:53:00","FM-15","7",,,,,,,,,,,,,,,,,,,,,,,,,,,,,,,,,,,,,,,"30.08","50","57","0.00","FU:3 |HZ FU |FU","+0.01","8","78","30.08","SCT:04 36 BKN:07 50 OVC:08 70","30.05","10.00","53","000",,"0",,,,,,,,,,,,,,,,,,,,,,,,,,,,,,,,,,,,,"MET13309/16/22 03:53:02 METAR KBFI 161153Z 00000KT 10SM FU SCT036 BKN050 OVC070 14/10 A3008 RMK AO2 SLP185 T01390100 10161 20133 58002 (MB)","FM-15","7",,,,,,,,,,,,,,,,,,,,,,,,,,,"2007-05-17"
"72793524234","2022-09-16T04:53:00","FM-15","7",,,,,,,,,,,,,,,,,,,,,,,,,,,,,,,,,,,,,,,"30.08","50","56","0.00","FU:3 |HZ FU |FU",,,"81","30.08","OVC:08 37","30.05","10.00","53","000",,"0",,,,,,,,,,,,,,,,,,,,,,,,,,,,,,,,,,,,,"MET10109/16/22 04:53:02 METAR KBFI 161253Z 00000KT 10SM FU OVC037 13/10 A3008 RMK AO2 SLP187 T01330100 (MB)","FM-15","7",,,,,,,,,,,,,,,,,,,,,,,,,,,"2007-05-17"
"72793524234","2022-09-16T05:19:00","FM-16","7",,,,,,,,,,,,,,,,,,,,,,,,,,,,,,,,,,,,,,,"30.09","51","56",,"FU:3 |HZ FU |FU",,,"84",,"FEW:02 15 BKN:07 22 OVC:08 39","30.06","10.00","53","000",,"0",,,,,,,,,,,,,,,,,,,,,,,,,,,,,,,,,,,,,"MET10809/16/22 05:19:02 SPECI KBFI 161319Z 00000KT 10SM FU FEW015 BKN022 OVC039 13/11 A3009 RMK AO2 T01330106 (MB)","FM-16","7",,,,,,,,,,,,,,,,,,,,,,,,,,,"2007-05-17"
"72793524234","2022-09-16T05:29:00","FM-16","7",,,,,,,,,,,,,,,,,,,,,,,,,,,,,,,,,,,,,,,"30.09","51","56",,"FU:3 |HZ FU |FU",,,"84",,"SCT:04 17 BKN:07 43 OVC:08 50","30.06","10.00","53","000",,"0",,,,,,,,,,,,,,,,,,,,,,,,,,,,,,,,,,,,,"MET10809/16/22 05:29:02 SPECI KBFI 161329Z 00000KT 10SM FU SCT017 BKN043 OVC050 13/11 A3009 RMK AO2 T01330106 (MB)","FM-16","7",,,,,,,,,,,,,,,,,,,,,,,,,,,"2007-05-17"
"72793524234","2022-09-16T05:53:00","FM-15","7",,,,,,,,,,,,,,,,,,,,,,,,,,,,,,,,,,,,,,,"30.09","49","56","0.00","FU:3 |HZ FU |FU",,,"77","30.09","SCT:04 43 OVC:08 50","30.06","10.00","52","150",,"8",,,,,,,,,,,,,,,,,,,,,,,,,,,,,,,,,,,,,"MET10809/16/22 05:53:02 METAR KBFI 161353Z 15007KT 10SM FU SCT043 OVC050 13/09 A3009 RMK AO2 SLP189 T01330094 (MB)","FM-15","7",,,,,,,,,,,,,,,,,,,,,,,,,,,"2007-05-17"
"72793524234","2022-09-16T06:53:00","FM-15","7",,,,,,,,,,,,,,,,,,,,,,,,,,,,,,,,,,,,,,,"30.09","49","56","0.00","FU:3 |HZ FU |FU","-0.01","1","77","30.09","OVC:08 65","30.06","10.00","52","160",,"8",,,,,,,,,,,,,,,,,,,,,,,,,,,,,,,,,,,,,"MET10209/16/22 06:53:02 METAR KBFI 161453Z 16007KT 10SM FU OVC065 13/09 A3009 RMK AO2 SLP189 T01330094 51004","FM-15","7",,,,,,,,,,,,,,,,,,,,,,,,,,,"2007-05-17"
"72793524234","2022-09-16T07:34:00","FM-16","7",,,,,,,,,,,,,,,,,,,,,,,,,,,,,,,,,,,,,,,"30.10","50","57",,"FU:3 |HZ FU |FU",,,"78",,"BKN:07 21 OVC:08 65","30.07","10.00","53","170",,"8",,,,,,,,,,,,,,,,,,,,,,,,,,,,,,,,,,,,,"MET10109/16/22 07:34:02 SPECI KBFI 161534Z 17007KT 10SM FU BKN021 OVC065 14/10 A3010 RMK AO2 T01390100 (TA)","FM-16","7",,,,,,,,,,,,,,,,,,,,,,,,,,,"2007-05-17"
"72793524234","2022-09-16T07:53:00","FM-15","7",,,,,,,,,,,,,,,,,,,,,,,,,,,,,,,,,,,,,,,"30.10","50","57","0.00","FU:3 |HZ FU |FU",,,"78","30.10","OVC:08 20","30.07","10.00","53","190",,"7",,,,,,,,,,,,,,,,,,,,,,,,,,,,,,,,,,,,,"MET10109/16/22 07:53:02 METAR KBFI 161553Z 19006KT 10SM FU OVC020 14/10 A3010 RMK AO2 SLP193 T01390100 (TA)","FM-15","7",,,,,,,,,,,,,,,,,,,,,,,,,,,"2007-05-17"
"72793524234","2022-09-16T08:53:00","FM-15","7",,,,,,,,,,,,,,,,,,,,,,,,,,,,,,,,,,,,,,,"30.11","50","56","0.00","FU:3 |HZ FU |FU",,,"81","30.10","OVC:08 18","30.08","10.00","53","190",,"9",,,,,,,,,,,,,,,,,,,,,,,,,,,,,,,,,,,,,"MET10109/16/22 08:53:02 METAR KBFI 161653Z 19008KT 10SM FU OVC018 13/10 A3011 RMK AO2 SLP194 T01330100 (TA)","FM-15","7",,,,,,,,,,,,,,,,,,,,,,,,,,,"2007-05-17"
"72793524234","2022-09-16T09:53:00","FM-15","7",,,,,,,,,,,,,,,,,,,,,,,,,,,,,,,,,,,,,,,"30.10","50","58","0.00","FU:3 |HZ FU |FU","-0.01","0","75","30.10","OVC:08 18","30.07","10.00","54","200",,"9",,,,,,,,,,,,,,,,,,,,,,,,,,,,,,,,,,,,,"MET11909/16/22 09:53:02 METAR KBFI 161753Z 20008KT 10SM FU OVC018 14/10 A3010 RMK AO2 SLP192 T01440100 10150 20133 50003 (TA)","FM-15","7",,,,,,,,,,,,,,,,,,,,,,,,,,,"2007-05-17"
"72793524234","2022-09-16T10:53:00","FM-15","7",,,,,,,,,,,,,,,,,,,,,,,,,,,,,,,,,,,,,,,"30.10","50","61","0.00","FU:3 |HZ FU |FU",,,"67","30.10","OVC:08 17","30.07","10.00","55","180","21","10",,,,,,,,,,,,,,,,,,,,,,,,,,,,,,,,,,,,,"MET10409/16/22 10:53:02 METAR KBFI 161853Z 18009G18KT 10SM FU OVC017 16/10 A3010 RMK AO2 SLP194 T01610100 (TA)","FM-15","7",,,,,,,,,,,,,,,,,,,,,,,,,,,"2007-05-17"
"72793524234","2022-09-16T11:53:00","FM-15","7",,,,,,,,,,,,,,,,,,,,,,,,,,,,,,,,,,,,,,,"30.09","51","65","0.00","FU:3 |HZ FU |FU",,,"61","30.09","BKN:07 29 OVC:08 70","30.06","10.00","57","160",,"8",,,,,,,,,,,,,,,,,,,,,,,,,,,,,,,,,,,,,"MET10809/16/22 11:53:02 METAR KBFI 161953Z 16007KT 10SM FU BKN029 OVC070 18/11 A3009 RMK AO2 SLP188 T01830106 (TA)","FM-15","7",,,,,,,,,,,,,,,,,,,,,,,,,,,"2007-05-17"
"72793524234","2022-09-16T12:53:00","FM-15","7",,,,,,,,,,,,,,,,,,,,,,,,,,,,,,,,,,,,,,,"30.08","50","65","0.00","FU:3 |HZ FU |FU","+0.02","8","59","30.08","BKN:07 29 BKN:07 70","30.05","10.00","57","VRB",,"3",,,,,,,,,,,,,,,,,,,,,,,,,,,,,,,,,,,,,"MET11409/16/22 12:53:02 METAR KBFI 162053Z VRB03KT 10SM FU BKN029 BKN070 18/10 A3008 RMK AO2 SLP185 T01830100 58007 (TA)","FM-15","7",,,,,,,,,,,,,,,,,,,,,,,,,,,"2007-05-17"
"72793524234","2022-09-16T13:53:00","FM-15","7",,,,,,,,,,,,,,,,,,,,,,,,,,,,,,,,,,,,,,,"30.06","50","65","0.00","FU:3 |HZ FU |FU",,,"59","30.06","BKN:07 29 BKN:07 70","30.03","10.00","57","290",,"5",,,,,,,,,,,,,,,,,,,,,,,,,,,,,,,,,,,,,"MET10809/16/22 13:53:02 METAR KBFI 162153Z 29004KT 10SM FU BKN029 BKN070 18/10 A3006 RMK AO2 SLP178 T01830100 (TA)","FM-15","7",,,,,,,,,,,,,,,,,,,,,,,,,,,"2007-05-17"
"72793524234","2022-09-16T14:00:00","FM-16","7",,,,,,,,,,,,,,,,,,,,,,,,,,,,,,,,,,,,,,,"30.06","50","65",,"FU:3 |HZ FU |FU",,,"59",,"OVC:08 45","30.03","10.00","57","300",,"5",,,,,,,,,,,,,,,,,,,,,,,,,,,,,,,,,,,,,"MET09409/16/22 14:00:02 SPECI KBFI 162200Z 30004KT 10SM FU OVC045 18/10 A3006 RMK AO2 T01830100 (TA)","FM-16","7",,,,,,,,,,,,,,,,,,,,,,,,,,,"2007-05-17"
"72793524234","2022-09-16T14:53:00","FM-15","7",,,,,,,,,,,,,,,,,,,,,,,,,,,,,,,,,,,,,,,"30.06","53","61","0.01","-RA:02 FU:3 |HZ FU RA |FU RA",,,"75","30.06","SCT:04 36 BKN:07 43 OVC:08 85","30.03","7.00","57","270",,"6",,,,,,,,,,,,,,,,,,,,,,,,,,,,,,,,,,,,,"MET13109/16/22 14:53:02 METAR KBFI 162253Z 27005KT 7SM -RA FU SCT036 BKN043 OVC085 16/12 A3006 RMK AO2 RAB16 SLP179 P0001 T01610117 (TWR)","FM-15","7",,,,,,,,,,,,,,,,,,,,,,,,,,,"2007-05-17"
"72793524234","2022-09-16T15:53:00","FM-15","7",,,,,,,,,,,,,,,,,,,,,,,,,,,,,,,,,,,,,,,"30.04","53","63","0.01",,"+0.04","8","70","30.04","SCT:04 48 BKN:07 65","30.01","10.00","57","VRB",,"5",,,,,,,,,,,,,,,,,,,,,,,,,,,,,,,,,,,,,"MET14209/16/22 15:53:02 METAR KBFI 162353Z VRB04KT 10SM SCT048 BKN065 17/12 A3004 RMK AO2 RAE38 SLP172 P0001 60002 T01720117 10189 20144 58013 (TWR)","FM-15","7",,,,,,,,,,,,,,,,,,,,,,,,,,,"2007-05-17"
"72793524234","2022-09-16T16:53:00","FM-15","7",,,,,,,,,,,,,,,,,,,,,,,,,,,,,,,,,,,,,,,"30.03","52","64","0.00",,,,"65","30.02","SCT:04 60","30.00","10.00","57","VRB",,"3",,,,,,,,,,,,,,,,,,,,,,,,,,,,,,,,,,,,,"MET09309/16/22 16:53:01 METAR KBFI 170053Z VRB03KT 10SM SCT060 18/11 A3003 RMK AO2 SLP167 T01780111","FM-15","7",,,,,,,,,,,,,,,,,,,,,,,,,,,"2007-05-17"
"72793524234","2022-09-16T17:53:00","FM-15","7",,,,,,,,,,,,,,,,,,,,,,,,,,,,,,,,,,,,,,,"30.02","48","63","0.00",,,,"58","30.02","BKN:07 70","29.99","10.00","55",,,,,,,,,,,,,,,,,,,,,,,,,,,,,,,,,,,,,,,,"MET09309/16/22 17:53:01 METAR KBFI 170153Z      KT 10SM BKN070 17/09 A3002 RMK AO2 SLP166 T01720089","FM-15","7",,,,,,,,,,,,,,,,,,,,,,,,,,,"2007-05-17"
"72793524234","2022-09-16T18:53:00","FM-15","7",,,,,,,,,,,,,,,,,,,,,,,,,,,,,,,,,,,,,,,"30.02","46","62","0.00",,"+0.02","5","56","30.02","FEW:02 55 OVC:08 75","29.99","10.00","54","060",,"7",,,,,,,,,,,,,,,,,,,,,,,,,,,,,,,,,,,,,"MET10609/16/22 18:53:01 METAR KBFI 170253Z 06006KT 10SM FEW055 OVC075 17/08 A3002 RMK AO2 SLP166 T01670078 55006","FM-15","7",,,,,,,,,,,,,,,,,,,,,,,,,,,"2007-05-17"
"72793524234","2022-09-16T19:53:00","FM-15","7",,,,,,,,,,,,,,,,,,,,,,,,,,,,,,,,,,,,,,,"30.03","46","62","0.00",,,,"56","30.02","SCT:04 49 OVC:08 65","30.00","10.00","54","130",,"3",,,,,,,,,,,,,,,,,,,,,,,,,,,,,,,,,,,,,"MET10009/16/22 19:53:02 METAR KBFI 170353Z 13003KT 10SM SCT049 OVC065 17/08 A3003 RMK AO2 SLP167 T01670078","FM-15","7",,,,,,,,,,,,,,,,,,,,,,,,,,,"2007-05-17"
"72793524234","2022-09-16T20:53:00","FM-15","7",,,,,,,,,,,,,,,,,,,,,,,,,,,,,,,,,,,,,,,"30.02","45","61","0.00",,,,"56","30.01","OVC:08 49","29.99","10.00","53","050",,"7",,,,,,,,,,,,,,,,,,,,,,,,,,,,,,,,,,,,,"MET09309/16/22 20:53:02 METAR KBFI 170453Z 05006KT 10SM OVC049 16/07 A3002 RMK AO2 SLP164 T01610072","FM-15","7",,,,,,,,,,,,,,,,,,,,,,,,,,,"2007-05-17"
"72793524234","2022-09-16T21:53:00","FM-15","7",,,,,,,,,,,,,,,,,,,,,,,,,,,,,,,,,,,,,,,"30.00","46","59","0.00",,"+0.02","8","62","30.00","SCT:04 50 SCT:04 60","29.97","10.00","52","060",,"8",,,,,,,,,,,,,,,,,,,,,,,,,,,,,,,,,,,,,"MET11809/16/22 21:53:02 METAR KBFI 170553Z 06007KT 10SM SCT050 SCT060 15/08 A3000 RMK AO2 SLP158 T01500078 10178 20150 58008","FM-15","7",,,,,,,,,,,,,,,,,,,,,,,,,,,"2007-05-17"
"72793524234","2022-09-16T22:53:00","FM-15","7",,,,,,,,,,,,,,,,,,,,,,,,,,,,,,,,,,,,,,,"29.99","45","58","0.00",,,,"62","29.98","SCT:04 49","29.96","10.00","51","VRB",,"3",,,,,,,,,,,,,,,,,,,,,,,,,,,,,,,,,,,,,"MET09309/16/22 22:53:02 METAR KBFI 170653Z VRB03KT 10SM SCT049 14/07 A2999 RMK AO2 SLP154 T01440072","FM-15","7",,,,,,,,,,,,,,,,,,,,,,,,,,,"2007-05-17"
"72793524234","2022-09-16T23:53:00","FM-15","7",,,,,,,,,,,,,,,,,,,,,,,,,,,,,,,,,,,,,,,"29.98","45","58","0.00",,,,"62","29.98","FEW:02 50","29.95","10.00","51","VRB",,"3",,,,,,,,,,,,,,,,,,,,,,,,,,,,,,,,,,,,,"MET10309/16/22 23:53:02 METAR KBFI 170753Z VRB03KT 10SM FEW050 14/07 A2998 RMK AO2 SLP151 T01440072 401890133","FM-15","7",,,,,,,,,,,,,,,,,,,,,,,,,,,"2007-05-17"
"72793524234","2022-09-16T23:59:00","SOD  ","6",,,,,,,,,,,,,,,,,,"61",,,"30.01",,"5.0","0","-0.9","4","66","56","190","24","0.02",,,"160","12","RA HZ",,,,,,,,,,,,,,,,,,,,,,,,,,,,,,,,,,,,,,,,,,,,,,,,,,,,,,,"SOD73024 HR PRECIPITATION (IN):0.02  24 HR MAX TEMP (F):66 24 HR MAX TEMP TIME (LST):1350 24 HR MIN TEMP (F):56 24 HR MIN TEMP TIME (LST):0905 AVERAGE STATION PRESSURE:30.015 MINIMUM SEA LEVEL PRESSURE:29.98 TIME OF OCCURRENCE:2359 PEAK WIND SPEED (MPH):24  PEAK WIND DIR (DEG):190 PEAK WIND TIME (LST):1129  FASTEST 2MIN SPEED (MPH):12 FASTEST 2MIN DIR (DEG):160 FASTEST 2MIN TIME (LST):0933 AVERAGE WIND SPEED (MPH):5.0  24 HR AVG TEMP (F):61 HEATING DEGREE DAYS:4   COOLING DEGREE DAYS:0   LATEST DAY MAX TEMP (0700-1900 LST):66  LATEST NIGHT MIN TEMP(1900-0800 LST):56 HOURLY INCREMENTAL PRECIPITATION VALUES (IN):.00 0.00 0.00 0.00 0.00 0.00 0.00 0.00 0.00 0.00 0.00 0.00 0.00 0.00 0.01 0.01 0.00 0.00 0.00 0.00 0.00 0.00 0.00 0.00","SOD  ","6",,,,,,,,,,,,,,,,,,,,,,,,,"0548","1820","2007-05-17"
"72793524234","2022-09-17T00:53:00","FM-15","7",,,,,,,,,,,,,,,,,,,,,,,,,,,,,,,,,,,,,,,"29.97","45","57","0.00",,"+0.03","8","64","29.96","CLR:00","29.94","10.00","51","000",,"0",,,,,,,,,,,,,,,,,,,,,,,,,,,,,,,,,,,,,"MET10109/17/22 00:53:02 METAR KBFI 170853Z 00000KT 10SM CLR 14/07 A2997 RMK AO2 SLP147 T01390072 58011 (TA)","FM-15","7",,,,,,,,,,,,,,,,,,,,,,,,,,,"2007-05-17"
"72793524234","2022-09-17T01:53:00","FM-15","7",,,,,,,,,,,,,,,,,,,,,,,,,,,,,,,,,,,,,,,"29.95","46","57","0.00",,,,"67","29.95","BKN:07 55","29.92","10.00","51","000",,"0",,,,,,,,,,,,,,,,,,,,,,,,,,,,,,,,,,,,,"MET09809/17/22 01:53:02 METAR KBFI 170953Z 00000KT 10SM BKN055 14/08 A2995 RMK AO2 SLP143 T01390078 (TA)","FM-15","7",,,,,,,,,,,,,,,,,,,,,,,,,,,"2007-05-17"
"72793524234","2022-09-17T02:53:00","FM-15","7",,,,,,,,,,,,,,,,,,,,,,,,,,,,,,,,,,,,,,,"29.94","46","56","0.00",,,,"70","29.94","CLR:00","29.91","10.00","51","000",,"0",,,,,,,,,,,,,,,,,,,,,,,,,,,,,,,,,,,,,"MET09509/17/22 02:53:02 METAR KBFI 171053Z 00000KT 10SM CLR 13/08 A2994 RMK AO2 SLP140 T01330078 (TA)","FM-15","7",,,,,,,,,,,,,,,,,,,,,,,,,,,"2007-05-17"
"72793524234","2022-09-17T03:53:00","FM-15","7",,,,,,,,,,,,,,,,,,,,,,,,,,,,,,,,,,,,,,,"29.94","45","54","0.00",,"+0.03","6","72","29.93","CLR:00","29.91","10.00","49","000",,"0",,,,,,,,,,,,,,,,,,,,,,,,,,,,,,,,,,,,,"MET11909/17/22 03:53:02 METAR KBFI 171153Z 00000KT 10SM CLR 12/07 A2994 RMK AO2 SLP137 70002 T01220072 10150 20122 56010 (TA)","FM-15","7",,,,,,,,,,,,,,,,,,,,,,,,,,,"2007-05-17"
"72793524234","2022-09-17T04:53:00","FM-15","7",,,,,,,,,,,,,,,,,,,,,,,,,,,,,,,,,,,,,,,"29.92","48","52","0.00",,,,"86","29.92","CLR:00","29.89","10.00","50","000",,"0",,,,,,,,,,,,,,,,,,,,,,,,,,,,,,,,,,,,,"MET09509/17/22 04:53:02 METAR KBFI 171253Z 00000KT 10SM CLR 11/09 A2992 RMK AO2 SLP133 T01110089 (TA)","FM-15","7",,,,,,,,,,,,,,,,,,,,,,,,,,,"2007-05-17"
"72793524234","2022-09-17T05:53:00","FM-15","7",,,,,,,,,,,,,,,,,,,,,,,,,,,,,,,,,,,,,,,"29.92","49","52","0.00",,,,"89","29.91","CLR:00","29.89","10.00","50","000",,"0",,,,,,,,,,,,,,,,,,,,,,,,,,,,,,,,,,,,,"MET09509/17/22 05:53:02 METAR KBFI 171353Z 00000KT 10SM CLR 11/09 A2992 RMK AO2 SLP130 T01110094 (TA)","FM-15","7",,,,,,,,,,,,,,,,,,,,,,,,,,,"2007-05-17"
"72793524234","2022-09-17T06:53:00","FM-15","7",,,,,,,,,,,,,,,,,,,,,,,,,,,,,,,,,,,,,,,"29.92","48","55","0.00",,"+0.02","6","77","29.91","CLR:00","29.89","10.00","51","000",,"0",,,,,,,,,,,,,,,,,,,,,,,,,,,,,,,,,,,,,"MET10109/17/22 06:53:02 METAR KBFI 171453Z 00000KT 10SM CLR 13/09 A2992 RMK AO2 SLP130 T01280089 56007 (TA)","FM-15","7",,,,,,,,,,,,,,,,,,,,,,,,,,,"2007-05-17"
"72793524234","2022-09-17T07:53:00","FM-15","7",,,,,,,,,,,,,,,,,,,,,,,,,,,,,,,,,,,,,,,"29.91","48","57","0.00",,,,"72","29.91","CLR:00","29.88","10.00","52","VRB",,"3",,,,,,,,,,,,,,,,,,,,,,,,,,,,,,,,,,,,,"MET09509/17/22 07:53:02 METAR KBFI 171553Z VRB03KT 10SM CLR 14/09 A2991 RMK AO2 SLP127 T01390089 (TA)","FM-15","7",,,,,,,,,,,,,,,,,,,,,,,,,,,"2007-05-17"
"72793524234","2022-09-17T08:53:00","FM-15","7",,,,,,,,,,,,,,,,,,,,,,,,,,,,,,,,,,,,,,,"29.89","49","59","0.00",,,,"69","29.89","CLR:00","29.86","10.00","54","050",,"6",,,,,,,,,,,,,,,,,,,,,,,,,,,,,,,,,,,,,"MET09509/17/22 08:53:02 METAR KBFI 171653Z 05005KT 10SM CLR 15/09 A2989 RMK AO2 SLP122 T01500094 (TA)","FM-15","7",,,,,,,,,,,,,,,,,,,,,,,,,,,"2007-05-17"
"72793524234","2022-09-17T09:53:00","FM-15","7",,,,,,,,,,,,,,,,,,,,,,,,,,,,,,,,,,,,,,,"29.88","48","61","0.00",,"+0.04","8","63","29.88","CLR:00","29.85","10.00","54","330",,"6",,,,,,,,,,,,,,,,,,,,,,,,,,,,,,,,,,,,,"MET11309/17/22 09:53:02 METAR KBFI 171753Z 33005KT 10SM CLR 16/09 A2988 RMK AO2 SLP117 T01610089 10161 20111 58013 (CT)","FM-15","7",,,,,,,,,,,,,,,,,,,,,,,,,,,"2007-05-17"
"72793524234","2022-09-17T10:53:00","FM-15","7",,,,,,,,,,,,,,,,,,,,,,,,,,,,,,,,,,,,,,,"29.86","48","61","0.00",,,,"63","29.86","CLR:00","29.83","10.00","54","310",,"9",,,,,,,,,,,,,,,,,,,,,,,,,,,,,,,,,,,,,"MET09509/17/22 10:53:02 METAR KBFI 171853Z 31008KT 10SM CLR 16/09 A2986 RMK AO2 SLP111 T01610089 (CT)","FM-15","7",,,,,,,,,,,,,,,,,,,,,,,,,,,"2007-05-17"
"72793524234","2022-09-17T11:53:00","FM-15","7",,,,,,,,,,,,,,,,,,,,,,,,,,,,,,,,,,,,,,,"29.85","45","61","0.00",,,,"56","29.85","CLR:00","29.82","10.00","53","320",,"9",,,,,,,,,,,,,,,,,,,,,,,,,,,,,,,,,,,,,"MET09509/17/22 11:53:02 METAR KBFI 171953Z 32008KT 10SM CLR 16/07 A2985 RMK AO2 SLP108 T01610072 (CT)","FM-15","7",,,,,,,,,,,,,,,,,,,,,,,,,,,"2007-05-17"
"72793524234","2022-09-17T12:53:00","FM-15","7",,,,,,,,,,,,,,,,,,,,,,,,,,,,,,,,,,,,,,,"29.83","48","64","0.00",,"+0.05","8","56","29.83","CLR:00","29.80","10.00","55","310",,"9",,,,,,,,,,,,,,,,,,,,,,,,,,,,,,,,,,,,,"MET10109/17/22 12:53:02 METAR KBFI 172053Z 31008KT 10SM CLR 18/09 A2983 RMK AO2 SLP100 T01780089 58016 (CT)","FM-15","7",,,,,,,,,,,,,,,,,,,,,,,,,,,"2007-05-17"
"72793524234","2022-09-17T13:53:00","FM-15","7",,,,,,,,,,,,,,,,,,,,,,,,,,,,,,,,,,,,,,,"29.81","46","65","0.00",,,,"51","29.81","CLR:00","29.78","10.00","55","300",,"10",,,,,,,,,,,,,,,,,,,,,,,,,,,,,,,,,,,,,"MET09509/17/22 13:53:02 METAR KBFI 172153Z 30009KT 10SM CLR 18/08 A2981 RMK AO2 SLP095 T01830078 (CT)","FM-15","7",,,,,,,,,,,,,,,,,,,,,,,,,,,"2007-05-17"
"72793524234","2022-09-17T14:53:00","FM-15","7",,,,,,,,,,,,,,,,,,,,,,,,,,,,,,,,,,,,,,,"29.80","47","63","0.00",,,,"56","29.80","CLR:00","29.77","10.00","54","310","20","11",,,,,,,,,,,,,,,,,,,,,,,,,,,,,,,,,,,,,"MET09809/17/22 14:53:02 METAR KBFI 172253Z 31010G17KT 10SM CLR 17/08 A2980 RMK AO2 SLP090 T01720083 (CT)","FM-15","7",,,,,,,,,,,,,,,,,,,,,,,,,,,"2007-05-17"
"72793524234","2022-09-17T15:53:00","FM-15","7",,,,,,,,,,,,,,,,,,,,,,,,,,,,,,,,,,,,,,,"29.79","48","62","0.00",,"+0.04","6","60","29.78","CLR:00","29.76","10.00","55","320","20","10",,,,,,,,,,,,,,,,,,,,,,,,,,,,,,,,,,,,,"MET11609/17/22 15:53:02 METAR KBFI 172353Z 32009G17KT 10SM CLR 17/09 A2979 RMK AO2 SLP086 T01670089 10189 20156 56014 (MB)","FM-15","7",,,,,,,,,,,,,,,,,,,,,,,,,,,"2007-05-17"
"72793524234","2022-09-17T16:53:00","FM-15","7",,,,,,,,,,,,,,,,,,,,,,,,,,,,,,,,,,,,,,,"29.78","47","61","0.00",,,,"60","29.78","CLR:00","29.75","10.00","54","VRB",,"7",,,,,,,,,,,,,,,,,,,,,,,,,,,,,,,,,,,,,"MET09009/17/22 16:53:01 METAR KBFI 180053Z VRB06KT 10SM CLR 16/08 A2978 RMK AO2 SLP083 T01610083","FM-15","7",,,,,,,,,,,,,,,,,,,,,,,,,,,"2007-05-17"
"72793524234","2022-09-17T17:53:00","FM-15","7",,,,,,,,,,,,,,,,,,,,,,,,,,,,,,,,,,,,,,,"29.78","47","60","0.00",,,,"62","29.77","SCT:04 120","29.75","10.00","53","340",,"5",,,,,,,,,,,,,,,,,,,,,,,,,,,,,,,,,,,,,"MET09309/17/22 17:53:01 METAR KBFI 180153Z 34004KT 10SM SCT120 16/08 A2978 RMK AO2 SLP082 T01560083","FM-15","7",,,,,,,,,,,,,,,,,,,,,,,,,,,"2007-05-17"
"72793524234","2022-09-17T18:53:00","FM-15","7",,,,,,,,,,,,,,,,,,,,,,,,,,,,,,,,,,,,,,,"29.79","47","59","0.00",,"+0.00","5","64","29.78","CLR:00","29.76","10.00","53","VRB",,"3",,,,,,,,,,,,,,,,,,,,,,,,,,,,,,,,,,,,,"MET09609/17/22 18:53:02 METAR KBFI 180253Z VRB03KT 10SM CLR 15/08 A2979 RMK AO2 SLP086 T01500083 55001","FM-15","7",,,,,,,,,,,,,,,,,,,,,,,,,,,"2007-05-17"
"72793524234","2022-09-17T19:53:00","FM-15","7",,,,,,,,,,,,,,,,,,,,,,,,,,,,,,,,,,,,,,,"29.78","47","59","0.00",,,,"64","29.78","CLR:00","29.75","10.00","53","VRB",,"3",,,,,,,,,,,,,,,,,,,,,,,,,,,,,,,,,,,,,"MET09009/17/22 19:53:02 METAR KBFI 180353Z VRB03KT 10SM CLR 15/08 A2978 RMK AO2 SLP084 T01500083","FM-15","7",,,,,,,,,,,,,,,,,,,,,,,,,,,"2007-05-17"
"72793524234","2022-09-17T20:53:00","FM-15","7",,,,,,,,,,,,,,,,,,,,,,,,,,,,,,,,,,,,,,,"29.78","47","59","0.00",,,,"64","29.78","CLR:00","29.75","10.00","53","VRB",,"5",,,,,,,,,,,,,,,,,,,,,,,,,,,,,,,,,,,,,"MET09009/17/22 20:53:02 METAR KBFI 180453Z VRB04KT 10SM CLR 15/08 A2978 RMK AO2 SLP083 T01500083","FM-15","7",,,,,,,,,,,,,,,,,,,,,,,,,,,"2007-05-17"
"72793524234","2022-09-17T21:53:00","FM-15","7",,,,,,,,,,,,,,,,,,,,,,,,,,,,,,,,,,,,,,,"29.78","48","59","0.00",,"+0.01","5","67","29.78","CLR:00","29.75","10.00","53","VRB",,"5",,,,,,,,,,,,,,,,,,,,,,,,,,,,,,,,,,,,,"MET10809/17/22 21:53:02 METAR KBFI 180553Z VRB04KT 10SM CLR 15/09 A2978 RMK AO2 SLP083 T01500089 10167 20144 55002","FM-15","7",,,,,,,,,,,,,,,,,,,,,,,,,,,"2007-05-17"
"72793524234","2022-09-17T22:53:00","FM-15","7",,,,,,,,,,,,,,,,,,,,,,,,,,,,,,,,,,,,,,,"29.78","47","58","0.00",,,,"67","29.78","CLR:00","29.75","10.00","52","000",,"0",,,,,,,,,,,,,,,,,,,,,,,,,,,,,,,,,,,,,"MET09009/17/22 22:53:02 METAR KBFI 180653Z 00000KT 10SM CLR 14/08 A2978 RMK AO2 SLP085 T01440083","FM-15","7",,,,,,,,,,,,,,,,,,,,,,,,,,,"2007-05-17"
"72793524234","2022-09-17T23:53:00","FM-15","7",,,,,,,,,,,,,,,,,,,,,,,,,,,,,,,,,,,,,,,"29.78","49","58","0.00",,,,"72","29.78","CLR:00","29.75","10.00","53","VRB",,"3",,,,,,,,,,,,,,,,,,,,,,,,,,,,,,,,,,,,,"MET10009/17/22 23:53:02 METAR KBFI 180753Z VRB03KT 10SM CLR 14/09 A2978 RMK AO2 SLP086 T01440094 401890111","FM-15","7",,,,,,,,,,,,,,,,,,,,,,,,,,,"2007-05-17"
"72793524234","2022-09-17T23:59:00","SOD  ","6",,,,,,,,,,,,,,,,,,"59",,,"29.81",,"4.4","0","-2.6","6","66","52","310","20","0.00",,,"300","13",,,,,,,,,,,,,,,,,,,,,,,,,,,,,,,,,,,,,,,,,,,,,,,,,,,,,,,,"SOD73024 HR PRECIPITATION (IN):0.00  24 HR MAX TEMP (F):66 24 HR MAX TEMP TIME (LST):1403 24 HR MIN TEMP (F):52 24 HR MIN TEMP TIME (LST):0619 AVERAGE STATION PRESSURE:29.810 MINIMUM SEA LEVEL PRESSURE:29.77 TIME OF OCCURRENCE:2156 PEAK WIND SPEED (MPH):20  PEAK WIND DIR (DEG):310 PEAK WIND TIME (LST):1325  FASTEST 2MIN SPEED (MPH):13 FASTEST 2MIN DIR (DEG):300 FASTEST 2MIN TIME (LST):1502 AVERAGE WIND SPEED (MPH):4.4  24 HR AVG TEMP (F):59 HEATING DEGREE DAYS:6   COOLING DEGREE DAYS:0   LATEST DAY MAX TEMP (0700-1900 LST):66  LATEST NIGHT MIN TEMP(1900-0800 LST):52 HOURLY INCREMENTAL PRECIPITATION VALUES (IN):.00 0.00 0.00 0.00 0.00 0.00 0.00 0.00 0.00 0.00 0.00 0.00 0.00 0.00 0.00 0.00 0.00 0.00 0.00 0.00 0.00 0.00 0.00 0.00","SOD  ","6",,,,,,,,,,,,,,,,,,,,,,,,,"0549","1818","2007-05-17"
"72793524234","2022-09-18T00:53:00","FM-15","7",,,,,,,,,,,,,,,,,,,,,,,,,,,,,,,,,,,,,,,"29.78","49","57","0.00",,"-0.00","0","74","29.78","CLR:00","29.75","10.00","53","000",,"0",,,,,,,,,,,,,,,,,,,,,,,,,,,,,,,,,,,,,"MET09609/18/22 00:53:02 METAR KBFI 180853Z 00000KT 10SM CLR 14/09 A2978 RMK AO2 SLP084 T01390094 50000","FM-15","7",,,,,,,,,,,,,,,,,,,,,,,,,,,"2007-05-17"
"72793524234","2022-09-18T01:53:00","FM-15","7",,,,,,,,,,,,,,,,,,,,,,,,,,,,,,,,,,,,,,,"29.79","49","57","0.00",,,,"74","29.79","FEW:02 110","29.76","10.00","53","050",,"3",,,,,,,,,,,,,,,,,,,,,,,,,,,,,,,,,,,,,"MET09309/18/22 01:53:02 METAR KBFI 180953Z 05003KT 10SM FEW110 14/09 A2979 RMK AO2 SLP087 T01390094","FM-15","7",,,,,,,,,,,,,,,,,,,,,,,,,,,"2007-05-17"
"72793524234","2022-09-18T02:53:00","FM-15","7",,,,,,,,,,,,,,,,,,,,,,,,,,,,,,,,,,,,,,,"29.78","48","58","0.00",,,,"70","29.77","OVC:08 110","29.75","10.00","53","010",,"5",,,,,,,,,,,,,,,,,,,,,,,,,,,,,,,,,,,,,"MET09309/18/22 02:53:02 METAR KBFI 181053Z 01004KT 10SM OVC110 14/09 A2978 RMK AO2 SLP082 T01440089","FM-15","7",,,,,,,,,,,,,,,,,,,,,,,,,,,"2007-05-17"
"72793524234","2022-09-18T03:53:00","FM-15","7",,,,,,,,,,,,,,,,,,,,,,,,,,,,,,,,,,,,,,,"29.77","48","57","0.00",,"+0.01","8","72","29.77","SCT:04 110","29.74","10.00","52","050",,"5",,,,,,,,,,,,,,,,,,,,,,,,,,,,,,,,,,,,,"MET11109/18/22 03:53:02 METAR KBFI 181153Z 05004KT 10SM SCT110 14/09 A2977 RMK AO2 SLP081 T01390089 10150 20139 58003","FM-15","7",,,,,,,,,,,,,,,,,,,,,,,,,,,"2007-05-17"
"72793524234","2022-09-18T04:53:00","FM-15","7",,,,,,,,,,,,,,,,,,,,,,,,,,,,,,,,,,,,,,,"29.76","48","57","0.00",,,,"72","29.76","CLR:00","29.73","10.00","52","010",,"5",,,,,,,,,,,,,,,,,,,,,,,,,,,,,,,,,,,,,"MET09609/18/22 04:53:02 METAR KBFI 181253Z 01004KT 10SM CLR 14/09 A2976 RMK AO2 SLP078 T01390089 (TWR)","FM-15","7",,,,,,,,,,,,,,,,,,,,,,,,,,,"2007-05-17"
"72793524234","2022-09-18T05:53:00","FM-15","7",,,,,,,,,,,,,,,,,,,,,,,,,,,,,,,,,,,,,,,"29.77","47","57","0.00",,,,"69","29.77","CLR:00","29.74","10.00","52","VRB",,"5",,,,,,,,,,,,,,,,,,,,,,,,,,,,,,,,,,,,,"MET09609/18/22 05:53:02 METAR KBFI 181353Z VRB04KT 10SM CLR 14/08 A2977 RMK AO2 SLP082 T01390083 (TWR)","FM-15","7",,,,,,,,,,,,,,,,,,,,,,,,,,,"2007-05-17"
"72793524234","2022-09-18T06:53:00","FM-15","7",,,,,,,,,,,,,,,,,,,,,,,,,,,,,,,,,,,,,,,"29.79","49","58","0.00",,"-0.02","3","72","29.79","CLR:00","29.76","10.00","53","VRB",,"3",,,,,,,,,,,,,,,,,,,,,,,,,,,,,,,,,,,,,"MET10209/18/22 06:53:02 METAR KBFI 181453Z VRB03KT 10SM CLR 14/09 A2979 RMK AO2 SLP088 T01440094 53007 (TWR)","FM-15","7",,,,,,,,,,,,,,,,,,,,,,,,,,,"2007-05-17"
"72793524234","2022-09-18T07:53:00","FM-15","7",,,,,,,,,,,,,,,,,,,,,,,,,,,,,,,,,,,,,,,"29.81","49","59","0.00",,,,"69","29.80","CLR:00","29.78","10.00","54","020",,"6",,,,,,,,,,,,,,,,,,,,,,,,,,,,,,,,,,,,,"MET09609/18/22 07:53:02 METAR KBFI 181553Z 02005KT 10SM CLR 15/09 A2981 RMK AO2 SLP093 T01500094 (TWR)","FM-15","7",,,,,,,,,,,,,,,,,,,,,,,,,,,"2007-05-17"
"72793524234","2022-09-18T08:53:00","FM-15","7",,,,,,,,,,,,,,,,,,,,,,,,,,,,,,,,,,,,,,,"29.81","49","61","0.00",,,,"65","29.81","FEW:02 90","29.78","10.00","55","VRB",,"5",,,,,,,,,,,,,,,,,,,,,,,,,,,,,,,,,,,,,"MET09909/18/22 08:53:02 METAR KBFI 181653Z VRB04KT 10SM FEW090 16/09 A2981 RMK AO2 SLP095 T01610094 (TWR)","FM-15","7",,,,,,,,,,,,,,,,,,,,,,,,,,,"2007-05-17"
"72793524234","2022-09-18T09:53:00","FM-15","7",,,,,,,,,,,,,,,,,,,,,,,,,,,,,,,,,,,,,,,"29.81","49","64","0.00",,"-0.01","0","58","29.80","FEW:02 100","29.78","10.00","56","040",,"6",,,,,,,,,,,,,,,,,,,,,,,,,,,,,,,,,,,,,"MET11709/18/22 09:53:02 METAR KBFI 181753Z 04005KT 10SM FEW100 18/09 A2981 RMK AO2 SLP092 T01780094 10178 20133 50004 (TWR)","FM-15","7",,,,,,,,,,,,,,,,,,,,,,,,,,,"2007-05-17"
"72793524234","2022-09-18T10:53:00","FM-15","7",,,,,,,,,,,,,,,,,,,,,,,,,,,,,,,,,,,,,,,"29.80","46","67","0.00",,,,"47","29.80","CLR:00","29.77","10.00","56","330","18","7",,,,,,,,,,,,,,,,,,,,,,,,,,,,,,,,,,,,,"MET09909/18/22 10:53:02 METAR KBFI 181853Z 33006G16KT 10SM CLR 19/08 A2980 RMK AO2 SLP092 T01940078 (TWR)","FM-15","7",,,,,,,,,,,,,,,,,,,,,,,,,,,"2007-05-17"
"72793524234","2022-09-18T11:53:00","FM-15","7",,,,,,,,,,,,,,,,,,,,,,,,,,,,,,,,,,,,,,,"29.79","45","68","0.00",,,,"44","29.79","CLR:00","29.76","10.00","56","VRB","16","9",,,,,,,,,,,,,,,,,,,,,,,,,,,,,,,,,,,,,"MET09909/18/22 11:53:02 METAR KBFI 181953Z 33008G14KT 10SM CLR 20/07 A2979 RMK AO2 SLP087 T02000072 (TWR)","FM-15","7",,,,,,,,,,,,,,,,,,,,,,,,,,,"2007-05-17"
"72793524234","2022-09-18T12:53:00","FM-15","7",,,,,,,,,,,,,,,,,,,,,,,,,,,,,,,,,,,,,,,"29.77","45","68","0.00",,"+0.03","8","44","29.77","CLR:00","29.74","10.00","56","300","18","10",,,,,,,,,,,,,,,,,,,,,,,,,,,,,,,,,,,,,"MET10509/18/22 12:53:02 METAR KBFI 182053Z 30009G16KT 10SM CLR 20/07 A2977 RMK AO2 SLP082 T02000072 58010 (TWR)","FM-15","7",,,,,,,,,,,,,,,,,,,,,,,,,,,"2007-05-17"
"72793524234","2022-09-18T13:53:00","FM-15","7",,,,,,,,,,,,,,,,,,,,,,,,,,,,,,,,,,,,,,,"29.76","45","71","0.00",,,,"39","29.75","SCT:04 100","29.73","10.00","57","320","18","9",,,,,,,,,,,,,,,,,,,,,,,,,,,,,,,,,,,,,"MET10109/18/22 13:53:02 METAR KBFI 182153Z 32008G16KT 10SM SCT100 22/07 A2976 RMK AO2 SLP076 T02170072 (SN)","FM-15","7",,,,,,,,,,,,,,,,,,,,,,,,,,,"2007-05-17"
"72793524234","2022-09-18T14:53:00","FM-15","7",,,,,,,,,,,,,,,,,,,,,,,,,,,,,,,,,,,,,,,"29.74","43","71","0.00",,,,"36","29.74","CLR:00","29.71","10.00","56","300","20","13",,,,,,,,,,,,,,,,,,,,,,,,,,,,,,,,,,,,,"MET09809/18/22 14:53:02 METAR KBFI 182253Z 30011G17KT 10SM CLR 22/06 A2974 RMK AO2 SLP071 T02170061 (SN)","FM-15","7",,,,,,,,,,,,,,,,,,,,,,,,,,,"2007-05-17"
"72793524234","2022-09-18T15:53:00","FM-15","7",,,,,,,,,,,,,,,,,,,,,,,,,,,,,,,,,,,,,,,"29.74","45","70","0.00",,"+0.04","6","41","29.74","CLR:00","29.71","10.00","57","VRB",,"7",,,,,,,,,,,,,,,,,,,,,,,,,,,,,,,,,,,,,"MET11309/18/22 15:53:02 METAR KBFI 182353Z VRB06KT 10SM CLR 21/07 A2974 RMK AO2 SLP070 T02110072 10222 20178 56012 (SN)","FM-15","7",,,,,,,,,,,,,,,,,,,,,,,,,,,"2007-05-17"
"72793524234","2022-09-18T16:53:00","FM-15","7",,,,,,,,,,,,,,,,,,,,,,,,,,,,,,,,,,,,,,,"29.75","44","69","0.00",,,,"41","29.74","CLR:00","29.72","10.00","56","320",,"6",,,,,,,,,,,,,,,,,,,,,,,,,,,,,,,,,,,,,"MET09009/18/22 16:53:01 METAR KBFI 190053Z 32005KT 10SM CLR 21/07 A2975 RMK AO2 SLP072 T02060067","FM-15","7",,,,,,,,,,,,,,,,,,,,,,,,,,,"2007-05-17"
"72793524234","2022-09-18T17:53:00","FM-15","7",,,,,,,,,,,,,,,,,,,,,,,,,,,,,,,,,,,,,,,"29.75","43","66","0.00",,,,"43","29.75","CLR:00","29.72","10.00","54","310",,"5",,,,,,,,,,,,,,,,,,,,,,,,,,,,,,,,,,,,,"MET09009/18/22 17:53:01 METAR KBFI 190153Z 31004KT 10SM CLR 19/06 A2975 RMK AO2 SLP073 T01890061","FM-15","7",,,,,,,,,,,,,,,,,,,,,,,,,,,"2007-05-17"
"72793524234","2022-09-18T18:53:00","FM-15","7",,,,,,,,,,,,,,,,,,,,,,,,,,,,,,,,,,,,,,,"29.76","42","65","0.00",,"-0.03","3","43","29.76","CLR:00","29.73","10.00","53","320",,"5",,,,,,,,,,,,,,,,,,,,,,,,,,,,,,,,,,,,,"MET09609/18/22 18:53:02 METAR KBFI 190253Z 32004KT 10SM CLR 18/06 A2976 RMK AO2 SLP079 T01830056 53009","FM-15","7",,,,,,,,,,,,,,,,,,,,,,,,,,,"2007-05-17"
"72793524234","2022-09-18T19:53:00","FM-15","7",,,,,,,,,,,,,,,,,,,,,,,,,,,,,,,,,,,,,,,"29.78","42","63","0.00",,,,"47","29.78","CLR:00","29.75","10.00","52","000",,"0",,,,,,,,,,,,,,,,,,,,,,,,,,,,,,,,,,,,,"MET09009/18/22 19:53:02 METAR KBFI 190353Z 00000KT 10SM CLR 17/06 A2978 RMK AO2 SLP084 T01720056","FM-15","7",,,,,,,,,,,,,,,,,,,,,,,,,,,"2007-05-17"
"72793524234","2022-09-18T20:53:00","FM-15","7",,,,,,,,,,,,,,,,,,,,,,,,,,,,,,,,,,,,,,,"29.79","43","60","0.00",,,,"53","29.79","CLR:00","29.76","10.00","51","000",,"0",,,,,,,,,,,,,,,,,,,,,,,,,,,,,,,,,,,,,"MET09009/18/22 20:53:02 METAR KBFI 190453Z 00000KT 10SM CLR 16/06 A2979 RMK AO2 SLP087 T01560061","FM-15","7",,,,,,,,,,,,,,,,,,,,,,,,,,,"2007-05-17"
"72793524234","2022-09-18T21:53:00","FM-15","7",,,,,,,,,,,,,,,,,,,,,,,,,,,,,,,,,,,,,,,"29.79","42","59","0.00",,"-0.02","0","54","29.78","CLR:00","29.76","10.00","50","000",,"0",,,,,,,,,,,,,,,,,,,,,,,,,,,,,,,,,,,,,"MET10809/18/22 21:53:02 METAR KBFI 190553Z 00000KT 10SM CLR 15/06 A2979 RMK AO2 SLP086 T01500056 10211 20144 50007","FM-15","7",,,,,,,,,,,,,,,,,,,,,,,,,,,"2007-05-17"
"72793524234","2022-09-18T22:53:00","FM-15","7",,,,,,,,,,,,,,,,,,,,,,,,,,,,,,,,,,,,,,,"29.79","43","57","0.00",,,,"60","29.79","CLR:00","29.76","10.00","50","000",,"0",,,,,,,,,,,,,,,,,,,,,,,,,,,,,,,,,,,,,"MET09009/18/22 22:53:02 METAR KBFI 190653Z 00000KT 10SM CLR 14/06 A2979 RMK AO2 SLP088 T01390061","FM-15","7",,,,,,,,,,,,,,,,,,,,,,,,,,,"2007-05-17"
"72793524234","2022-09-18T23:53:00","FM-15","7",,,,,,,,,,,,,,,,,,,,,,,,,,,,,,,,,,,,,,,"29.79","44","56","0.00",,,,"65","29.79","CLR:00","29.76","10.00","50","000",,"0",,,,,,,,,,,,,,,,,,,,,,,,,,,,,,,,,,,,,"MET10009/18/22 23:53:02 METAR KBFI 190753Z 00000KT 10SM CLR 13/07 A2979 RMK AO2 SLP088 T01330067 402220133","FM-15","7",,,,,,,,,,,,,,,,,,,,,,,,,,,"2007-05-17"
"72793524234","2022-09-18T23:59:00","SOD  ","6",,,,,,,,,,,,,,,,,,"64",,,"29.74",,"4.6","0","2.7","1","72","56","300","22","0.00",,,"310","14",,,,,,,,,,,,,,,,,,,,,,,,,,,,,,,,,,,,,,,,,,,,,,,,,,,,,,,,"SOD73024 HR PRECIPITATION (IN):0.00  24 HR MAX TEMP (F):72 24 HR MAX TEMP TIME (LST):1520 24 HR MIN TEMP (F):56 24 HR MIN TEMP TIME (LST):2359 AVERAGE STATION PRESSURE:29.740 MINIMUM SEA LEVEL PRESSURE:29.73 TIME OF OCCURRENCE:1709 PEAK WIND SPEED (MPH):22  PEAK WIND DIR (DEG):300 PEAK WIND TIME (LST):1242  FASTEST 2MIN SPEED (MPH):14 FASTEST 2MIN DIR (DEG):310 FASTEST 2MIN TIME (LST):1226 AVERAGE WIND SPEED (MPH):4.6  24 HR AVG TEMP (F):64 HEATING DEGREE DAYS:1   COOLING DEGREE DAYS:0   LATEST DAY MAX TEMP (0700-1900 LST):72  LATEST NIGHT MIN TEMP(1900-0800 LST):56 HOURLY INCREMENTAL PRECIPITATION VALUES (IN):.00 0.00 0.00 0.00 0.00 0.00 0.00 0.00 0.00 0.00 0.00 0.00 0.00 0.00 0.00 0.00 0.00 0.00 0.00 0.00 0.00 0.00 0.00 0.00","SOD  ","6",,,,,,,,,,,,,,,,,,,,,,,,,"0550","1815","2007-05-17"
"72793524234","2022-09-19T00:53:00","FM-15","7",,,,,,,,,,,,,,,,,,,,,,,,,,,,,,,,,,,,,,,"29.80","45","54","0.00",,"-0.01","3","72","29.80","CLR:00","29.77","10.00","49","000",,"0",,,,,,,,,,,,,,,,,,,,,,,,,,,,,,,,,,,,,"MET10109/19/22 00:53:02 METAR KBFI 190853Z 00000KT 10SM CLR 12/07 A2980 RMK AO2 SLP090 T01220072 53004 (CT)","FM-15","7",,,,,,,,,,,,,,,,,,,,,,,,,,,"2007-05-17"
"72793524234","2022-09-19T01:53:00","FM-15","7",,,,,,,,,,,,,,,,,,,,,,,,,,,,,,,,,,,,,,,"29.81","45","54","0.00",,,,"72","29.81","CLR:00","29.78","10.00","49","000",,"0",,,,,,,,,,,,,,,,,,,,,,,,,,,,,,,,,,,,,"MET09509/19/22 01:53:02 METAR KBFI 190953Z 00000KT 10SM CLR 12/07 A2981 RMK AO2 SLP094 T01220072 (CT)","FM-15","7",,,,,,,,,,,,,,,,,,,,,,,,,,,"2007-05-17"
"72793524234","2022-09-19T02:53:00","FM-15","7",,,,,,,,,,,,,,,,,,,,,,,,,,,,,,,,,,,,,,,"29.81","45","51","0.00",,,,"80","29.81","CLR:00","29.78","10.00","48","000",,"0",,,,,,,,,,,,,,,,,,,,,,,,,,,,,,,,,,,,,"MET09509/19/22 02:53:02 METAR KBFI 191053Z 00000KT 10SM CLR 11/07 A2981 RMK AO2 SLP094 T01060072 (CT)","FM-15","7",,,,,,,,,,,,,,,,,,,,,,,,,,,"2007-05-17"
"72793524234","2022-09-19T03:53:00","FM-15","7",,,,,,,,,,,,,,,,,,,,,,,,,,,,,,,,,,,,,,,"29.82","45","49","0.00",,"-0.02","1","86","29.82","CLR:00","29.79","10.00","47","150",,"3",,,,,,,,,,,,,,,,,,,,,,,,,,,,,,,,,,,,,"MET11309/19/22 03:53:02 METAR KBFI 191153Z 15003KT 10SM CLR 09/07 A2982 RMK AO2 SLP097 T00940072 10150 20089 51008 (CT)","FM-15","7",,,,,,,,,,,,,,,,,,,,,,,,,,,"2007-05-17"
"72793524234","2022-09-19T04:53:00","FM-15","7",,,,,,,,,,,,,,,,,,,,,,,,,,,,,,,,,,,,,,,"29.82","46","50","0.00",,,,"86","29.82","CLR:00","29.79","10.00","48","000",,"0",,,,,,,,,,,,,,,,,,,,,,,,,,,,,,,,,,,,,"MET09509/19/22 04:53:02 METAR KBFI 191253Z 00000KT 10SM CLR 10/08 A2982 RMK AO2 SLP098 T01000078 (CT)","FM-15","7",,,,,,,,,,,,,,,,,,,,,,,,,,,"2007-05-17"
"72793524234","2022-09-19T05:53:00","FM-15","7",,,,,,,,,,,,,,,,,,,,,,,,,,,,,,,,,,,,,,,"29.84","46","50","0.00",,,,"86","29.83","CLR:00","29.81","10.00","48","000",,"0",,,,,,,,,,,,,,,,,,,,,,,,,,,,,,,,,,,,,"MET09509/19/22 05:53:02 METAR KBFI 191353Z 00000KT 10SM CLR 10/08 A2984 RMK AO2 SLP103 T01000078 (CT)","FM-15","7",,,,,,,,,,,,,,,,,,,,,,,,,,,"2007-05-17"
"72793524234","2022-09-19T06:53:00","FM-15","7",,,,,,,,,,,,,,,,,,,,,,,,,,,,,,,,,,,,,,,"29.85","48","52","0.00",,"-0.03","3","86","29.85","CLR:00","29.82","10.00","50","000",,"0",,,,,,,,,,,,,,,,,,,,,,,,,,,,,,,,,,,,,"MET10109/19/22 06:53:02 METAR KBFI 191453Z 00000KT 10SM CLR 11/09 A2985 RMK AO2 SLP107 T01110089 53009 (CT)","FM-15","7",,,,,,,,,,,,,,,,,,,,,,,,,,,"2007-05-17"
"72793524234","2022-09-19T07:53:00","FM-15","7",,,,,,,,,,,,,,,,,,,,,,,,,,,,,,,,,,,,,,,"29.86","50","57","0.00",,,,"78","29.85","CLR:00","29.83","10.00","53","170",,"3",,,,,,,,,,,,,,,,,,,,,,,,,,,,,,,,,,,,,"MET09009/19/22 07:53:02 METAR KBFI 191553Z 17003KT 10SM CLR 14/10 A2986 RMK AO2 SLP109 T01390100","FM-15","7",,,,,,,,,,,,,,,,,,,,,,,,,,,"2007-05-17"
"72793524234","2022-09-19T08:53:00","FM-15","7",,,,,,,,,,,,,,,,,,,,,,,,,,,,,,,,,,,,,,,"29.86","49","61","0.00",,,,"65","29.85","CLR:00","29.83","10.00","55","000",,"0",,,,,,,,,,,,,,,,,,,,,,,,,,,,,,,,,,,,,"MET09009/19/22 08:53:02 METAR KBFI 191653Z 00000KT 10SM CLR 16/09 A2986 RMK AO2 SLP110 T01610094","FM-15","7",,,,,,,,,,,,,,,,,,,,,,,,,,,"2007-05-17"
"72793524234","2022-09-19T09:53:00","FM-15","7",,,,,,,,,,,,,,,,,,,,,,,,,,,,,,,,,,,,,,,"29.86","49","65","0.00",,"-0.01","1","56","29.86","CLR:00","29.83","10.00","56","320",,"6",,,,,,,,,,,,,,,,,,,,,,,,,,,,,,,,,,,,,"MET11309/19/22 09:53:02 METAR KBFI 191753Z 32005KT 10SM CLR 18/09 A2986 RMK AO2 SLP112 T01830094 10183 20094 51005 (KT)","FM-15","7",,,,,,,,,,,,,,,,,,,,,,,,,,,"2007-05-17"
"72793524234","2022-09-19T10:53:00","FM-15","7",,,,,,,,,,,,,,,,,,,,,,,,,,,,,,,,,,,,,,,"29.86","49","65","0.00",,,,"56","29.86","CLR:00","29.83","10.00","56","340",,"7",,,,,,,,,,,,,,,,,,,,,,,,,,,,,,,,,,,,,"MET09509/19/22 10:53:02 METAR KBFI 191853Z 34006KT 10SM CLR 18/09 A2986 RMK AO2 SLP113 T01830094 (KT)","FM-15","7",,,,,,,,,,,,,,,,,,,,,,,,,,,"2007-05-17"
"72793524234","2022-09-19T11:53:00","FM-15","7",,,,,,,,,,,,,,,,,,,,,,,,,,,,,,,,,,,,,,,"29.86","45","70","0.00",,,,"41","29.86","CLR:00","29.83","10.00","57","310",,"7",,,,,,,,,,,,,,,,,,,,,,,,,,,,,,,,,,,,,"MET09509/19/22 11:53:02 METAR KBFI 191953Z 31006KT 10SM CLR 21/07 A2986 RMK AO2 SLP111 T02110072 (KT)","FM-15","7",,,,,,,,,,,,,,,,,,,,,,,,,,,"2007-05-17"
"72793524234","2022-09-19T12:53:00","FM-15","7",,,,,,,,,,,,,,,,,,,,,,,,,,,,,,,,,,,,,,,"29.85","45","72","0.00",,"+0.01","8","38","29.85","CLR:00","29.82","10.00","57","320","17","9",,,,,,,,,,,,,,,,,,,,,,,,,,,,,,,,,,,,,"MET10409/19/22 12:53:02 METAR KBFI 192053Z 32008G15KT 10SM CLR 22/07 A2985 RMK AO2 SLP108 T02220072 58004 (KT)","FM-15","7",,,,,,,,,,,,,,,,,,,,,,,,,,,"2007-05-17"
"72793524234","2022-09-19T13:53:00","FM-15","7",,,,,,,,,,,,,,,,,,,,,,,,,,,,,,,,,,,,,,,"29.85","45","73","0.00",,,,"37","29.84","CLR:00","29.82","10.00","58","320",,"8",,,,,,,,,,,,,,,,,,,,,,,,,,,,,,,,,,,,,"MET09509/19/22 13:53:02 METAR KBFI 192153Z 32007KT 10SM CLR 23/07 A2985 RMK AO2 SLP106 T02280072 (KT)","FM-15","7",,,,,,,,,,,,,,,,,,,,,,,,,,,"2007-05-17"
"72793524234","2022-09-19T14:53:00","FM-15","7",,,,,,,,,,,,,,,,,,,,,,,,,,,,,,,,,,,,,,,"29.84","44","74","0.00",,,,"34","29.84","CLR:00","29.81","10.00","58","VRB",,"7",,,,,,,,,,,,,,,,,,,,,,,,,,,,,,,,,,,,,"MET09509/19/22 14:53:02 METAR KBFI 192253Z VRB06KT 10SM CLR 23/07 A2984 RMK AO2 SLP105 T02330067 (KT)","FM-15","7",,,,,,,,,,,,,,,,,,,,,,,,,,,"2007-05-17"
"72793524234","2022-09-19T15:53:00","FM-15","7",,,,,,,,,,,,,,,,,,,,,,,,,,,,,,,,,,,,,,,"29.85","43","73","0.00",,"+0.01","5","34","29.84","CLR:00","29.82","10.00","57","310",,"9",,,,,,,,,,,,,,,,,,,,,,,,,,,,,,,,,,,,,"MET11309/19/22 15:53:02 METAR KBFI 192353Z 31008KT 10SM CLR 23/06 A2985 RMK AO2 SLP106 T02280061 10233 20178 55002 (KT)","FM-15","7",,,,,,,,,,,,,,,,,,,,,,,,,,,"2007-05-17"
"72793524234","2022-09-19T16:53:00","FM-15","7",,,,,,,,,,,,,,,,,,,,,,,,,,,,,,,,,,,,,,,"29.85","42","73","0.00",,,,"33","29.85","CLR:00","29.82","10.00","57","310",,"8",,,,,,,,,,,,,,,,,,,,,,,,,,,,,,,,,,,,,"MET09009/19/22 16:53:01 METAR KBFI 200053Z 31007KT 10SM CLR 23/06 A2985 RMK AO2 SLP107 T02280056","FM-15","7",,,,,,,,,,,,,,,,,,,,,,,,,,,"2007-05-17"
"72793524234","2022-09-19T17:53:00","FM-15","7",,,,,,,,,,,,,,,,,,,,,,,,,,,,,,,,,,,,,,,"29.87","47","69","0.00",,,,"45","29.86","CLR:00","29.84","10.00","57","310",,"6",,,,,,,,,,,,,,,,,,,,,,,,,,,,,,,,,,,,,"MET09009/19/22 17:53:01 METAR KBFI 200153Z 31005KT 10SM CLR 21/08 A2987 RMK AO2 SLP113 T02060083","FM-15","7",,,,,,,,,,,,,,,,,,,,,,,,,,,"2007-05-17"
"72793524234","2022-09-19T18:53:00","FM-15","7",,,,,,,,,,,,,,,,,,,,,,,,,,,,,,,,,,,,,,,"29.89","46","66","0.00",,"-0.05","3","49","29.89","CLR:00","29.86","10.00","55","310",,"3",,,,,,,,,,,,,,,,,,,,,,,,,,,,,,,,,,,,,"MET09609/19/22 18:53:02 METAR KBFI 200253Z 31003KT 10SM CLR 19/08 A2989 RMK AO2 SLP122 T01890078 53016","FM-15","7",,,,,,,,,,,,,,,,,,,,,,,,,,,"2007-05-17"
"72793524234","2022-09-19T19:53:00","FM-15","7",,,,,,,,,,,,,,,,,,,,,,,,,,,,,,,,,,,,,,,"29.92","48","64","0.00",,,,"56","29.92","CLR:00","29.89","10.00","55","320",,"3",,,,,,,,,,,,,,,,,,,,,,,,,,,,,,,,,,,,,"MET09009/19/22 19:53:02 METAR KBFI 200353Z 32003KT 10SM CLR 18/09 A2992 RMK AO2 SLP131 T01780089","FM-15","7",,,,,,,,,,,,,,,,,,,,,,,,,,,"2007-05-17"
"72793524234","2022-09-19T20:53:00","FM-15","7",,,,,,,,,,,,,,,,,,,,,,,,,,,,,,,,,,,,,,,"29.93","48","63","0.00",,,,"58","29.93","CLR:00","29.90","10.00","55","000",,"0",,,,,,,,,,,,,,,,,,,,,,,,,,,,,,,,,,,,,"MET09009/19/22 20:53:02 METAR KBFI 200453Z 00000KT 10SM CLR 17/09 A2993 RMK AO2 SLP136 T01720089","FM-15","7",,,,,,,,,,,,,,,,,,,,,,,,,,,"2007-05-17"
"72793524234","2022-09-19T21:53:00","FM-15","7",,,,,,,,,,,,,,,,,,,,,,,,,,,,,,,,,,,,,,,"29.94","48","60","0.00",,"-0.05","1","65","29.94","CLR:00","29.91","10.00","54","000",,"0",,,,,,,,,,,,,,,,,,,,,,,,,,,,,,,,,,,,,"MET10809/19/22 21:53:02 METAR KBFI 200553Z 00000KT 10SM CLR 16/09 A2994 RMK AO2 SLP139 T01560089 10233 20150 51017","FM-15","7",,,,,,,,,,,,,,,,,,,,,,,,,,,"2007-05-17"
"72793524234","2022-09-19T22:53:00","FM-15","7",,,,,,,,,,,,,,,,,,,,,,,,,,,,,,,,,,,,,,,"29.95","49","59","0.00",,,,"69","29.95","CLR:00","29.92","10.00","54","000",,"0",,,,,,,,,,,,,,,,,,,,,,,,,,,,,,,,,,,,,"MET09009/19/22 22:53:02 METAR KBFI 200653Z 00000KT 10SM CLR 15/09 A2995 RMK AO2 SLP141 T01500094","FM-15","7",,,,,,,,,,,,,,,,,,,,,,,,,,,"2007-05-17"
"72793524234","2022-09-19T23:53:00","FM-15","7",,,,,,,,,,,,,,,,,,,,,,,,,,,,,,,,,,,,,,,"29.94","49","57","0.00",,,,"74","29.94","CLR:00","29.91","10.00","53","000",,"0",,,,,,,,,,,,,,,,,,,,,,,,,,,,,,,,,,,,,"MET10009/19/22 23:53:02 METAR KBFI 200753Z 00000KT 10SM CLR 14/09 A2994 RMK AO2 SLP139 T01390094 402330089","FM-15","7",,,,,,,,,,,,,,,,,,,,,,,,,,,"2007-05-17"
"72793524234","2022-09-19T23:59:00","SOD  ","6",,,,,,,,,,,,,,,,,,"61",,,"29.83",,"3.4","0","0.0","4","74","48","320","17","0.00",,,"300","12",,,,,,,,,,,,,,,,,,,,,,,,,,,,,,,,,,,,,,,,,,,,,,,,,,,,,,,,"SOD73024 HR PRECIPITATION (IN):0.00  24 HR MAX TEMP (F):74 24 HR MAX TEMP TIME (LST):1613 24 HR MIN TEMP (F):48 24 HR MIN TEMP TIME (LST):0345 AVERAGE STATION PRESSURE:29.830 MINIMUM SEA LEVEL PRESSURE:29.79 TIME OF OCCURRENCE:0053 PEAK WIND SPEED (MPH):17  PEAK WIND DIR (DEG):320 PEAK WIND TIME (LST):1320  FASTEST 2MIN SPEED (MPH):12 FASTEST 2MIN DIR (DEG):300 FASTEST 2MIN TIME (LST):1457 AVERAGE WIND SPEED (MPH):3.4  24 HR AVG TEMP (F):61 HEATING DEGREE DAYS:4   COOLING DEGREE DAYS:0   LATEST DAY MAX TEMP (0700-1900 LST):74  LATEST NIGHT MIN TEMP(1900-0800 LST):48 HOURLY INCREMENTAL PRECIPITATION VALUES (IN):.00 0.00 0.00 0.00 0.00 0.00 0.00 0.00 0.00 0.00 0.00 0.00 0.00 0.00 0.00 0.00 0.00 0.00 0.00 0.00 0.00 0.00 0.00 0.00","SOD  ","6",,,,,,,,,,,,,,,,,,,,,,,,,"0552","1813","2007-05-17"
"72793524234","2022-09-20T00:53:00","FM-15","7",,,,,,,,,,,,,,,,,,,,,,,,,,,,,,,,,,,,,,,"29.95","50","59","0.00",,"-0.00","3","72","29.95","CLR:00","29.92","10.00","54","VRB",,"3",,,,,,,,,,,,,,,,,,,,,,,,,,,,,,,,,,,,,"MET10209/20/22 00:53:02 METAR KBFI 200853Z VRB03KT 10SM CLR 15/10 A2995 RMK AO2 SLP141 T01500100 53001 (TWR)","FM-15","7",,,,,,,,,,,,,,,,,,,,,,,,,,,"2007-05-17"
"72793524234","2022-09-20T01:53:00","FM-15","7",,,,,,,,,,,,,,,,,,,,,,,,,,,,,,,,,,,,,,,"29.95","48","57","0.00",,,,"72","29.95","CLR:00","29.92","10.00","52","000",,"0",,,,,,,,,,,,,,,,,,,,,,,,,,,,,,,,,,,,,"MET09609/20/22 01:53:02 METAR KBFI 200953Z 00000KT 10SM CLR 14/09 A2995 RMK AO2 SLP141 T01390089 (TWR)","FM-15","7",,,,,,,,,,,,,,,,,,,,,,,,,,,"2007-05-17"
"72793524234","2022-09-20T02:53:00","FM-15","7",,,,,,,,,,,,,,,,,,,,,,,,,,,,,,,,,,,,,,,"29.95","48","56","0.00",,,,"75","29.95","CLR:00","29.92","10.00","52","000",,"0",,,,,,,,,,,,,,,,,,,,,,,,,,,,,,,,,,,,,"MET09609/20/22 02:53:02 METAR KBFI 201053Z 00000KT 10SM CLR 13/09 A2995 RMK AO2 SLP142 T01330089 (TWR)","FM-15","7",,,,,,,,,,,,,,,,,,,,,,,,,,,"2007-05-17"
"72793524234","2022-09-20T03:53:00","FM-15","7",,,,,,,,,,,,,,,,,,,,,,,,,,,,,,,,,,,,,,,"29.96","49","57","0.00",,"-0.01","3","74","29.95","CLR:00","29.93","10.00","53","000",,"0",,,,,,,,,,,,,,,,,,,,,,,,,,,,,,,,,,,,,"MET10809/20/22 03:53:02 METAR KBFI 201153Z 00000KT 10SM CLR 14/09 A2996 RMK AO2 SLP143 T01390094 10156 20128 53003","FM-15","7",,,,,,,,,,,,,,,,,,,,,,,,,,,"2007-05-17"
"72793524234","2022-09-20T04:53:00","FM-15","7",,,,,,,,,,,,,,,,,,,,,,,,,,,,,,,,,,,,,,,"29.96","49","56","0.00",,,,"77","29.96","CLR:00","29.93","10.00","52","000",,"0",,,,,,,,,,,,,,,,,,,,,,,,,,,,,,,,,,,,,"MET09509/20/22 04:53:02 METAR KBFI 201253Z 00000KT 10SM CLR 13/09 A2996 RMK AO2 SLP144 T01330094 (MB)","FM-15","7",,,,,,,,,,,,,,,,,,,,,,,,,,,"2007-05-17"
"72793524234","2022-09-20T05:53:00","FM-15","7",,,,,,,,,,,,,,,,,,,,,,,,,,,,,,,,,,,,,,,"29.97","48","56","0.00",,,,"75","29.96","CLR:00","29.94","10.00","52","000",,"0",,,,,,,,,,,,,,,,,,,,,,,,,,,,,,,,,,,,,"MET09509/20/22 05:53:02 METAR KBFI 201353Z 00000KT 10SM CLR 13/09 A2997 RMK AO2 SLP147 T01330089 (MB)","FM-15","7",,,,,,,,,,,,,,,,,,,,,,,,,,,"2007-05-17"
"72793524234","2022-09-20T06:53:00","FM-15","7",,,,,,,,,,,,,,,,,,,,,,,,,,,,,,,,,,,,,,,"29.98","48","57","0.00",,"-0.02","3","72","29.98","CLR:00","29.95","9.00","52","000",,"0",,,,,,,,,,,,,,,,,,,,,,,,,,,,,,,,,,,,,"MET10009/20/22 06:53:02 METAR KBFI 201453Z 00000KT 9SM CLR 14/09 A2998 RMK AO2 SLP151 T01390089 53008 (MB)","FM-15","7",,,,,,,,,,,,,,,,,,,,,,,,,,,"2007-05-17"
"72793524234","2022-09-20T07:53:00","FM-15","7",,,,,,,,,,,,,,,,,,,,,,,,,,,,,,,,,,,,,,,"29.99","48","62","0.00",,,,"60","29.98","CLR:00","29.96","10.00","55","VRB",,"3",,,,,,,,,,,,,,,,,,,,,,,,,,,,,,,,,,,,,"MET09509/20/22 07:53:02 METAR KBFI 201553Z VRB03KT 10SM CLR 17/09 A2999 RMK AO2 SLP154 T01670089 (MB)","FM-15","7",,,,,,,,,,,,,,,,,,,,,,,,,,,"2007-05-17"
"72793524234","2022-09-20T08:53:00","FM-15","7",,,,,,,,,,,,,,,,,,,,,,,,,,,,,,,,,,,,,,,"29.99","47","65","0.00",,,,"52","29.99","CLR:00","29.96","10.00","55","VRB",,"3",,,,,,,,,,,,,,,,,,,,,,,,,,,,,,,,,,,,,"MET09509/20/22 08:53:02 METAR KBFI 201653Z VRB03KT 10SM CLR 18/08 A2999 RMK AO2 SLP156 T01830083 (MB)","FM-15","7",,,,,,,,,,,,,,,,,,,,,,,,,,,"2007-05-17"
"72793524234","2022-09-20T09:53:00","FM-15","7",,,,,,,,,,,,,,,,,,,,,,,,,,,,,,,,,,,,,,,"30.00","48","69","0.00",,"-0.02","1","47","30.00","CLR:00","29.97","10.00","57","060",,"6",,,,,,,,,,,,,,,,,,,,,,,,,,,,,,,,,,,,,"MET11309/20/22 09:53:02 METAR KBFI 201753Z 06005KT 10SM CLR 21/09 A3000 RMK AO2 SLP158 T02060089 10211 20128 51007 (MB)","FM-15","7",,,,,,,,,,,,,,,,,,,,,,,,,,,"2007-05-17"
"72793524234","2022-09-20T10:53:00","FM-15","7",,,,,,,,,,,,,,,,,,,,,,,,,,,,,,,,,,,,,,,"29.98","43","72","0.00",,,,"35","29.97","CLR:00","29.95","10.00","57","310",,"8",,,,,,,,,,,,,,,,,,,,,,,,,,,,,,,,,,,,,"MET09509/20/22 10:53:02 METAR KBFI 201853Z 31007KT 10SM CLR 22/06 A2998 RMK AO2 SLP150 T02220061 (MB)","FM-15","7",,,,,,,,,,,,,,,,,,,,,,,,,,,"2007-05-17"
"72793524234","2022-09-20T11:53:00","FM-15","7",,,,,,,,,,,,,,,,,,,,,,,,,,,,,,,,,,,,,,,"29.96","42","73","0.00",,,,"33","29.96","CLR:00","29.93","10.00","57","310","20","10",,,,,,,,,,,,,,,,,,,,,,,,,,,,,,,,,,,,,"MET09809/20/22 11:53:02 METAR KBFI 201953Z 31009G17KT 10SM CLR 23/06 A2996 RMK AO2 SLP146 T02280056 (MB)","FM-15","7",,,,,,,,,,,,,,,,,,,,,,,,,,,"2007-05-17"
"72793524234","2022-09-20T12:53:00","FM-15","7",,,,,,,,,,,,,,,,,,,,,,,,,,,,,,,,,,,,,,,"29.95","42","75","0.00",,"+0.05","6","31","29.95","CLR:00","29.92","10.00","57","300","21","10",,,,,,,,,,,,,,,,,,,,,,,,,,,,,,,,,,,,,"MET10409/20/22 12:53:02 METAR KBFI 202053Z 30009G18KT 10SM CLR 24/06 A2995 RMK AO2 SLP141 T02390056 56017 (MB)","FM-15","7",,,,,,,,,,,,,,,,,,,,,,,,,,,"2007-05-17"
"72793524234","2022-09-20T13:53:00","FM-15","7",,,,,,,,,,,,,,,,,,,,,,,,,,,,,,,,,,,,,,,"29.95","39","75","0.00",,,,"27","29.94","CLR:00","29.92","10.00","56","320","21","13",,,,,,,,,,,,,,,,,,,,,,,,,,,,,,,,,,,,,"MET09309/20/22 13:53:02 METAR KBFI 202153Z 32011G18KT 10SM CLR 24/04 A2995 RMK AO2 SLP140 T02390039","FM-15","7",,,,,,,,,,,,,,,,,,,,,,,,,,,"2007-05-17"
"72793524234","2022-09-20T14:53:00","FM-15","7",,,,,,,,,,,,,,,,,,,,,,,,,,,,,,,,,,,,,,,"29.94","37","76","0.00",,,,"24","29.94","CLR:00","29.91","10.00","56","320",,"7",,,,,,,,,,,,,,,,,,,,,,,,,,,,,,,,,,,,,"MET09509/20/22 14:53:02 METAR KBFI 202253Z 32006KT 10SM CLR 24/03 A2994 RMK AO2 SLP138 T02440028 (TA)","FM-15","7",,,,,,,,,,,,,,,,,,,,,,,,,,,"2007-05-17"
"72793524234","2022-09-20T15:53:00","FM-15","7",,,,,,,,,,,,,,,,,,,,,,,,,,,,,,,,,,,,,,,"29.94","35","77","0.00",,"+0.01","6","22","29.93","CLR:00","29.91","10.00","56","VRB","16","7",,,,,,,,,,,,,,,,,,,,,,,,,,,,,,,,,,,,,"MET11609/20/22 15:53:02 METAR KBFI 202353Z VRB06G14KT 10SM CLR 25/02 A2994 RMK AO2 SLP137 T02500017 10256 20206 56004 (TA)","FM-15","7",,,,,,,,,,,,,,,,,,,,,,,,,,,"2007-05-17"
"72793524234","2022-09-20T16:53:00","FM-15","7",,,,,,,,,,,,,,,,,,,,,,,,,,,,,,,,,,,,,,,"29.94","36","75","0.00",,,,"24","29.94","CLR:00","29.91","10.00","55","VRB",,"6",,,,,,,,,,,,,,,,,,,,,,,,,,,,,,,,,,,,,"MET09009/20/22 16:53:01 METAR KBFI 210053Z VRB05KT 10SM CLR 24/02 A2994 RMK AO2 SLP138 T02390022","FM-15","7",,,,,,,,,,,,,,,,,,,,,,,,,,,"2007-05-17"
"72793524234","2022-09-20T17:53:00","FM-15","7",,,,,,,,,,,,,,,,,,,,,,,,,,,,,,,,,,,,,,,"29.95","39","71","0.00",,,,"31","29.94","CLR:00","29.92","10.00","55","310",,"6",,,,,,,,,,,,,,,,,,,,,,,,,,,,,,,,,,,,,"MET09009/20/22 17:53:01 METAR KBFI 210153Z 31005KT 10SM CLR 22/04 A2995 RMK AO2 SLP140 T02170039","FM-15","7",,,,,,,,,,,,,,,,,,,,,,,,,,,"2007-05-17"
"72793524234","2022-09-20T18:53:00","FM-15","7",,,,,,,,,,,,,,,,,,,,,,,,,,,,,,,,,,,,,,,"29.96","40","68","0.00",,"-0.02","3","36","29.96","CLR:00","29.93","10.00","54","000",,"0",,,,,,,,,,,,,,,,,,,,,,,,,,,,,,,,,,,,,"MET09609/20/22 18:53:01 METAR KBFI 210253Z 00000KT 10SM CLR 20/04 A2996 RMK AO2 SLP145 T02000044 53008","FM-15","7",,,,,,,,,,,,,,,,,,,,,,,,,,,"2007-05-17"
"72793524234","2022-09-20T19:53:00","FM-15","7",,,,,,,,,,,,,,,,,,,,,,,,,,,,,,,,,,,,,,,"29.97","41","66","0.00",,,,"40","29.97","CLR:00","29.94","10.00","53","000",,"0",,,,,,,,,,,,,,,,,,,,,,,,,,,,,,,,,,,,,"MET09009/20/22 19:53:02 METAR KBFI 210353Z 00000KT 10SM CLR 19/05 A2997 RMK AO2 SLP149 T01890050","FM-15","7",,,,,,,,,,,,,,,,,,,,,,,,,,,"2007-05-17"
"72793524234","2022-09-20T20:53:00","FM-15","7",,,,,,,,,,,,,,,,,,,,,,,,,,,,,,,,,,,,,,,"29.98","39","66","0.00",,,,"37","29.98","CLR:00","29.95","10.00","52","000",,"0",,,,,,,,,,,,,,,,,,,,,,,,,,,,,,,,,,,,,"MET09009/20/22 20:53:02 METAR KBFI 210453Z 00000KT 10SM CLR 19/04 A2998 RMK AO2 SLP151 T01890039","FM-15","7",,,,,,,,,,,,,,,,,,,,,,,,,,,"2007-05-17"
"72793524234","2022-09-20T21:53:00","FM-15","7",,,,,,,,,,,,,,,,,,,,,,,,,,,,,,,,,,,,,,,"29.99","39","62","0.00",,"-0.02","1","43","29.98","CLR:00","29.96","10.00","51","000",,"0",,,,,,,,,,,,,,,,,,,,,,,,,,,,,,,,,,,,,"MET10809/20/22 21:53:02 METAR KBFI 210553Z 00000KT 10SM CLR 17/04 A2999 RMK AO2 SLP153 T01670039 10244 20161 51008","FM-15","7",,,,,,,,,,,,,,,,,,,,,,,,,,,"2007-05-17"
"72793524234","2022-09-20T22:53:00","FM-15","7",,,,,,,,,,,,,,,,,,,,,,,,,,,,,,,,,,,,,,,"29.98","42","59","0.00",,,,"54","29.98","CLR:00","29.95","10.00","51","000",,"0",,,,,,,,,,,,,,,,,,,,,,,,,,,,,,,,,,,,,"MET09009/20/22 22:53:02 METAR KBFI 210653Z 00000KT 10SM CLR 15/06 A2998 RMK AO2 SLP152 T01500056","FM-15","7",,,,,,,,,,,,,,,,,,,,,,,,,,,"2007-05-17"
"72793524234","2022-09-20T23:53:00","FM-15","7",,,,,,,,,,,,,,,,,,,,,,,,,,,,,,,,,,,,,,,"29.98","43","58","0.00",,,,"58","29.98","CLR:00","29.95","10.00","50","000",,"0",,,,,,,,,,,,,,,,,,,,,,,,,,,,,,,,,,,,,"MET10009/20/22 23:53:02 METAR KBFI 210753Z 00000KT 10SM CLR 14/06 A2998 RMK AO2 SLP153 T01440061 402560128","FM-15","7",,,,,,,,,,,,,,,,,,,,,,,,,,,"2007-05-17"
"72793524234","2022-09-20T23:59:00","SOD  ","6",,,,,,,,,,,,,,,,,,"67",,,"29.93",,"3.5","2","6.3","0","78","55","290","21","0.00",,,"310","13",,,,,,,,,,,,,,,,,,,,,,,,,,,,,,,,,,,,,,,,,,,,,,,,,,,,,,,,"SOD73024 HR PRECIPITATION (IN):0.00  24 HR MAX TEMP (F):78 24 HR MAX TEMP TIME (LST):1517 24 HR MIN TEMP (F):55 24 HR MIN TEMP TIME (LST):0636 AVERAGE STATION PRESSURE:29.930 MINIMUM SEA LEVEL PRESSURE:29.93 TIME OF OCCURRENCE:1718 PEAK WIND SPEED (MPH):21  PEAK WIND DIR (DEG):290 PEAK WIND TIME (LST):1300  FASTEST 2MIN SPEED (MPH):13 FASTEST 2MIN DIR (DEG):310 FASTEST 2MIN TIME (LST):1350 AVERAGE WIND SPEED (MPH):3.5  24 HR AVG TEMP (F):67 HEATING DEGREE DAYS:0   COOLING DEGREE DAYS:2   LATEST DAY MAX TEMP (0700-1900 LST):78  LATEST NIGHT MIN TEMP(1900-0800 LST):55 HOURLY INCREMENTAL PRECIPITATION VALUES (IN):.00 0.00 0.00 0.00 0.00 0.00 0.00 0.00 0.00 0.00 0.00 0.00 0.00 0.00 0.00 0.00 0.00 0.00 0.00 0.00 0.00 0.00 0.00 0.00","SOD  ","6",,,,,,,,,,,,,,,,,,,,,,,,,"0553","1811","2007-05-17"
"72793524234","2022-09-21T00:53:00","FM-15","7",,,,,,,,,,,,,,,,,,,,,,,,,,,,,,,,,,,,,,,"29.98","42","57","0.00",,"+0.01","8","58","29.98","CLR:00","29.95","10.00","50","000",,"0",,,,,,,,,,,,,,,,,,,,,,,,,,,,,,,,,,,,,"MET10109/21/22 00:53:02 METAR KBFI 210853Z 00000KT 10SM CLR 14/06 A2998 RMK AO2 SLP151 T01390056 58002 (MB)","FM-15","7",,,,,,,,,,,,,,,,,,,,,,,,,,,"2007-05-17"
"72793524234","2022-09-21T01:53:00","FM-15","7",,,,,,,,,,,,,,,,,,,,,,,,,,,,,,,,,,,,,,,"29.98","43","55","0.00",,,,"64","29.97","CLR:00","29.95","10.00","49","000",,"0",,,,,,,,,,,,,,,,,,,,,,,,,,,,,,,,,,,,,"MET09509/21/22 01:53:02 METAR KBFI 210953Z 00000KT 10SM CLR 13/06 A2998 RMK AO2 SLP150 T01280061 (MB)","FM-15","7",,,,,,,,,,,,,,,,,,,,,,,,,,,"2007-05-17"
"72793524234","2022-09-21T02:53:00","FM-15","7",,,,,,,,,,,,,,,,,,,,,,,,,,,,,,,,,,,,,,,"29.97","46","56","0.00",,,,"70","29.97","CLR:00","29.94","10.00","51","000",,"0",,,,,,,,,,,,,,,,,,,,,,,,,,,,,,,,,,,,,"MET09509/21/22 02:53:02 METAR KBFI 211053Z 00000KT 10SM CLR 13/08 A2997 RMK AO2 SLP149 T01330078 (MB)","FM-15","7",,,,,,,,,,,,,,,,,,,,,,,,,,,"2007-05-17"
"72793524234","2022-09-21T03:53:00","FM-15","7",,,,,,,,,,,,,,,,,,,,,,,,,,,,,,,,,,,,,,,"29.97","46","55","0.00",,"+0.01","8","72","29.97","CLR:00","29.94","10.00","50","000",,"0",,,,,,,,,,,,,,,,,,,,,,,,,,,,,,,,,,,,,"MET11309/21/22 03:53:02 METAR KBFI 211153Z 00000KT 10SM CLR 13/08 A2997 RMK AO2 SLP148 T01280078 10172 20128 58003 (MB)","FM-15","7",,,,,,,,,,,,,,,,,,,,,,,,,,,"2007-05-17"
"72793524234","2022-09-21T04:53:00","FM-15","7",,,,,,,,,,,,,,,,,,,,,,,,,,,,,,,,,,,,,,,"29.97","44","50","0.00",,,,"80","29.97","CLR:00","29.94","10.00","47","140",,"5",,,,,,,,,,,,,,,,,,,,,,,,,,,,,,,,,,,,,"MET09509/21/22 04:53:02 METAR KBFI 211253Z 14004KT 10SM CLR 10/07 A2997 RMK AO2 SLP148 T01000067 (SN)","FM-15","7",,,,,,,,,,,,,,,,,,,,,,,,,,,"2007-05-17"
"72793524234","2022-09-21T05:53:00","FM-15","7",,,,,,,,,,,,,,,,,,,,,,,,,,,,,,,,,,,,,,,"29.97","44","50","0.00",,,,"80","29.97","CLR:00","29.94","10.00","47","150",,"3",,,,,,,,,,,,,,,,,,,,,,,,,,,,,,,,,,,,,"MET09509/21/22 05:53:02 METAR KBFI 211353Z 15003KT 10SM CLR 10/07 A2997 RMK AO2 SLP148 T01000067 (SN)","FM-15","7",,,,,,,,,,,,,,,,,,,,,,,,,,,"2007-05-17"
"72793524234","2022-09-21T06:53:00","FM-15","7",,,,,,,,,,,,,,,,,,,,,,,,,,,,,,,,,,,,,,,"29.97","45","51","0.00",,"+0.00","8","80","29.96","CLR:00","29.94","10.00","48","000",,"0",,,,,,,,,,,,,,,,,,,,,,,,,,,,,,,,,,,,,"MET10109/21/22 06:53:02 METAR KBFI 211453Z 00000KT 10SM CLR 11/07 A2997 RMK AO2 SLP147 T01060072 58001 (SN)","FM-15","7",,,,,,,,,,,,,,,,,,,,,,,,,,,"2007-05-17"
"72793524234","2022-09-21T07:53:00","FM-15","7",,,,,,,,,,,,,,,,,,,,,,,,,,,,,,,,,,,,,,,"29.96","47","57","0.00",,,,"69","29.96","FEW:02 70","29.93","10.00","52","000",,"0",,,,,,,,,,,,,,,,,,,,,,,,,,,,,,,,,,,,,"MET09909/21/22 07:53:02 METAR KBFI 211553Z 00000KT 10SM FEW070 14/08 A2996 RMK AO2 SLP146 T01390083 (TWR)","FM-15","7",,,,,,,,,,,,,,,,,,,,,,,,,,,"2007-05-17"
"72793524234","2022-09-21T08:53:00","FM-15","7",,,,,,,,,,,,,,,,,,,,,,,,,,,,,,,,,,,,,,,"29.97","47","61","0.00",,,,"60","29.96","CLR:00","29.94","8.00","54","140",,"3",,,,,,,,,,,,,,,,,,,,,,,,,,,,,,,,,,,,,"MET09509/21/22 08:53:02 METAR KBFI 211653Z 14003KT 8SM CLR 16/08 A2997 RMK AO2 SLP147 T01610083 (TWR)","FM-15","7",,,,,,,,,,,,,,,,,,,,,,,,,,,"2007-05-17"
"72793524234","2022-09-21T09:53:00","FM-15","7",,,,,,,,,,,,,,,,,,,,,,,,,,,,,,,,,,,,,,,"29.95","46","66","0.00","HZ:7 |FU |HZ","+0.01","8","49","29.95","CLR:00","29.92","4.00","55","VRB",,"3",,,,,,,,,,,,,,,,,,,,,,,,,,,,,,,,,,,,,"MET11609/21/22 09:53:02 METAR KBFI 211753Z VRB03KT 4SM HZ CLR 19/08 A2995 RMK AO2 SLP143 T01890078 10189 20089 58005 (TWR)","FM-15","7",,,,,,,,,,,,,,,,,,,,,,,,,,,"2007-05-17"
"72793524234","2022-09-21T10:53:00","FM-15","7",,,,,,,,,,,,,,,,,,,,,,,,,,,,,,,,,,,,,,,"29.93","45","68","0.00","HZ:7 |FU |HZ",,,"44","29.93","CLR:00","29.90","6.00","56","310",,"6",,,,,,,,,,,,,,,,,,,,,,,,,,,,,,,,,,,,,"MET09809/21/22 10:53:02 METAR KBFI 211853Z 31005KT 6SM HZ CLR 20/07 A2993 RMK AO2 SLP134 T02000072 (TWR)","FM-15","7",,,,,,,,,,,,,,,,,,,,,,,,,,,"2007-05-17"
"72793524234","2022-09-21T11:53:00","FM-15","7",,,,,,,,,,,,,,,,,,,,,,,,,,,,,,,,,,,,,,,"29.92","40","71","0.00","FU:3 |HZ FU |FU",,,"32","29.91","CLR:00","29.89","10.00","55","320",,"5",,,,,,,,,,,,,,,,,,,,,,,,,,,,,,,,,,,,,"MET09909/21/22 11:53:02 METAR KBFI 211953Z 32004KT 10SM FU CLR 22/04 A2992 RMK AO2 SLP130 T02170044 (TWR)","FM-15","7",,,,,,,,,,,,,,,,,,,,,,,,,,,"2007-05-17"
"72793524234","2022-09-21T12:53:00","FM-15","7",,,,,,,,,,,,,,,,,,,,,,,,,,,,,,,,,,,,,,,"29.91","41","72","0.00","FU:3 |HZ FU |FU","+0.05","6","33","29.90","CLR:00","29.88","10.00","56","320",,"7",,,,,,,,,,,,,,,,,,,,,,,,,,,,,,,,,,,,,"MET10509/21/22 12:53:02 METAR KBFI 212053Z 32006KT 10SM FU CLR 22/05 A2991 RMK AO2 SLP126 T02220050 56016 (TWR)","FM-15","7",,,,,,,,,,,,,,,,,,,,,,,,,,,"2007-05-17"
"72793524234","2022-09-21T13:53:00","FM-15","7",,,,,,,,,,,,,,,,,,,,,,,,,,,,,,,,,,,,,,,"29.89","40","74","0.00","FU:3 |HZ FU |FU",,,"29","29.89","CLR:00","29.86","10.00","56","320",,"6",,,,,,,,,,,,,,,,,,,,,,,,,,,,,,,,,,,,,"MET09909/21/22 13:53:02 METAR KBFI 212153Z 32005KT 10SM FU CLR 23/04 A2989 RMK AO2 SLP121 T02330044 (TWR)","FM-15","7",,,,,,,,,,,,,,,,,,,,,,,,,,,"2007-05-17"
"72793524234","2022-09-21T14:53:00","FM-15","7",,,,,,,,,,,,,,,,,,,,,,,,,,,,,,,,,,,,,,,"29.88","39","76","0.00","FU:3 |HZ FU |FU",,,"26","29.88","CLR:00","29.85","10.00","57","310",,"5",,,,,,,,,,,,,,,,,,,,,,,,,,,,,,,,,,,,,"MET09909/21/22 14:53:02 METAR KBFI 212253Z 31004KT 10SM FU CLR 24/04 A2988 RMK AO2 SLP117 T02440039 (TWR)","FM-15","7",,,,,,,,,,,,,,,,,,,,,,,,,,,"2007-05-17"
"72793524234","2022-09-21T15:53:00","FM-15","7",,,,,,,,,,,,,,,,,,,,,,,,,,,,,,,,,,,,,,,"29.87","39","76","0.00","FU:3 |HZ FU |FU","+0.03","6","26","29.87","CLR:00","29.84","10.00","57","310",,"5",,,,,,,,,,,,,,,,,,,,,,,,,,,,,,,,,,,,,"MET11709/21/22 15:53:02 METAR KBFI 212353Z 31004KT 10SM FU CLR 24/04 A2987 RMK AO2 SLP115 T02440039 10244 20189 56011 (TWR)","FM-15","7",,,,,,,,,,,,,,,,,,,,,,,,,,,"2007-05-17"
"72793524234","2022-09-21T16:53:00","FM-15","7",,,,,,,,,,,,,,,,,,,,,,,,,,,,,,,,,,,,,,,"29.86","41","74","0.00","FU:3 |HZ FU |FU",,,"31","29.85","CLR:00","29.83","10.00","57","310",,"5",,,,,,,,,,,,,,,,,,,,,,,,,,,,,,,,,,,,,"MET09309/21/22 16:53:01 METAR KBFI 220053Z 31004KT 10SM FU CLR 23/05 A2986 RMK AO2 SLP110 T02330050","FM-15","7",,,,,,,,,,,,,,,,,,,,,,,,,,,"2007-05-17"
"72793524234","2022-09-21T17:53:00","FM-15","7",,,,,,,,,,,,,,,,,,,,,,,,,,,,,,,,,,,,,,,"29.87","40","73","0.00","FU:3 |HZ FU |FU",,,"30","29.86","CLR:00","29.84","10.00","56","000",,"0",,,,,,,,,,,,,,,,,,,,,,,,,,,,,,,,,,,,,"MET09309/21/22 17:53:01 METAR KBFI 220153Z 00000KT 10SM FU CLR 23/04 A2987 RMK AO2 SLP113 T02280044","FM-15","7",,,,,,,,,,,,,,,,,,,,,,,,,,,"2007-05-17"
"72793524234","2022-09-21T18:53:00","FM-15","7",,,,,,,,,,,,,,,,,,,,,,,,,,,,,,,,,,,,,,,"29.88","42","69","0.00","FU:3 |HZ FU |FU","-0.01","3","38","29.88","CLR:00","29.85","10.00","55","290",,"3",,,,,,,,,,,,,,,,,,,,,,,,,,,,,,,,,,,,,"MET09909/21/22 18:53:01 METAR KBFI 220253Z 29003KT 10SM FU CLR 21/06 A2988 RMK AO2 SLP118 T02060056 53003","FM-15","7",,,,,,,,,,,,,,,,,,,,,,,,,,,"2007-05-17"
"72793524234","2022-09-21T19:53:00","FM-15","7",,,,,,,,,,,,,,,,,,,,,,,,,,,,,,,,,,,,,,,"29.90","43","65","0.00","FU:3 |HZ FU |FU",,,"45","29.89","CLR:00","29.87","10.00","54","000",,"0",,,,,,,,,,,,,,,,,,,,,,,,,,,,,,,,,,,,,"MET09309/21/22 19:53:02 METAR KBFI 220353Z 00000KT 10SM FU CLR 18/06 A2990 RMK AO2 SLP123 T01830061","FM-15","7",,,,,,,,,,,,,,,,,,,,,,,,,,,"2007-05-17"
"72793524234","2022-09-21T20:53:00","FM-15","7",,,,,,,,,,,,,,,,,,,,,,,,,,,,,,,,,,,,,,,"29.93","43","63","0.00","FU:3 |HZ FU |FU",,,"48","29.92","CLR:00","29.90","10.00","53","000",,"0",,,,,,,,,,,,,,,,,,,,,,,,,,,,,,,,,,,,,"MET09309/21/22 20:53:02 METAR KBFI 220453Z 00000KT 10SM FU CLR 17/06 A2993 RMK AO2 SLP133 T01720061","FM-15","7",,,,,,,,,,,,,,,,,,,,,,,,,,,"2007-05-17"
"72793524234","2022-09-21T21:53:00","FM-15","7",,,,,,,,,,,,,,,,,,,,,,,,,,,,,,,,,,,,,,,"29.94","46","62","0.00",,"-0.06","3","56","29.94","CLR:00","29.91","10.00","54","000",,"0",,,,,,,,,,,,,,,,,,,,,,,,,,,,,,,,,,,,,"MET10809/21/22 21:53:02 METAR KBFI 220553Z 00000KT 10SM CLR 17/08 A2994 RMK AO2 SLP139 T01670078 10244 20144 53021","FM-15","7",,,,,,,,,,,,,,,,,,,,,,,,,,,"2007-05-17"
"72793524234","2022-09-21T22:53:00","FM-15","7",,,,,,,,,,,,,,,,,,,,,,,,,,,,,,,,,,,,,,,"29.97","49","57","0.00",,,,"74","29.97","CLR:00","29.94","10.00","53","150",,"8",,,,,,,,,,,,,,,,,,,,,,,,,,,,,,,,,,,,,"MET09009/21/22 22:53:02 METAR KBFI 220653Z 15007KT 10SM CLR 14/09 A2997 RMK AO2 SLP148 T01390094","FM-15","7",,,,,,,,,,,,,,,,,,,,,,,,,,,"2007-05-17"
"72793524234","2022-09-21T23:53:00","FM-15","7",,,,,,,,,,,,,,,,,,,,,,,,,,,,,,,,,,,,,,,"29.98","50","56","0.00",,,,"81","29.97","CLR:00","29.95","10.00","53","180",,"8",,,,,,,,,,,,,,,,,,,,,,,,,,,,,,,,,,,,,"MET10009/21/22 23:53:02 METAR KBFI 220753Z 18007KT 10SM CLR 13/10 A2998 RMK AO2 SLP150 T01330100 402440089","FM-15","7",,,,,,,,,,,,,,,,,,,,,,,,,,,"2007-05-17"
"72793524234","2022-09-21T23:59:00","SOD  ","6",,,,,,,,,,,,,,,,,,"62",,,"29.90",,"3.0","0","1.6","3","76","48","190","17","0.00",,,"170","9","HZ",,,,,,,,,,,,,,,,,,,,,,,,,,,,,,,,,,,,,,,,,,,,,,,,,,,,,,,"SOD73024 HR PRECIPITATION (IN):0.00  24 HR MAX TEMP (F):76 24 HR MAX TEMP TIME (LST):1630 24 HR MIN TEMP (F):48 24 HR MIN TEMP TIME (LST):0632 AVERAGE STATION PRESSURE:29.900 MINIMUM SEA LEVEL PRESSURE:29.85 TIME OF OCCURRENCE:1710 PEAK WIND SPEED (MPH):17  PEAK WIND DIR (DEG):190 PEAK WIND TIME (LST):2243  FASTEST 2MIN SPEED (MPH):9  FASTEST 2MIN DIR (DEG):170 FASTEST 2MIN TIME (LST):2349 AVERAGE WIND SPEED (MPH):3.0  24 HR AVG TEMP (F):62 HEATING DEGREE DAYS:3   COOLING DEGREE DAYS:0   LATEST DAY MAX TEMP (0700-1900 LST):76  LATEST NIGHT MIN TEMP(1900-0800 LST):48 HOURLY INCREMENTAL PRECIPITATION VALUES (IN):.00 0.00 0.00 0.00 0.00 0.00 0.00 0.00 0.00 0.00 0.00 0.00 0.00 0.00 0.00 0.00 0.00 0.00 0.00 0.00 0.00 0.00 0.00 0.00","SOD  ","6",,,,,,,,,,,,,,,,,,,,,,,,,"0554","1809","2007-05-17"
"72793524234","2022-09-22T00:53:00","FM-15","7",,,,,,,,,,,,,,,,,,,,,,,,,,,,,,,,,,,,,,,"29.99","51","55","0.00",,"-0.05","1","87","29.99","SCT:04 17","29.96","10.00","53","160",,"10",,,,,,,,,,,,,,,,,,,,,,,,,,,,,,,,,,,,,"MET10409/22/22 00:53:02 METAR KBFI 220853Z 16009KT 10SM SCT017 13/11 A2999 RMK AO2 SLP155 T01280106 51016 (SN)","FM-15","7",,,,,,,,,,,,,,,,,,,,,,,,,,,"2007-05-17"
"72793524234","2022-09-22T01:51:00","FM-16","6",,,,,,,,,,,,,,,,,,,,,,,,,,,,,,,,,,,,,,,"30.00","52","57",,,,,"82",,"OVC:08 19","29.97","10.00","54","170",,"9",,,,,,,,,,,,,,,,,,,,,,,,,,,,,,,,,,,,,"MET08609/22/22 01:51:02 SPECI KBFI 220951Z 17008KT 10SM OVC019 14/11 A3000 RMK AO2 FIBI (SN)","FM-16","6",,,,,,,,,,,,,,,,,,,,,,,,,,,"2007-05-17"
"72793524234","2022-09-22T01:53:00","FM-15","7",,,,,,,,,,,,,,,,,,,,,,,,,,,,,,,,,,,,,,,"30.00","51","57","0.00",,,,"81","30.00","OVC:08 19","29.97","10.00","54","170",,"10",,,,,,,,,,,,,,,,,,,,,,,,,,,,,,,,,,,,,"MET09809/22/22 01:53:02 METAR KBFI 220953Z 17009KT 10SM OVC019 14/11 A3000 RMK AO2 SLP160 T01390106 (SN)","FM-15","7",,,,,,,,,,,,,,,,,,,,,,,,,,,"2007-05-17"
"72793524234","2022-09-22T02:53:00","FM-15","7",,,,,,,,,,,,,,,,,,,,,,,,,,,,,,,,,,,,,,,"30.01","50","58","0.00",,,,"75","30.01","OVC:08 20","29.98","10.00","54","160",,"8",,,,,,,,,,,,,,,,,,,,,,,,,,,,,,,,,,,,,"MET09809/22/22 02:53:02 METAR KBFI 221053Z 16007KT 10SM OVC020 14/10 A3001 RMK AO2 SLP163 T01440100 (SN)","FM-15","7",,,,,,,,,,,,,,,,,,,,,,,,,,,"2007-05-17"
"72793524234","2022-09-22T03:53:00","FM-15","7",,,,,,,,,,,,,,,,,,,,,,,,,,,,,,,,,,,,,,,"30.02","50","57","0.00",,"-0.03","1","78","30.02","BKN:07 18 OVC:08 21","29.99","10.00","53","150",,"14",,,,,,,,,,,,,,,,,,,,,,,,,,,,,,,,,,,,,"MET12309/22/22 03:53:02 METAR KBFI 221153Z 15012KT 10SM BKN018 OVC021 14/10 A3002 RMK AO2 SLP166 T01390100 10167 20128 51010 (SN)","FM-15","7",,,,,,,,,,,,,,,,,,,,,,,,,,,"2007-05-17"
"72793524234","2022-09-22T04:53:00","FM-15","7",,,,,,,,,,,,,,,,,,,,,,,,,,,,,,,,,,,,,,,"30.03","50","57","0.00",,,,"78","30.03","OVC:08 21","30.00","10.00","53","150",,"11",,,,,,,,,,,,,,,,,,,,,,,,,,,,,,,,,,,,,"MET09809/22/22 04:53:02 METAR KBFI 221253Z 15010KT 10SM OVC021 14/10 A3003 RMK AO2 SLP170 T01390100 (SN)","FM-15","7",,,,,,,,,,,,,,,,,,,,,,,,,,,"2007-05-17"
"72793524234","2022-09-22T05:53:00","FM-15","7",,,,,,,,,,,,,,,,,,,,,,,,,,,,,,,,,,,,,,,"30.04","51","58","0.00",,,,"78","30.04","OVC:08 23","30.01","10.00","54","150",,"11",,,,,,,,,,,,,,,,,,,,,,,,,,,,,,,,,,,,,"MET09809/22/22 05:53:02 METAR KBFI 221353Z 15010KT 10SM OVC023 14/11 A3004 RMK AO2 SLP173 T01440106 (SN)","FM-15","7",,,,,,,,,,,,,,,,,,,,,,,,,,,"2007-05-17"
"72793524234","2022-09-22T06:53:00","FM-15","7",,,,,,,,,,,,,,,,,,,,,,,,,,,,,,,,,,,,,,,"30.06","50","57","0.00",,"-0.04","3","78","30.06","OVC:08 19","30.03","10.00","53","150",,"15",,,,,,,,,,,,,,,,,,,,,,,,,,,,,,,,,,,,,"MET10409/22/22 06:53:02 METAR KBFI 221453Z 15013KT 10SM OVC019 14/10 A3006 RMK AO2 SLP178 T01390100 53013 (AZ)","FM-15","7",,,,,,,,,,,,,,,,,,,,,,,,,,,"2007-05-17"
"72793524234","2022-09-22T07:53:00","FM-15","7",,,,,,,,,,,,,,,,,,,,,,,,,,,,,,,,,,,,,,,"30.07","51","59","0.00",,,,"75","30.07","OVC:08 22","30.04","10.00","55","140",,"15",,,,,,,,,,,,,,,,,,,,,,,,,,,,,,,,,,,,,"MET09809/22/22 07:53:02 METAR KBFI 221553Z 14013KT 10SM OVC022 15/11 A3007 RMK AO2 SLP182 T01500106 (AZ)","FM-15","7",,,,,,,,,,,,,,,,,,,,,,,,,,,"2007-05-17"
"72793524234","2022-09-22T08:53:00","FM-15","7",,,,,,,,,,,,,,,,,,,,,,,,,,,,,,,,,,,,,,,"30.08","51","61","0.00",,,,"70","30.08","OVC:08 28","30.05","10.00","56","150",,"14",,,,,,,,,,,,,,,,,,,,,,,,,,,,,,,,,,,,,"MET09809/22/22 08:53:02 METAR KBFI 221653Z 15012KT 10SM OVC028 16/11 A3008 RMK AO2 SLP186 T01610106 (AZ)","FM-15","7",,,,,,,,,,,,,,,,,,,,,,,,,,,"2007-05-17"
"72793524234","2022-09-22T09:53:00","FM-15","7",,,,,,,,,,,,,,,,,,,,,,,,,,,,,,,,,,,,,,,"30.08","52","63","0.00",,"-0.03","1","68","30.08","OVC:08 28","30.05","10.00","57","170",,"9",,,,,,,,,,,,,,,,,,,,,,,,,,,,,,,,,,,,,"MET11609/22/22 09:53:02 METAR KBFI 221753Z 17008KT 10SM OVC028 17/11 A3008 RMK AO2 SLP187 T01720111 10172 20139 51009 (AZ)","FM-15","7",,,,,,,,,,,,,,,,,,,,,,,,,,,"2007-05-17"
"72793524234","2022-09-22T10:51:00","FM-16","6",,,,,,,,,,,,,,,,,,,,,,,,,,,,,,,,,,,,,,,"30.08","52","64",,,,,"64",,"OVC:08 30","30.05","10.00","57","190","21","11",,,,,,,,,,,,,,,,,,,,,,,,,,,,,,,,,,,,,"MET08909/22/22 10:51:02 SPECI KBFI 221851Z 19010G18KT 10SM OVC030 18/11 A3008 RMK AO2 FIBI (AZ)","FM-16","6",,,,,,,,,,,,,,,,,,,,,,,,,,,"2007-05-17"
"72793524234","2022-09-22T10:53:00","FM-15","7",,,,,,,,,,,,,,,,,,,,,,,,,,,,,,,,,,,,,,,"30.08","51","64","0.00",,,,"63","30.08","OVC:08 30","30.05","10.00","57","180","21","11",,,,,,,,,,,,,,,,,,,,,,,,,,,,,,,,,,,,,"MET10109/22/22 10:53:02 METAR KBFI 221853Z 18010G18KT 10SM OVC030 18/11 A3008 RMK AO2 SLP187 T01780106 (AZ)","FM-15","7",,,,,,,,,,,,,,,,,,,,,,,,,,,"2007-05-17"
"72793524234","2022-09-22T11:53:00","FM-15","7",,,,,,,,,,,,,,,,,,,,,,,,,,,,,,,,,,,,,,,"30.08","51","66","0.00",,,,"59","30.08","BKN:07 33","30.05","10.00","58","170","23","11",,,,,,,,,,,,,,,,,,,,,,,,,,,,,,,,,,,,,"MET10109/22/22 11:53:02 METAR KBFI 221953Z 17010G20KT 10SM BKN033 19/11 A3008 RMK AO2 SLP186 T01890106 (AZ)","FM-15","7",,,,,,,,,,,,,,,,,,,,,,,,,,,"2007-05-17"
"72793524234","2022-09-22T12:53:00","FM-15","7",,,,,,,,,,,,,,,,,,,,,,,,,,,,,,,,,,,,,,,"30.07","52","69","0.00",,"+0.01","8","55","30.07","OVC:08 41","30.04","10.00","59","170","28","18",,,,,,,,,,,,,,,,,,,,,,,,,,,,,,,,,,,,,"MET10709/22/22 12:53:02 METAR KBFI 222053Z 17016G24KT 10SM OVC041 21/11 A3007 RMK AO2 SLP182 T02060111 58005 (AZ)","FM-15","7",,,,,,,,,,,,,,,,,,,,,,,,,,,"2007-05-17"
"72793524234","2022-09-22T13:53:00","FM-15","7",,,,,,,,,,,,,,,,,,,,,,,,,,,,,,,,,,,,,,,"30.06","51","70","0.00",,,,"51","30.06","FEW:02 45","30.03","10.00","59","180","21","13",,,,,,,,,,,,,,,,,,,,,,,,,,,,,,,,,,,,,"MET10109/22/22 13:53:02 METAR KBFI 222153Z 18011G18KT 10SM FEW045 21/11 A3006 RMK AO2 SLP180 T02110106 (AZ)","FM-15","7",,,,,,,,,,,,,,,,,,,,,,,,,,,"2007-05-17"
"72793524234","2022-09-22T14:53:00","FM-15","7",,,,,,,,,,,,,,,,,,,,,,,,,,,,,,,,,,,,,,,"30.06","49","69","0.00",,,,"49","30.06","SCT:04 50","30.03","10.00","58","VRB","17","7",,,,,,,,,,,,,,,,,,,,,,,,,,,,,,,,,,,,,"MET10109/22/22 14:53:02 METAR KBFI 222253Z VRB06G15KT 10SM SCT050 21/09 A3006 RMK AO2 SLP180 T02060094 (AZ)","FM-15","7",,,,,,,,,,,,,,,,,,,,,,,,,,,"2007-05-17"
"72793524234","2022-09-22T15:53:00","FM-15","7",,,,,,,,,,,,,,,,,,,,,,,,,,,,,,,,,,,,,,,"30.06","49","70","0.00",,"+0.01","8","47","30.06","CLR:00","30.03","10.00","58","180","18","10",,,,,,,,,,,,,,,,,,,,,,,,,,,,,,,,,,,,,"MET11609/22/22 15:53:02 METAR KBFI 222353Z 18009G16KT 10SM CLR 21/09 A3006 RMK AO2 SLP178 T02110094 10217 20172 58004 (MM)","FM-15","7",,,,,,,,,,,,,,,,,,,,,,,,,,,"2007-05-17"
"72793524234","2022-09-22T16:53:00","FM-15","7",,,,,,,,,,,,,,,,,,,,,,,,,,,,,,,,,,,,,,,"30.05","47","68","0.00",,,,"47","30.05","CLR:00","30.02","10.00","57","VRB","18","7",,,,,,,,,,,,,,,,,,,,,,,,,,,,,,,,,,,,,"MET09309/22/22 16:53:01 METAR KBFI 230053Z VRB06G16KT 10SM CLR 20/08 A3005 RMK AO2 SLP177 T02000083","FM-15","7",,,,,,,,,,,,,,,,,,,,,,,,,,,"2007-05-17"
"72793524234","2022-09-22T17:53:00","FM-15","7",,,,,,,,,,,,,,,,,,,,,,,,,,,,,,,,,,,,,,,"30.07","48","66","0.00",,,,"52","30.06","CLR:00","30.04","10.00","56","240","18","7",,,,,,,,,,,,,,,,,,,,,,,,,,,,,,,,,,,,,"MET09309/22/22 17:53:01 METAR KBFI 230153Z 24006G16KT 10SM CLR 19/09 A3007 RMK AO2 SLP180 T01890089","FM-15","7",,,,,,,,,,,,,,,,,,,,,,,,,,,"2007-05-17"
"72793524234","2022-09-22T18:53:00","FM-15","7",,,,,,,,,,,,,,,,,,,,,,,,,,,,,,,,,,,,,,,"30.08","50","64","0.00",,"-0.02","3","60","30.07","CLR:00","30.05","10.00","56","220",,"8",,,,,,,,,,,,,,,,,,,,,,,,,,,,,,,,,,,,,"MET09609/22/22 18:53:01 METAR KBFI 230253Z 22007KT 10SM CLR 18/10 A3008 RMK AO2 SLP184 T01780100 53006","FM-15","7",,,,,,,,,,,,,,,,,,,,,,,,,,,"2007-05-17"
"72793524234","2022-09-22T19:53:00","FM-15","7",,,,,,,,,,,,,,,,,,,,,,,,,,,,,,,,,,,,,,,"30.10","51","62","0.00",,,,"67","30.09","CLR:00","30.07","10.00","56","200",,"8",,,,,,,,,,,,,,,,,,,,,,,,,,,,,,,,,,,,,"MET09009/22/22 19:53:02 METAR KBFI 230353Z 20007KT 10SM CLR 17/11 A3010 RMK AO2 SLP191 T01670106","FM-15","7",,,,,,,,,,,,,,,,,,,,,,,,,,,"2007-05-17"
"72793524234","2022-09-22T20:53:00","FM-15","7",,,,,,,,,,,,,,,,,,,,,,,,,,,,,,,,,,,,,,,"30.10","51","60","0.00",,,,"72","30.10","CLR:00","30.07","10.00","55","190",,"6",,,,,,,,,,,,,,,,,,,,,,,,,,,,,,,,,,,,,"MET09009/22/22 20:53:02 METAR KBFI 230453Z 19005KT 10SM CLR 16/11 A3010 RMK AO2 SLP192 T01560106","FM-15","7",,,,,,,,,,,,,,,,,,,,,,,,,,,"2007-05-17"
"72793524234","2022-09-22T21:53:00","FM-15","7",,,,,,,,,,,,,,,,,,,,,,,,,,,,,,,,,,,,,,,"30.10","52","59","0.00",,"-0.03","1","78","30.10","CLR:00","30.07","10.00","55","170",,"8",,,,,,,,,,,,,,,,,,,,,,,,,,,,,,,,,,,,,"MET10809/22/22 21:53:02 METAR KBFI 230553Z 17007KT 10SM CLR 15/11 A3010 RMK AO2 SLP193 T01500111 10211 20144 51009","FM-15","7",,,,,,,,,,,,,,,,,,,,,,,,,,,"2007-05-17"
"72793524234","2022-09-22T22:53:00","FM-15","7",,,,,,,,,,,,,,,,,,,,,,,,,,,,,,,,,,,,,,,"30.11","52","58","0.00",,,,"81","30.11","CLR:00","30.08","10.00","55","170",,"9",,,,,,,,,,,,,,,,,,,,,,,,,,,,,,,,,,,,,"MET09009/22/22 22:53:02 METAR KBFI 230653Z 17008KT 10SM CLR 14/11 A3011 RMK AO2 SLP197 T01440111","FM-15","7",,,,,,,,,,,,,,,,,,,,,,,,,,,"2007-05-17"
"72793524234","2022-09-22T23:51:00","FM-16","6",,,,,,,,,,,,,,,,,,,,,,,,,,,,,,,,,,,,,,,"30.12","52","57",,,,,"82",,"BKN:07 20","30.09","10.00","54","140",,"9",,,,,,,,,,,,,,,,,,,,,,,,,,,,,,,,,,,,,"MET08609/22/22 23:51:03 SPECI KBFI 230751Z 14008KT 10SM BKN020 14/11 A3012 RMK AO2 FIBI (MM)","FM-16","6",,,,,,,,,,,,,,,,,,,,,,,,,,,"2007-05-17"
"72793524234","2022-09-22T23:53:00","FM-15","7",,,,,,,,,,,,,,,,,,,,,,,,,,,,,,,,,,,,,,,"30.12","51","57","0.00",,,,"81","30.12","BKN:07 19","30.09","10.00","54","140",,"9",,,,,,,,,,,,,,,,,,,,,,,,,,,,,,,,,,,,,"MET10309/22/22 23:53:02 METAR KBFI 230753Z 14008KT 10SM BKN019 14/11 A3012 RMK AO2 SLP199 T01390106 402170128","FM-15","7",,,,,,,,,,,,,,,,,,,,,,,,,,,"2007-05-17"
"72793524234","2022-09-22T23:59:00","SOD  ","6",,,,,,,,,,,,,,,,,,"63",,,"30.03",,"10.5","0","2.9","2","71","55","170","28","0.00",,,"170","17",,,,,,,,,,,,,,,,,,,,,,,,,,,,,,,,,,,,,,,,,,,,,,,,,,,,,,,,"SOD73024 HR PRECIPITATION (IN):0.00  24 HR MAX TEMP (F):71 24 HR MAX TEMP TIME (LST):1516 24 HR MIN TEMP (F):55 24 HR MIN TEMP TIME (LST):0054 AVERAGE STATION PRESSURE:30.030 MINIMUM SEA LEVEL PRESSURE:29.98 TIME OF OCCURRENCE:0041 PEAK WIND SPEED (MPH):28  PEAK WIND DIR (DEG):170 PEAK WIND TIME (LST):1252  FASTEST 2MIN SPEED (MPH):17 FASTEST 2MIN DIR (DEG):170 FASTEST 2MIN TIME (LST):1221 AVERAGE WIND SPEED (MPH):10.5 24 HR AVG TEMP (F):63 HEATING DEGREE DAYS:2   COOLING DEGREE DAYS:0   LATEST DAY MAX TEMP (0700-1900 LST):71  LATEST NIGHT MIN TEMP(1900-0800 LST):55 HOURLY INCREMENTAL PRECIPITATION VALUES (IN):.00 0.00 0.00 0.00 0.00 0.00 0.00 0.00 0.00 0.00 0.00 0.00 0.00 0.00 0.00 0.00 0.00 0.00 0.00 0.00 0.00 0.00 0.00 0.00","SOD  ","6",,,,,,,,,,,,,,,,,,,,,,,,,"0556","1807","2007-05-17"
"72793524234","2022-09-23T00:53:00","FM-15","7",,,,,,,,,,,,,,,,,,,,,,,,,,,,,,,,,,,,,,,"30.13","51","58","0.00",,"-0.03","1","78","30.13","BKN:07 23","30.10","10.00","54","150",,"8",,,,,,,,,,,,,,,,,,,,,,,,,,,,,,,,,,,,,"MET09909/23/22 00:53:02 METAR KBFI 230853Z 15007KT 10SM BKN023 14/11 A3013 RMK AO2 SLP202 T01440106 51009","FM-15","7",,,,,,,,,,,,,,,,,,,,,,,,,,,"2007-05-17"
"72793524234","2022-09-23T01:51:00","FM-16","6",,,,,,,,,,,,,,,,,,,,,,,,,,,,,,,,,,,,,,,"30.13","52","57",,,,,"82",,"FEW:02 22 SCT:04 29 OVC:08 41","30.10","10.00","54","170",,"6",,,,,,,,,,,,,,,,,,,,,,,,,,,,,,,,,,,,,"MET09509/23/22 01:51:02 SPECI KBFI 230951Z 17005KT 10SM FEW022 SCT029 OVC041 14/11 A3013 RMK AO2 FIBI","FM-16","6",,,,,,,,,,,,,,,,,,,,,,,,,,,"2007-05-17"
"72793524234","2022-09-23T01:53:00","FM-15","7",,,,,,,,,,,,,,,,,,,,,,,,,,,,,,,,,,,,,,,"30.13","51","58","0.00",,,,"78","30.13","FEW:02 22 SCT:04 29 BKN:07 41","30.10","10.00","54","170",,"6",,,,,,,,,,,,,,,,,,,,,,,,,,,,,,,,,,,,,"MET10709/23/22 01:53:02 METAR KBFI 230953Z 17005KT 10SM FEW022 SCT029 BKN041 14/11 A3013 RMK AO2 SLP203 T01440106","FM-15","7",,,,,,,,,,,,,,,,,,,,,,,,,,,"2007-05-17"
"72793524234","2022-09-23T02:53:00","FM-15","7",,,,,,,,,,,,,,,,,,,,,,,,,,,,,,,,,,,,,,,"30.13","51","57","0.00",,,,"81","30.12","SCT:04 18 BKN:07 50","30.10","10.00","54","170",,"7",,,,,,,,,,,,,,,,,,,,,,,,,,,,,,,,,,,,,"MET10509/23/22 02:53:02 METAR KBFI 231053Z 17006KT 10SM SCT018 BKN050 14/11 A3013 RMK AO2 SLP201 T01390106 (LB)","FM-15","7",,,,,,,,,,,,,,,,,,,,,,,,,,,"2007-05-17"
"72793524234","2022-09-23T03:53:00","FM-15","7",,,,,,,,,,,,,,,,,,,,,,,,,,,,,,,,,,,,,,,"30.13","51","58","0.00",,"+0.00","8","78","30.13","SCT:04 19 OVC:08 48","30.10","10.00","54","150",,"6",,,,,,,,,,,,,,,,,,,,,,,,,,,,,,,,,,,,,"MET12309/23/22 03:53:02 METAR KBFI 231153Z 15005KT 10SM SCT019 OVC048 14/11 A3013 RMK AO2 SLP202 T01440106 10150 20133 58000 (LB)","FM-15","7",,,,,,,,,,,,,,,,,,,,,,,,,,,"2007-05-17"
"72793524234","2022-09-23T04:51:00","FM-16","6",,,,,,,,,,,,,,,,,,,,,,,,,,,,,,,,,,,,,,,"30.13","52","57",,,,,"82",,"SCT:04 15 BKN:07 25 OVC:08 50","30.10","10.00","54","170",,"3",,,,,,,,,,,,,,,,,,,,,,,,,,,,,,,,,,,,,"MET10009/23/22 04:51:02 SPECI KBFI 231251Z 17003KT 10SM SCT015 BKN025 OVC050 14/11 A3013 RMK AO2 FIBI (MB)","FM-16","6",,,,,,,,,,,,,,,,,,,,,,,,,,,"2007-05-17"
"72793524234","2022-09-23T04:53:00","FM-15","7",,,,,,,,,,,,,,,,,,,,,,,,,,,,,,,,,,,,,,,"30.13","51","58","0.00",,,,"78","30.13","SCT:04 15 BKN:07 25 OVC:08 50","30.10","10.00","54","170",,"3",,,,,,,,,,,,,,,,,,,,,,,,,,,,,,,,,,,,,"MET11209/23/22 04:53:02 METAR KBFI 231253Z 17003KT 10SM SCT015 BKN025 OVC050 14/11 A3013 RMK AO2 SLP202 T01440106 (MB)","FM-15","7",,,,,,,,,,,,,,,,,,,,,,,,,,,"2007-05-17"
"72793524234","2022-09-23T05:53:00","FM-15","7",,,,,,,,,,,,,,,,,,,,,,,,,,,,,,,,,,,,,,,"30.14","51","59","0.00",,,,"75","30.14","SCT:04 15 BKN:07 25 OVC:08 50","30.11","10.00","55","VRB",,"3",,,,,,,,,,,,,,,,,,,,,,,,,,,,,,,,,,,,,"MET11209/23/22 05:53:02 METAR KBFI 231353Z VRB03KT 10SM SCT015 BKN025 OVC050 15/11 A3014 RMK AO2 SLP205 T01500106 (MB)","FM-15","7",,,,,,,,,,,,,,,,,,,,,,,,,,,"2007-05-17"
"72793524234","2022-09-23T06:51:00","FM-16","6",,,,,,,,,,,,,,,,,,,,,,,,,,,,,,,,,,,,,,,"30.15","52","59",,,,,"77",,"FEW:02 16 SCT:04 23 BKN:07 33","30.12","10.00","55","190",,"5",,,,,,,,,,,,,,,,,,,,,,,,,,,,,,,,,,,,,"MET10009/23/22 06:51:02 SPECI KBFI 231451Z 19004KT 10SM FEW016 SCT023 BKN033 15/11 A3015 RMK AO2 FIBI (MB)","FM-16","6",,,,,,,,,,,,,,,,,,,,,,,,,,,"2007-05-17"
"72793524234","2022-09-23T06:53:00","FM-15","7",,,,,,,,,,,,,,,,,,,,,,,,,,,,,,,,,,,,,,,"30.15","51","59","0.00",,"-0.02","3","75","30.15","FEW:02 16 SCT:04 23 BKN:07 33","30.12","10.00","55","190",,"5",,,,,,,,,,,,,,,,,,,,,,,,,,,,,,,,,,,,,"MET11809/23/22 06:53:02 METAR KBFI 231453Z 19004KT 10SM FEW016 SCT023 BKN033 15/11 A3015 RMK AO2 SLP209 T01500106 53007 (MB)","FM-15","7",,,,,,,,,,,,,,,,,,,,,,,,,,,"2007-05-17"
"72793524234","2022-09-23T07:53:00","FM-15","7",,,,,,,,,,,,,,,,,,,,,,,,,,,,,,,,,,,,,,,"30.16","52","60","0.00",,,,"75","30.16","OVC:08 48","30.13","10.00","56","160",,"5",,,,,,,,,,,,,,,,,,,,,,,,,,,,,,,,,,,,,"MET09809/23/22 07:53:02 METAR KBFI 231553Z 16004KT 10SM OVC048 16/11 A3016 RMK AO2 SLP213 T01560111 (MB)","FM-15","7",,,,,,,,,,,,,,,,,,,,,,,,,,,"2007-05-17"
"72793524234","2022-09-23T08:53:00","FM-15","7",,,,,,,,,,,,,,,,,,,,,,,,,,,,,,,,,,,,,,,"30.17","52","61","0.00",,,,"72","30.17","OVC:08 50","30.14","10.00","56","VRB",,"3",,,,,,,,,,,,,,,,,,,,,,,,,,,,,,,,,,,,,"MET09809/23/22 08:53:02 METAR KBFI 231653Z VRB03KT 10SM OVC050 16/11 A3017 RMK AO2 SLP217 T01610111 (MB)","FM-15","7",,,,,,,,,,,,,,,,,,,,,,,,,,,"2007-05-17"
"72793524234","2022-09-23T09:53:00","FM-15","7",,,,,,,,,,,,,,,,,,,,,,,,,,,,,,,,,,,,,,,"30.17","53","64","0.00",,"-0.02","1","68","30.17","FEW:02 16 SCT:04 24 OVC:08 50","30.14","10.00","58","210",,"8",,,,,,,,,,,,,,,,,,,,,,,,,,,,,,,,,,,,,"MET13009/23/22 09:53:02 METAR KBFI 231753Z 21007KT 10SM FEW016 SCT024 OVC050 18/12 A3017 RMK AO2 SLP217 T01780117 10178 20139 51008 (MB)","FM-15","7",,,,,,,,,,,,,,,,,,,,,,,,,,,"2007-05-17"
"72793524234","2022-09-23T10:53:00","FM-15","7",,,,,,,,,,,,,,,,,,,,,,,,,,,,,,,,,,,,,,,"30.18","51","65","0.00",,,,"61","30.17","FEW:02 16 SCT:04 24 OVC:08 50","30.15","10.00","57","210",,"7",,,,,,,,,,,,,,,,,,,,,,,,,,,,,,,,,,,,,"MET11209/23/22 10:53:02 METAR KBFI 231853Z 21006KT 10SM FEW016 SCT024 OVC050 18/11 A3018 RMK AO2 SLP218 T01830106 (MB)","FM-15","7",,,,,,,,,,,,,,,,,,,,,,,,,,,"2007-05-17"
"72793524234","2022-09-23T11:53:00","FM-15","7",,,,,,,,,,,,,,,,,,,,,,,,,,,,,,,,,,,,,,,"30.17","49","68","0.00",,,,"51","30.17","FEW:02 17 BKN:07 35 BKN:07 55","30.14","10.00","58","170",,"9",,,,,,,,,,,,,,,,,,,,,,,,,,,,,,,,,,,,,"MET11209/23/22 11:53:02 METAR KBFI 231953Z 17008KT 10SM FEW017 BKN035 BKN055 20/09 A3017 RMK AO2 SLP216 T02000094 (MB)","FM-15","7",,,,,,,,,,,,,,,,,,,,,,,,,,,"2007-05-17"
"72793524234","2022-09-23T12:53:00","FM-15","7",,,,,,,,,,,,,,,,,,,,,,,,,,,,,,,,,,,,,,,"30.16","49","68","0.00",,"+0.01","8","51","30.16","FEW:02 17 BKN:07 35 BKN:07 55","30.13","10.00","58","230",,"9",,,,,,,,,,,,,,,,,,,,,,,,,,,,,,,,,,,,,"MET11809/23/22 12:53:02 METAR KBFI 232053Z 23008KT 10SM FEW017 BKN035 BKN055 20/09 A3016 RMK AO2 SLP213 T02000094 58004 (MB)","FM-15","7",,,,,,,,,,,,,,,,,,,,,,,,,,,"2007-05-17"
"72793524234","2022-09-23T13:53:00","FM-15","7",,,,,,,,,,,,,,,,,,,,,,,,,,,,,,,,,,,,,,,"30.15","49","67","0.00",,,,"53","30.15","OVC:08 45","30.12","10.00","57","210",,"7",,,,,,,,,,,,,,,,,,,,,,,,,,,,,,,,,,,,,"MET09809/23/22 13:53:02 METAR KBFI 232153Z 21006KT 10SM OVC045 19/09 A3015 RMK AO2 SLP209 T01940094 (MM)","FM-15","7",,,,,,,,,,,,,,,,,,,,,,,,,,,"2007-05-17"
"72793524234","2022-09-23T14:53:00","FM-15","7",,,,,,,,,,,,,,,,,,,,,,,,,,,,,,,,,,,,,,,"30.14","50","68","0.00",,,,"53","30.14","OVC:08 45","30.11","10.00","58","190",,"6",,,,,,,,,,,,,,,,,,,,,,,,,,,,,,,,,,,,,"MET09809/23/22 14:53:02 METAR KBFI 232253Z 19005KT 10SM OVC045 20/10 A3014 RMK AO2 SLP207 T02000100 (MM)","FM-15","7",,,,,,,,,,,,,,,,,,,,,,,,,,,"2007-05-17"
"72793524234","2022-09-23T15:53:00","FM-15","7",,,,,,,,,,,,,,,,,,,,,,,,,,,,,,,,,,,,,,,"30.13","50","69","0.00",,"+0.03","6","51","30.13","FEW:02 46 SCT:04 100","30.10","10.00","58","190",,"5",,,,,,,,,,,,,,,,,,,,,,,,,,,,,,,,,,,,,"MET12309/23/22 15:53:02 METAR KBFI 232353Z 19004KT 10SM FEW046 SCT100 21/10 A3013 RMK AO2 SLP203 T02060100 10211 20178 56010 (MM)","FM-15","7",,,,,,,,,,,,,,,,,,,,,,,,,,,"2007-05-17"
"72793524234","2022-09-23T16:53:00","FM-15","7",,,,,,,,,,,,,,,,,,,,,,,,,,,,,,,,,,,,,,,"30.13","50","68","0.00",,,,"53","30.13","FEW:02 50 BKN:07 95 BKN:07 200","30.10","10.00","58","180",,"6",,,,,,,,,,,,,,,,,,,,,,,,,,,,,,,,,,,,,"MET10709/23/22 16:53:01 METAR KBFI 240053Z 18005KT 10SM FEW050 BKN095 BKN200 20/10 A3013 RMK AO2 SLP202 T02000100","FM-15","7",,,,,,,,,,,,,,,,,,,,,,,,,,,"2007-05-17"
"72793524234","2022-09-23T17:53:00","FM-15","7",,,,,,,,,,,,,,,,,,,,,,,,,,,,,,,,,,,,,,,"30.13","49","67","0.00",,,,"53","30.13","BKN:07 95","30.10","10.00","57","210",,"3",,,,,,,,,,,,,,,,,,,,,,,,,,,,,,,,,,,,,"MET09309/23/22 17:53:01 METAR KBFI 240153Z 21003KT 10SM BKN095 19/09 A3013 RMK AO2 SLP202 T01940094","FM-15","7",,,,,,,,,,,,,,,,,,,,,,,,,,,"2007-05-17"
"72793524234","2022-09-23T18:53:00","FM-15","7",,,,,,,,,,,,,,,,,,,,,,,,,,,,,,,,,,,,,,,"30.15","50","66","0.00",,"-0.02","3","56","30.15","SCT:04 95","30.12","10.00","57","000",,"0",,,,,,,,,,,,,,,,,,,,,,,,,,,,,,,,,,,,,"MET09909/23/22 18:53:02 METAR KBFI 240253Z 00000KT 10SM SCT095 19/10 A3015 RMK AO2 SLP209 T01890100 53006","FM-15","7",,,,,,,,,,,,,,,,,,,,,,,,,,,"2007-05-17"
"72793524234","2022-09-23T19:53:00","FM-15","7",,,,,,,,,,,,,,,,,,,,,,,,,,,,,,,,,,,,,,,"30.16","51","64","0.00",,,,"63","30.16","SCT:04 50","30.13","10.00","57","000",,"0",,,,,,,,,,,,,,,,,,,,,,,,,,,,,,,,,,,,,"MET09309/23/22 19:53:02 METAR KBFI 240353Z 00000KT 10SM SCT050 18/11 A3016 RMK AO2 SLP212 T01780106","FM-15","7",,,,,,,,,,,,,,,,,,,,,,,,,,,"2007-05-17"
"72793524234","2022-09-23T20:53:00","FM-15","7",,,,,,,,,,,,,,,,,,,,,,,,,,,,,,,,,,,,,,,"30.16","51","60","0.00",,,,"72","30.16","CLR:00","30.13","10.00","55","160",,"5",,,,,,,,,,,,,,,,,,,,,,,,,,,,,,,,,,,,,"MET09009/23/22 20:53:02 METAR KBFI 240453Z 16004KT 10SM CLR 16/11 A3016 RMK AO2 SLP214 T01560106","FM-15","7",,,,,,,,,,,,,,,,,,,,,,,,,,,"2007-05-17"
"72793524234","2022-09-23T21:53:00","FM-15","7",,,,,,,,,,,,,,,,,,,,,,,,,,,,,,,,,,,,,,,"30.16","51","60","0.00",,"-0.01","1","72","30.16","CLR:00","30.13","10.00","55","000",,"0",,,,,,,,,,,,,,,,,,,,,,,,,,,,,,,,,,,,,"MET10809/23/22 21:53:02 METAR KBFI 240553Z 00000KT 10SM CLR 16/11 A3016 RMK AO2 SLP214 T01560106 10206 20150 51005","FM-15","7",,,,,,,,,,,,,,,,,,,,,,,,,,,"2007-05-17"
"72793524234","2022-09-23T22:53:00","FM-15","7",,,,,,,,,,,,,,,,,,,,,,,,,,,,,,,,,,,,,,,"30.18","52","59","0.00",,,,"78","30.17","CLR:00","30.15","10.00","55","000",,"0",,,,,,,,,,,,,,,,,,,,,,,,,,,,,,,,,,,,,"MET09009/23/22 22:53:02 METAR KBFI 240653Z 00000KT 10SM CLR 15/11 A3018 RMK AO2 SLP218 T01500111","FM-15","7",,,,,,,,,,,,,,,,,,,,,,,,,,,"2007-05-17"
"72793524234","2022-09-23T23:53:00","FM-15","7",,,,,,,,,,,,,,,,,,,,,,,,,,,,,,,,,,,,,,,"30.18","52","59","0.00",,,,"78","30.17","FEW:02 55","30.15","10.00","55","000",,"0",,,,,,,,,,,,,,,,,,,,,,,,,,,,,,,,,,,,,"MET10309/23/22 23:53:02 METAR KBFI 240753Z 00000KT 10SM FEW055 15/11 A3018 RMK AO2 SLP218 T01500111 402110139","FM-15","7",,,,,,,,,,,,,,,,,,,,,,,,,,,"2007-05-17"
"72793524234","2022-09-23T23:59:00","SOD  ","6",,,,,,,,,,,,,,,,,,"64",,,"30.11",,"4.6","0","4.2","1","70","57","170","18","0.00",,,"190","12",,,,,,,,,,,,,,,,,,,,,,,,,,,,,,,,,,,,,,,,,,,,,,,,,,,,,,,,"SOD73024 HR PRECIPITATION (IN):0.00  24 HR MAX TEMP (F):70 24 HR MAX TEMP TIME (LST):1536 24 HR MIN TEMP (F):57 24 HR MIN TEMP TIME (LST):0443 AVERAGE STATION PRESSURE:30.115 MINIMUM SEA LEVEL PRESSURE:30.12 TIME OF OCCURRENCE:1717 PEAK WIND SPEED (MPH):18  PEAK WIND DIR (DEG):170 PEAK WIND TIME (LST):1141  FASTEST 2MIN SPEED (MPH):12 FASTEST 2MIN DIR (DEG):190 FASTEST 2MIN TIME (LST):1142 AVERAGE WIND SPEED (MPH):4.6  24 HR AVG TEMP (F):64 HEATING DEGREE DAYS:1   COOLING DEGREE DAYS:0   LATEST DAY MAX TEMP (0700-1900 LST):70  LATEST NIGHT MIN TEMP(1900-0800 LST):56 HOURLY INCREMENTAL PRECIPITATION VALUES (IN):.00 0.00 0.00 0.00 0.00 0.00 0.00 0.00 0.00 0.00 0.00 0.00 0.00 0.00 0.00 0.00 0.00 0.00 0.00 0.00 0.00 0.00 0.00 0.00","SOD  ","6",,,,,,,,,,,,,,,,,,,,,,,,,"0557","1805","2007-05-17"
"72793524234","2022-09-24T00:53:00","FM-15","7",,,,,,,,,,,,,,,,,,,,,,,,,,,,,,,,,,,,,,,"30.18","52","57","0.00",,"-0.02","1","83","30.18","CLR:00","30.15","10.00","54","000",,"0",,,,,,,,,,,,,,,,,,,,,,,,,,,,,,,,,,,,,"MET10109/24/22 00:53:02 METAR KBFI 240853Z 00000KT 10SM CLR 14/11 A3018 RMK AO2 SLP220 T01390111 51006 (SN)","FM-15","7",,,,,,,,,,,,,,,,,,,,,,,,,,,"2007-05-17"
"72793524234","2022-09-24T01:53:00","FM-15","7",,,,,,,,,,,,,,,,,,,,,,,,,,,,,,,,,,,,,,,"30.21","52","57","0.00",,,,"83","30.20","OVC:08 46","30.18","10.00","54","000",,"0",,,,,,,,,,,,,,,,,,,,,,,,,,,,,,,,,,,,,"MET09309/24/22 01:53:02 METAR KBFI 240953Z 00000KT 10SM OVC046 14/11 A3021 RMK AO2 SLP228 T01390111","FM-15","7",,,,,,,,,,,,,,,,,,,,,,,,,,,"2007-05-17"
"72793524234","2022-09-24T02:53:00","FM-15","7",,,,,,,,,,,,,,,,,,,,,,,,,,,,,,,,,,,,,,,"30.20","52","57","0.00",,,,"83","30.20","OVC:08 47","30.17","10.00","54","000",,"0",,,,,,,,,,,,,,,,,,,,,,,,,,,,,,,,,,,,,"MET09309/24/22 02:53:02 METAR KBFI 241053Z 00000KT 10SM OVC047 14/11 A3020 RMK AO2 SLP227 T01390111","FM-15","7",,,,,,,,,,,,,,,,,,,,,,,,,,,"2007-05-17"
"72793524234","2022-09-24T03:53:00","FM-15","7",,,,,,,,,,,,,,,,,,,,,,,,,,,,,,,,,,,,,,,"30.20","52","56","0.00",,"-0.02","0","87","30.20","OVC:08 48","30.17","10.00","54","150",,"3",,,,,,,,,,,,,,,,,,,,,,,,,,,,,,,,,,,,,"MET11609/24/22 03:53:02 METAR KBFI 241153Z 15003KT 10SM OVC048 13/11 A3020 RMK AO2 SLP226 T01330111 10167 20133 50006 (TA)","FM-15","7",,,,,,,,,,,,,,,,,,,,,,,,,,,"2007-05-17"
"72793524234","2022-09-24T04:53:00","FM-15","7",,,,,,,,,,,,,,,,,,,,,,,,,,,,,,,,,,,,,,,"30.21","51","54","0.00",,,,"90","30.21","CLR:00","30.18","10.00","52","150",,"3",,,,,,,,,,,,,,,,,,,,,,,,,,,,,,,,,,,,,"MET09509/24/22 04:53:02 METAR KBFI 241253Z 15003KT 10SM CLR 12/11 A3021 RMK AO2 SLP229 T01220106 (TA)","FM-15","7",,,,,,,,,,,,,,,,,,,,,,,,,,,"2007-05-17"
"72793524234","2022-09-24T05:53:00","FM-15","7",,,,,,,,,,,,,,,,,,,,,,,,,,,,,,,,,,,,,,,"30.22","50","53","0.00",,,,"89","30.22","FEW:02 50","30.19","10.00","51","150",,"5",,,,,,,,,,,,,,,,,,,,,,,,,,,,,,,,,,,,,"MET09809/24/22 05:53:02 METAR KBFI 241353Z 15004KT 10SM FEW050 12/10 A3022 RMK AO2 SLP232 T01170100 (TA)","FM-15","7",,,,,,,,,,,,,,,,,,,,,,,,,,,"2007-05-17"
"72793524234","2022-09-24T06:53:00","FM-15","7",,,,,,,,,,,,,,,,,,,,,,,,,,,,,,,,,,,,,,,"30.23","52","54","0.00",,"-0.03","3","93","30.23","CLR:00","30.20","10.00","53","000",,"0",,,,,,,,,,,,,,,,,,,,,,,,,,,,,,,,,,,,,"MET10109/24/22 06:53:02 METAR KBFI 241453Z 00000KT 10SM CLR 12/11 A3023 RMK AO2 SLP237 T01220111 53011 (TA)","FM-15","7",,,,,,,,,,,,,,,,,,,,,,,,,,,"2007-05-17"
"72793524234","2022-09-24T07:53:00","FM-15","7",,,,,,,,,,,,,,,,,,,,,,,,,,,,,,,,,,,,,,,"30.25","54","60","0.00",,,,"80","30.25","SCT:04 13","30.22","10.00","57","000",,"0",,,,,,,,,,,,,,,,,,,,,,,,,,,,,,,,,,,,,"MET09809/24/22 07:53:02 METAR KBFI 241553Z 00000KT 10SM SCT013 16/12 A3025 RMK AO2 SLP243 T01560122 (TA)","FM-15","7",,,,,,,,,,,,,,,,,,,,,,,,,,,"2007-05-17"
"72793524234","2022-09-24T08:53:00","FM-15","7",,,,,,,,,,,,,,,,,,,,,,,,,,,,,,,,,,,,,,,"30.25","54","62","0.00",,,,"75","30.25","SCT:04 13","30.22","10.00","58","330",,"7",,,,,,,,,,,,,,,,,,,,,,,,,,,,,,,,,,,,,"MET09809/24/22 08:53:02 METAR KBFI 241653Z 33006KT 10SM SCT013 17/12 A3025 RMK AO2 SLP244 T01670122 (TA)","FM-15","7",,,,,,,,,,,,,,,,,,,,,,,,,,,"2007-05-17"
"72793524234","2022-09-24T09:53:00","FM-15","7",,,,,,,,,,,,,,,,,,,,,,,,,,,,,,,,,,,,,,,"30.25","54","64","0.00",,"-0.02","1","70","30.25","CLR:00","30.22","10.00","58","VRB",,"5",,,,,,,,,,,,,,,,,,,,,,,,,,,,,,,,,,,,,"MET11309/24/22 09:53:02 METAR KBFI 241753Z VRB04KT 10SM CLR 18/12 A3025 RMK AO2 SLP244 T01780122 10178 20111 51007 (TA)","FM-15","7",,,,,,,,,,,,,,,,,,,,,,,,,,,"2007-05-17"
"72793524234","2022-09-24T10:53:00","FM-15","7",,,,,,,,,,,,,,,,,,,,,,,,,,,,,,,,,,,,,,,"30.25","54","66","0.00",,,,"65","30.24","CLR:00","30.22","10.00","59","310",,"8",,,,,,,,,,,,,,,,,,,,,,,,,,,,,,,,,,,,,"MET09509/24/22 10:53:02 METAR KBFI 241853Z 31007KT 10SM CLR 19/12 A3025 RMK AO2 SLP242 T01890122 (TA)","FM-15","7",,,,,,,,,,,,,,,,,,,,,,,,,,,"2007-05-17"
"72793524234","2022-09-24T11:53:00","FM-15","7",,,,,,,,,,,,,,,,,,,,,,,,,,,,,,,,,,,,,,,"30.24","53","69","0.00",,,,"57","30.24","CLR:00","30.21","10.00","60","310",,"9",,,,,,,,,,,,,,,,,,,,,,,,,,,,,,,,,,,,,"MET09509/24/22 11:53:02 METAR KBFI 241953Z 31008KT 10SM CLR 21/12 A3024 RMK AO2 SLP240 T02060117 (TA)","FM-15","7",,,,,,,,,,,,,,,,,,,,,,,,,,,"2007-05-17"
"72793524234","2022-09-24T12:53:00","FM-15","7",,,,,,,,,,,,,,,,,,,,,,,,,,,,,,,,,,,,,,,"30.23","54","70","0.00",,"+0.03","8","57","30.22","SCT:04 220","30.20","10.00","61","310",,"8",,,,,,,,,,,,,,,,,,,,,,,,,,,,,,,,,,,,,"MET10509/24/22 12:53:02 METAR KBFI 242053Z 31007KT 10SM SCT220 21/12 A3023 RMK AO2 SLP235 T02110122 58009 (TWR)","FM-15","7",,,,,,,,,,,,,,,,,,,,,,,,,,,"2007-05-17"
"72793524234","2022-09-24T13:53:00","FM-15","7",,,,,,,,,,,,,,,,,,,,,,,,,,,,,,,,,,,,,,,"30.21","54","72","0.00",,,,"53","30.21","CLR:00","30.18","10.00","62","310",,"9",,,,,,,,,,,,,,,,,,,,,,,,,,,,,,,,,,,,,"MET09609/24/22 13:53:02 METAR KBFI 242153Z 31008KT 10SM CLR 22/12 A3021 RMK AO2 SLP229 T02220122 (TWR)","FM-15","7",,,,,,,,,,,,,,,,,,,,,,,,,,,"2007-05-17"
"72793524234","2022-09-24T14:53:00","FM-15","7",,,,,,,,,,,,,,,,,,,,,,,,,,,,,,,,,,,,,,,"30.20","54","71","0.00",,,,"55","30.19","CLR:00","30.17","10.00","61","300",,"10",,,,,,,,,,,,,,,,,,,,,,,,,,,,,,,,,,,,,"MET09609/24/22 14:53:02 METAR KBFI 242253Z 30009KT 10SM CLR 22/12 A3020 RMK AO2 SLP225 T02170122 (TWR)","FM-15","7",,,,,,,,,,,,,,,,,,,,,,,,,,,"2007-05-17"
"72793524234","2022-09-24T15:53:00","FM-15","7",,,,,,,,,,,,,,,,,,,,,,,,,,,,,,,,,,,,,,,"30.19","54","71","0.00",,"+0.04","6","55","30.19","CLR:00","30.16","10.00","61","320","20","7",,,,,,,,,,,,,,,,,,,,,,,,,,,,,,,,,,,,,"MET11609/24/22 15:53:02 METAR KBFI 242353Z 32006G17KT 10SM CLR 22/12 A3019 RMK AO2 SLP222 T02170122 10228 20178 56013 (MB)","FM-15","7",,,,,,,,,,,,,,,,,,,,,,,,,,,"2007-05-17"
"72793524234","2022-09-24T16:53:00","FM-15","7",,,,,,,,,,,,,,,,,,,,,,,,,,,,,,,,,,,,,,,"30.18","53","69","0.00",,,,"57","30.18","CLR:00","30.15","10.00","60","320",,"7",,,,,,,,,,,,,,,,,,,,,,,,,,,,,,,,,,,,,"MET09009/24/22 16:53:01 METAR KBFI 250053Z 32006KT 10SM CLR 21/12 A3018 RMK AO2 SLP219 T02060117","FM-15","7",,,,,,,,,,,,,,,,,,,,,,,,,,,"2007-05-17"
"72793524234","2022-09-24T17:53:00","FM-15","7",,,,,,,,,,,,,,,,,,,,,,,,,,,,,,,,,,,,,,,"30.18","53","66","0.00",,,,"63","30.18","CLR:00","30.15","10.00","59","310",,"8",,,,,,,,,,,,,,,,,,,,,,,,,,,,,,,,,,,,,"MET09009/24/22 17:53:01 METAR KBFI 250153Z 31007KT 10SM CLR 19/12 A3018 RMK AO2 SLP221 T01890117","FM-15","7",,,,,,,,,,,,,,,,,,,,,,,,,,,"2007-05-17"
"72793524234","2022-09-24T18:53:00","FM-15","7",,,,,,,,,,,,,,,,,,,,,,,,,,,,,,,,,,,,,,,"30.20","53","65","0.00",,"-0.01","3","66","30.19","CLR:00","30.17","10.00","58","000",,"0",,,,,,,,,,,,,,,,,,,,,,,,,,,,,,,,,,,,,"MET09609/24/22 18:53:01 METAR KBFI 250253Z 00000KT 10SM CLR 18/12 A3020 RMK AO2 SLP225 T01830117 53003","FM-15","7",,,,,,,,,,,,,,,,,,,,,,,,,,,"2007-05-17"
"72793524234","2022-09-24T19:53:00","FM-15","7",,,,,,,,,,,,,,,,,,,,,,,,,,,,,,,,,,,,,,,"30.20","53","64","0.00",,,,"68","30.20","CLR:00","30.17","10.00","58","000",,"0",,,,,,,,,,,,,,,,,,,,,,,,,,,,,,,,,,,,,"MET09009/24/22 19:53:02 METAR KBFI 250353Z 00000KT 10SM CLR 18/12 A3020 RMK AO2 SLP228 T01780117","FM-15","7",,,,,,,,,,,,,,,,,,,,,,,,,,,"2007-05-17"
"72793524234","2022-09-24T20:53:00","FM-15","7",,,,,,,,,,,,,,,,,,,,,,,,,,,,,,,,,,,,,,,"30.21","52","64","0.00",,,,"65","30.21","CLR:00","30.18","10.00","57","000",,"0",,,,,,,,,,,,,,,,,,,,,,,,,,,,,,,,,,,,,"MET09009/24/22 20:53:02 METAR KBFI 250453Z 00000KT 10SM CLR 18/11 A3021 RMK AO2 SLP229 T01780111","FM-15","7",,,,,,,,,,,,,,,,,,,,,,,,,,,"2007-05-17"
"72793524234","2022-09-24T21:53:00","FM-15","7",,,,,,,,,,,,,,,,,,,,,,,,,,,,,,,,,,,,,,,"30.20","53","62","0.00",,"-0.01","0","73","30.20","CLR:00","30.17","10.00","57","000",,"0",,,,,,,,,,,,,,,,,,,,,,,,,,,,,,,,,,,,,"MET10809/24/22 21:53:02 METAR KBFI 250553Z 00000KT 10SM CLR 17/12 A3020 RMK AO2 SLP226 T01670117 10217 20167 50002","FM-15","7",,,,,,,,,,,,,,,,,,,,,,,,,,,"2007-05-17"
"72793524234","2022-09-24T22:53:00","FM-15","7",,,,,,,,,,,,,,,,,,,,,,,,,,,,,,,,,,,,,,,"30.20","52","63","0.00",,,,"68","30.19","CLR:00","30.17","10.00","57","000",,"0",,,,,,,,,,,,,,,,,,,,,,,,,,,,,,,,,,,,,"MET09009/24/22 22:53:02 METAR KBFI 250653Z 00000KT 10SM CLR 17/11 A3020 RMK AO2 SLP225 T01720111","FM-15","7",,,,,,,,,,,,,,,,,,,,,,,,,,,"2007-05-17"
"72793524234","2022-09-24T23:53:00","FM-15","7",,,,,,,,,,,,,,,,,,,,,,,,,,,,,,,,,,,,,,,"30.20","52","62","0.00",,,,"70","30.19","CLR:00","30.17","10.00","57","320",,"3",,,,,,,,,,,,,,,,,,,,,,,,,,,,,,,,,,,,,"MET10009/24/22 23:53:02 METAR KBFI 250753Z 32003KT 10SM CLR 17/11 A3020 RMK AO2 SLP225 T01670111 402280111","FM-15","7",,,,,,,,,,,,,,,,,,,,,,,,,,,"2007-05-17"
"72793524234","2022-09-24T23:59:00","SOD  ","6",,,,,,,,,,,,,,,,,,"63",,,"30.17",,"3.9","0","3.5","2","73","52","310","20","0.00",,,"310","13",,,,,,,,,,,,,,,,,,,,,,,,,,,,,,,,,,,,,,,,,,,,,,,,,,,,,,,,"SOD73024 HR PRECIPITATION (IN):0.00  24 HR MAX TEMP (F):73 24 HR MAX TEMP TIME (LST):1436 24 HR MIN TEMP (F):52 24 HR MIN TEMP TIME (LST):0613 AVERAGE STATION PRESSURE:30.175 MINIMUM SEA LEVEL PRESSURE:30.17 TIME OF OCCURRENCE:0034 PEAK WIND SPEED (MPH):20  PEAK WIND DIR (DEG):310 PEAK WIND TIME (LST):1545  FASTEST 2MIN SPEED (MPH):13 FASTEST 2MIN DIR (DEG):310 FASTEST 2MIN TIME (LST):1536 AVERAGE WIND SPEED (MPH):3.9  24 HR AVG TEMP (F):63 HEATING DEGREE DAYS:2   COOLING DEGREE DAYS:0   LATEST DAY MAX TEMP (0700-1900 LST):73  LATEST NIGHT MIN TEMP(1900-0800 LST):52 HOURLY INCREMENTAL PRECIPITATION VALUES (IN):.00 0.00 0.00 0.00 0.00 0.00 0.00 0.00 0.00 0.00 0.00 0.00 0.00 0.00 0.00 0.00 0.00 0.00 0.00 0.00 0.00 0.00 0.00 0.00","SOD  ","6",,,,,,,,,,,,,,,,,,,,,,,,,"0558","1803","2007-05-17"
"72793524234","2022-09-25T00:53:00","FM-15","7",,,,,,,,,,,,,,,,,,,,,,,,,,,,,,,,,,,,,,,"30.19","52","59","0.00",,"+0.01","8","78","30.19","CLR:00","30.16","10.00","55","000",,"0",,,,,,,,,,,,,,,,,,,,,,,,,,,,,,,,,,,,,"MET09609/25/22 00:53:02 METAR KBFI 250853Z 00000KT 10SM CLR 15/11 A3019 RMK AO2 SLP222 T01500111 58004","FM-15","7",,,,,,,,,,,,,,,,,,,,,,,,,,,"2007-05-17"
"72793524234","2022-09-25T01:53:00","FM-15","7",,,,,,,,,,,,,,,,,,,,,,,,,,,,,,,,,,,,,,,"30.19","52","57","0.00",,,,"83","30.18","CLR:00","30.16","10.00","54","000",,"0",,,,,,,,,,,,,,,,,,,,,,,,,,,,,,,,,,,,,"MET09009/25/22 01:53:02 METAR KBFI 250953Z 00000KT 10SM CLR 14/11 A3019 RMK AO2 SLP221 T01390111","FM-15","7",,,,,,,,,,,,,,,,,,,,,,,,,,,"2007-05-17"
"72793524234","2022-09-25T02:53:00","FM-15","7",,,,,,,,,,,,,,,,,,,,,,,,,,,,,,,,,,,,,,,"30.18","51","58","0.00",,,,"78","30.18","CLR:00","30.15","10.00","54","000",,"0",,,,,,,,,,,,,,,,,,,,,,,,,,,,,,,,,,,,,"MET09009/25/22 02:53:02 METAR KBFI 251053Z 00000KT 10SM CLR 14/11 A3018 RMK AO2 SLP221 T01440106","FM-15","7",,,,,,,,,,,,,,,,,,,,,,,,,,,"2007-05-17"
"72793524234","2022-09-25T03:53:00","FM-15","7",,,,,,,,,,,,,,,,,,,,,,,,,,,,,,,,,,,,,,,"30.18","51","57","0.00",,"+0.01","8","81","30.18","CLR:00","30.15","10.00","54","000",,"0",,,,,,,,,,,,,,,,,,,,,,,,,,,,,,,,,,,,,"MET10809/25/22 03:53:02 METAR KBFI 251153Z 00000KT 10SM CLR 14/11 A3018 RMK AO2 SLP220 T01390106 10172 20139 58002","FM-15","7",,,,,,,,,,,,,,,,,,,,,,,,,,,"2007-05-17"
"72793524234","2022-09-25T04:53:00","FM-15","7",,,,,,,,,,,,,,,,,,,,,,,,,,,,,,,,,,,,,,,"30.18","52","55","0.00",,,,"90","30.18","CLR:00","30.15","10.00","53","000",,"0",,,,,,,,,,,,,,,,,,,,,,,,,,,,,,,,,,,,,"MET09009/25/22 04:53:02 METAR KBFI 251253Z 00000KT 10SM CLR 13/11 A3018 RMK AO2 SLP220 T01280111","FM-15","7",,,,,,,,,,,,,,,,,,,,,,,,,,,"2007-05-17"
"72793524234","2022-09-25T05:53:00","FM-15","7",,,,,,,,,,,,,,,,,,,,,,,,,,,,,,,,,,,,,,,"30.19","52","54","0.00",,,,"93","30.18","CLR:00","30.16","10.00","53","000",,"0",,,,,,,,,,,,,,,,,,,,,,,,,,,,,,,,,,,,,"MET09009/25/22 05:53:02 METAR KBFI 251353Z 00000KT 10SM CLR 12/11 A3019 RMK AO2 SLP221 T01220111","FM-15","7",,,,,,,,,,,,,,,,,,,,,,,,,,,"2007-05-17"
"72793524234","2022-09-25T06:53:00","FM-15","7",,,,,,,,,,,,,,,,,,,,,,,,,,,,,,,,,,,,,,,"30.19","53","56","0.00",,"-0.01","3","90","30.19","CLR:00","30.16","10.00","54","000",,"0",,,,,,,,,,,,,,,,,,,,,,,,,,,,,,,,,,,,,"MET10109/25/22 06:53:02 METAR KBFI 251453Z 00000KT 10SM CLR 13/12 A3019 RMK AO2 SLP223 T01330117 53003 (MM)","FM-15","7",,,,,,,,,,,,,,,,,,,,,,,,,,,"2007-05-17"
"72793524234","2022-09-25T07:53:00","FM-15","7",,,,,,,,,,,,,,,,,,,,,,,,,,,,,,,,,,,,,,,"30.19","55","60","0.00",,,,"84","30.19","CLR:00","30.16","10.00","57","VRB",,"3",,,,,,,,,,,,,,,,,,,,,,,,,,,,,,,,,,,,,"MET09509/25/22 07:53:02 METAR KBFI 251553Z VRB03KT 10SM CLR 16/13 A3019 RMK AO2 SLP222 T01560128 (MM)","FM-15","7",,,,,,,,,,,,,,,,,,,,,,,,,,,"2007-05-17"
"72793524234","2022-09-25T08:53:00","FM-15","7",,,,,,,,,,,,,,,,,,,,,,,,,,,,,,,,,,,,,,,"30.19","54","64","0.00",,,,"70","30.19","CLR:00","30.16","10.00","58","050",,"3",,,,,,,,,,,,,,,,,,,,,,,,,,,,,,,,,,,,,"MET09509/25/22 08:53:02 METAR KBFI 251653Z 05003KT 10SM CLR 18/12 A3019 RMK AO2 SLP222 T01780122 (MM)","FM-15","7",,,,,,,,,,,,,,,,,,,,,,,,,,,"2007-05-17"
"72793524234","2022-09-25T09:53:00","FM-15","7",,,,,,,,,,,,,,,,,,,,,,,,,,,,,,,,,,,,,,,"30.18","55","67","0.00",,"+0.01","8","66","30.18","CLR:00","30.15","10.00","60","000",,"0",,,,,,,,,,,,,,,,,,,,,,,,,,,,,,,,,,,,,"MET11309/25/22 09:53:02 METAR KBFI 251753Z 00000KT 10SM CLR 19/13 A3018 RMK AO2 SLP219 T01940128 10194 20111 58004 (MM)","FM-15","7",,,,,,,,,,,,,,,,,,,,,,,,,,,"2007-05-17"
"72793524234","2022-09-25T10:53:00","FM-15","7",,,,,,,,,,,,,,,,,,,,,,,,,,,,,,,,,,,,,,,"30.16","54","69","0.00",,,,"59","30.16","CLR:00","30.13","10.00","60","300",,"7",,,,,,,,,,,,,,,,,,,,,,,,,,,,,,,,,,,,,"MET09509/25/22 10:53:02 METAR KBFI 251853Z 30006KT 10SM CLR 21/12 A3016 RMK AO2 SLP213 T02060122 (MM)","FM-15","7",,,,,,,,,,,,,,,,,,,,,,,,,,,"2007-05-17"
"72793524234","2022-09-25T11:53:00","FM-15","7",,,,,,,,,,,,,,,,,,,,,,,,,,,,,,,,,,,,,,,"30.14","53","72","0.00",,,,"52","30.14","CLR:00","30.11","10.00","61","310",,"7",,,,,,,,,,,,,,,,,,,,,,,,,,,,,,,,,,,,,"MET09509/25/22 11:53:02 METAR KBFI 251953Z 31006KT 10SM CLR 22/12 A3014 RMK AO2 SLP206 T02220117 (MM)","FM-15","7",,,,,,,,,,,,,,,,,,,,,,,,,,,"2007-05-17"
"72793524234","2022-09-25T12:53:00","FM-15","7",,,,,,,,,,,,,,,,,,,,,,,,,,,,,,,,,,,,,,,"30.11","53","73","0.00",,"+0.07","8","50","30.11","CLR:00","30.08","10.00","61","300",,"8",,,,,,,,,,,,,,,,,,,,,,,,,,,,,,,,,,,,,"MET10109/25/22 12:53:02 METAR KBFI 252053Z 30007KT 10SM CLR 23/12 A3011 RMK AO2 SLP196 T02280117 58023 (MM)","FM-15","7",,,,,,,,,,,,,,,,,,,,,,,,,,,"2007-05-17"
"72793524234","2022-09-25T13:53:00","FM-15","7",,,,,,,,,,,,,,,,,,,,,,,,,,,,,,,,,,,,,,,"30.09","52","75","0.00",,,,"45","30.09","CLR:00","30.06","10.00","62","320",,"9",,,,,,,,,,,,,,,,,,,,,,,,,,,,,,,,,,,,,"MET09509/25/22 13:53:02 METAR KBFI 252153Z 32008KT 10SM CLR 24/11 A3009 RMK AO2 SLP188 T02390111 (MM)","FM-15","7",,,,,,,,,,,,,,,,,,,,,,,,,,,"2007-05-17"
"72793524234","2022-09-25T14:53:00","FM-15","7",,,,,,,,,,,,,,,,,,,,,,,,,,,,,,,,,,,,,,,"30.07","54","75","0.00",,,,"48","30.06","CLR:00","30.04","10.00","63","310",,"7",,,,,,,,,,,,,,,,,,,,,,,,,,,,,,,,,,,,,"MET09509/25/22 14:53:02 METAR KBFI 252253Z 31006KT 10SM CLR 24/12 A3007 RMK AO2 SLP181 T02390122 (MM)","FM-15","7",,,,,,,,,,,,,,,,,,,,,,,,,,,"2007-05-17"
"72793524234","2022-09-25T15:53:00","FM-15","7",,,,,,,,,,,,,,,,,,,,,,,,,,,,,,,,,,,,,,,"30.05","54","73","0.00",,"+0.06","6","51","30.05","CLR:00","30.02","10.00","62","310",,"10",,,,,,,,,,,,,,,,,,,,,,,,,,,,,,,,,,,,,"MET11309/25/22 15:53:02 METAR KBFI 252353Z 31009KT 10SM CLR 23/12 A3005 RMK AO2 SLP176 T02280122 10244 20189 56020 (MB)","FM-15","7",,,,,,,,,,,,,,,,,,,,,,,,,,,"2007-05-17"
"72793524234","2022-09-25T16:53:00","FM-15","7",,,,,,,,,,,,,,,,,,,,,,,,,,,,,,,,,,,,,,,"30.04","54","72","0.00",,,,"53","30.04","CLR:00","30.01","10.00","62","310",,"6",,,,,,,,,,,,,,,,,,,,,,,,,,,,,,,,,,,,,"MET09009/25/22 16:53:01 METAR KBFI 260053Z 31005KT 10SM CLR 22/12 A3004 RMK AO2 SLP172 T02220122","FM-15","7",,,,,,,,,,,,,,,,,,,,,,,,,,,"2007-05-17"
"72793524234","2022-09-25T17:53:00","FM-15","7",,,,,,,,,,,,,,,,,,,,,,,,,,,,,,,,,,,,,,,"30.04","54","69","0.00",,,,"59","30.03","CLR:00","30.01","10.00","60","310",,"5",,,,,,,,,,,,,,,,,,,,,,,,,,,,,,,,,,,,,"MET09009/25/22 17:53:01 METAR KBFI 260153Z 31004KT 10SM CLR 21/12 A3004 RMK AO2 SLP170 T02060122","FM-15","7",,,,,,,,,,,,,,,,,,,,,,,,,,,"2007-05-17"
"72793524234","2022-09-25T18:53:00","FM-15","7",,,,,,,,,,,,,,,,,,,,,,,,,,,,,,,,,,,,,,,"30.04","54","67","0.00",,"+0.01","5","63","30.03","CLR:00","30.01","10.00","60","320",,"3",,,,,,,,,,,,,,,,,,,,,,,,,,,,,,,,,,,,,"MET09609/25/22 18:53:01 METAR KBFI 260253Z 32003KT 10SM CLR 19/12 A3004 RMK AO2 SLP171 T01940122 55005","FM-15","7",,,,,,,,,,,,,,,,,,,,,,,,,,,"2007-05-17"
"72793524234","2022-09-25T19:53:00","FM-15","7",,,,,,,,,,,,,,,,,,,,,,,,,,,,,,,,,,,,,,,"30.04","54","65","0.00",,,,"68","30.03","CLR:00","30.01","10.00","59","000",,"0",,,,,,,,,,,,,,,,,,,,,,,,,,,,,,,,,,,,,"MET09009/25/22 19:53:02 METAR KBFI 260353Z 00000KT 10SM CLR 18/12 A3004 RMK AO2 SLP171 T01830122","FM-15","7",,,,,,,,,,,,,,,,,,,,,,,,,,,"2007-05-17"
"72793524234","2022-09-25T20:53:00","FM-15","7",,,,,,,,,,,,,,,,,,,,,,,,,,,,,,,,,,,,,,,"30.04","54","64","0.00",,,,"70","30.03","CLR:00","30.01","10.00","58","000",,"0",,,,,,,,,,,,,,,,,,,,,,,,,,,,,,,,,,,,,"MET09009/25/22 20:53:02 METAR KBFI 260453Z 00000KT 10SM CLR 18/12 A3004 RMK AO2 SLP171 T01780122","FM-15","7",,,,,,,,,,,,,,,,,,,,,,,,,,,"2007-05-17"
"72793524234","2022-09-25T21:53:00","FM-15","7",,,,,,,,,,,,,,,,,,,,,,,,,,,,,,,,,,,,,,,"30.03","54","63","0.00",,"+0.00","8","73","30.03","CLR:00","30.00","10.00","58","000",,"0",,,,,,,,,,,,,,,,,,,,,,,,,,,,,,,,,,,,,"MET10809/25/22 21:53:02 METAR KBFI 260553Z 00000KT 10SM CLR 17/12 A3003 RMK AO2 SLP169 T01720122 10228 20172 58001","FM-15","7",,,,,,,,,,,,,,,,,,,,,,,,,,,"2007-05-17"
"72793524234","2022-09-25T22:53:00","FM-15","7",,,,,,,,,,,,,,,,,,,,,,,,,,,,,,,,,,,,,,,"30.03","53","61","0.00",,,,"75","30.02","CLR:00","30.00","10.00","57","000",,"0",,,,,,,,,,,,,,,,,,,,,,,,,,,,,,,,,,,,,"MET09009/25/22 22:53:02 METAR KBFI 260653Z 00000KT 10SM CLR 16/12 A3003 RMK AO2 SLP167 T01610117","FM-15","7",,,,,,,,,,,,,,,,,,,,,,,,,,,"2007-05-17"
"72793524234","2022-09-25T23:53:00","FM-15","7",,,,,,,,,,,,,,,,,,,,,,,,,,,,,,,,,,,,,,,"30.02","53","59","0.00",,,,"81","30.02","CLR:00","29.99","10.00","56","000",,"0",,,,,,,,,,,,,,,,,,,,,,,,,,,,,,,,,,,,,"MET10009/25/22 23:53:02 METAR KBFI 260753Z 00000KT 10SM CLR 15/12 A3002 RMK AO2 SLP165 T01500117 402440111","FM-15","7",,,,,,,,,,,,,,,,,,,,,,,,,,,"2007-05-17"
"72793524234","2022-09-25T23:59:00","SOD  ","6",,,,,,,,,,,,,,,,,,"64",,,"30.08",,"2.9","0","4.8","1","76","52","290","18","0.00",,,"300","12",,,,,,,,,,,,,,,,,,,,,,,,,,,,,,,,,,,,,,,,,,,,,,,,,,,,,,,,"SOD73024 HR PRECIPITATION (IN):0.00  24 HR MAX TEMP (F):76 24 HR MAX TEMP TIME (LST):1459 24 HR MIN TEMP (F):52 24 HR MIN TEMP TIME (LST):0512 AVERAGE STATION PRESSURE:30.075 MINIMUM SEA LEVEL PRESSURE:30.01 TIME OF OCCURRENCE:2359 PEAK WIND SPEED (MPH):18  PEAK WIND DIR (DEG):290 PEAK WIND TIME (LST):1607  FASTEST 2MIN SPEED (MPH):12 FASTEST 2MIN DIR (DEG):300 FASTEST 2MIN TIME (LST):1234 AVERAGE WIND SPEED (MPH):2.9  24 HR AVG TEMP (F):64 HEATING DEGREE DAYS:1   COOLING DEGREE DAYS:0   LATEST DAY MAX TEMP (0700-1900 LST):76  LATEST NIGHT MIN TEMP(1900-0800 LST):52 HOURLY INCREMENTAL PRECIPITATION VALUES (IN):.00 0.00 0.00 0.00 0.00 0.00 0.00 0.00 0.00 0.00 0.00 0.00 0.00 0.00 0.00 0.00 0.00 0.00 0.00 0.00 0.00 0.00 0.00 0.00","SOD  ","6",,,,,,,,,,,,,,,,,,,,,,,,,"0600","1801","2007-05-17"
"72793524234","2022-09-26T00:53:00","FM-15","7",,,,,,,,,,,,,,,,,,,,,,,,,,,,,,,,,,,,,,,"30.01","53","59","0.00",,"+0.03","8","81","30.00","CLR:00","29.98","10.00","56","000",,"0",,,,,,,,,,,,,,,,,,,,,,,,,,,,,,,,,,,,,"MET10109/26/22 00:53:02 METAR KBFI 260853Z 00000KT 10SM CLR 15/12 A3001 RMK AO2 SLP160 T01500117 58009 (SN)","FM-15","7",,,,,,,,,,,,,,,,,,,,,,,,,,,"2007-05-17"
"72793524234","2022-09-26T01:53:00","FM-15","7",,,,,,,,,,,,,,,,,,,,,,,,,,,,,,,,,,,,,,,"30.00","53","58","0.00",,,,"84","30.00","CLR:00","29.97","10.00","55","000",,"0",,,,,,,,,,,,,,,,,,,,,,,,,,,,,,,,,,,,,"MET09509/26/22 01:53:02 METAR KBFI 260953Z 00000KT 10SM CLR 14/12 A3000 RMK AO2 SLP159 T01440117 (SN)","FM-15","7",,,,,,,,,,,,,,,,,,,,,,,,,,,"2007-05-17"
"72793524234","2022-09-26T02:53:00","FM-15","7",,,,,,,,,,,,,,,,,,,,,,,,,,,,,,,,,,,,,,,"29.99","53","58","0.00",,,,"84","29.99","CLR:00","29.96","10.00","55","000",,"0",,,,,,,,,,,,,,,,,,,,,,,,,,,,,,,,,,,,,"MET09509/26/22 02:53:02 METAR KBFI 261053Z 00000KT 10SM CLR 14/12 A2999 RMK AO2 SLP155 T01440117 (SN)","FM-15","7",,,,,,,,,,,,,,,,,,,,,,,,,,,"2007-05-17"
"72793524234","2022-09-26T03:53:00","FM-15","7",,,,,,,,,,,,,,,,,,,,,,,,,,,,,,,,,,,,,,,"30.00","53","57","0.00",,"+0.01","5","87","29.99","CLR:00","29.97","10.00","55","070",,"3",,,,,,,,,,,,,,,,,,,,,,,,,,,,,,,,,,,,,"MET11309/26/22 03:53:02 METAR KBFI 261153Z 07003KT 10SM CLR 14/12 A3000 RMK AO2 SLP157 T01390117 10172 20122 55003 (SN)","FM-15","7",,,,,,,,,,,,,,,,,,,,,,,,,,,"2007-05-17"
"72793524234","2022-09-26T04:53:00","FM-15","7",,,,,,,,,,,,,,,,,,,,,,,,,,,,,,,,,,,,,,,"30.00","53","57","0.00",,,,"87","30.00","CLR:00","29.97","10.00","55","000",,"0",,,,,,,,,,,,,,,,,,,,,,,,,,,,,,,,,,,,,"MET09509/26/22 04:53:02 METAR KBFI 261253Z 00000KT 10SM CLR 14/12 A3000 RMK AO2 SLP158 T01390117 (MM)","FM-15","7",,,,,,,,,,,,,,,,,,,,,,,,,,,"2007-05-17"
"72793524234","2022-09-26T05:53:00","FM-15","7",,,,,,,,,,,,,,,,,,,,,,,,,,,,,,,,,,,,,,,"30.00","52","54","0.00",,,,"93","30.00","BKN:07 200","29.97","10.00","53","160",,"3",,,,,,,,,,,,,,,,,,,,,,,,,,,,,,,,,,,,,"MET09809/26/22 05:53:02 METAR KBFI 261353Z 16003KT 10SM BKN200 12/11 A3000 RMK AO2 SLP159 T01220111 (MM)","FM-15","7",,,,,,,,,,,,,,,,,,,,,,,,,,,"2007-05-17"
"72793524234","2022-09-26T06:53:00","FM-15","7",,,,,,,,,,,,,,,,,,,,,,,,,,,,,,,,,,,,,,,"30.00","53","57","0.00",,"-0.00","0","87","30.00","BKN:07 190","29.97","10.00","55","000",,"0",,,,,,,,,,,,,,,,,,,,,,,,,,,,,,,,,,,,,"MET10409/26/22 06:53:02 METAR KBFI 261453Z 00000KT 10SM BKN190 14/12 A3000 RMK AO2 SLP158 T01390117 50001 (PC)","FM-15","7",,,,,,,,,,,,,,,,,,,,,,,,,,,"2007-05-17"
"72793524234","2022-09-26T07:53:00","FM-15","7",,,,,,,,,,,,,,,,,,,,,,,,,,,,,,,,,,,,,,,"30.01","56","62","0.00",,,,"80","30.00","CLR:00","29.98","10.00","59","000",,"0",,,,,,,,,,,,,,,,,,,,,,,,,,,,,,,,,,,,,"MET09509/26/22 07:53:02 METAR KBFI 261553Z 00000KT 10SM CLR 17/13 A3001 RMK AO2 SLP160 T01670133 (PC)","FM-15","7",,,,,,,,,,,,,,,,,,,,,,,,,,,"2007-05-17"
"72793524234","2022-09-26T08:53:00","FM-15","7",,,,,,,,,,,,,,,,,,,,,,,,,,,,,,,,,,,,,,,"30.00","55","64","0.00",,,,"73","30.00","CLR:00","29.97","10.00","59","000",,"0",,,,,,,,,,,,,,,,,,,,,,,,,,,,,,,,,,,,,"MET09509/26/22 08:53:02 METAR KBFI 261653Z 00000KT 10SM CLR 18/13 A3000 RMK AO2 SLP158 T01780128 (PC)","FM-15","7",,,,,,,,,,,,,,,,,,,,,,,,,,,"2007-05-17"
"72793524234","2022-09-26T09:53:00","FM-15","7",,,,,,,,,,,,,,,,,,,,,,,,,,,,,,,,,,,,,,,"29.99","55","67","0.00","FU:3 |HZ FU |FU","+0.01","8","66","29.99","SCT:04 200","29.96","10.00","60","VRB",,"3",,,,,,,,,,,,,,,,,,,,,,,,,,,,,,,,,,,,,"MET12109/26/22 09:53:02 METAR KBFI 261753Z VRB03KT 10SM FU SCT200 19/13 A2999 RMK AO2 SLP155 T01940128 10194 20122 58003 $ (PC)","FM-15","7",,,,,,,,,,,,,,,,,,,,,,,,,,,"2007-05-17"
"72793524234","2022-09-26T10:53:00","FM-15","7",,,,,,,,,,,,,,,,,,,,,,,,,,,,,,,,,,,,,,,"29.98","54","70","0.00","FU:3 |HZ FU |FU",,,"57","29.98","CLR:00","29.95","10.00","61","330",,"5",,,,,,,,,,,,,,,,,,,,,,,,,,,,,,,,,,,,,"MET10009/26/22 10:53:02 METAR KBFI 261853Z 33004KT 10SM FU CLR 21/12 A2998 RMK AO2 SLP151 T02110122 $ (PC)","FM-15","7",,,,,,,,,,,,,,,,,,,,,,,,,,,"2007-05-17"
"72793524234","2022-09-26T11:53:00","FM-15","7",,,,,,,,,,,,,,,,,,,,,,,,,,,,,,,,,,,,,,,"29.96","54","73","0.00","FU:3 |HZ FU |FU",,,"51","29.96","CLR:00","29.93","10.00","62","VRB",,"3",,,,,,,,,,,,,,,,,,,,,,,,,,,,,,,,,,,,,"MET10009/26/22 11:53:02 METAR KBFI 261953Z VRB03KT 10SM FU CLR 23/12 A2996 RMK AO2 SLP146 T02280122 $ (PC)","FM-15","7",,,,,,,,,,,,,,,,,,,,,,,,,,,"2007-05-17"
"72793524234","2022-09-26T12:53:00","FM-15","7",,,,,,,,,,,,,,,,,,,,,,,,,,,,,,,,,,,,,,,"29.95","54","76","0.00","FU:3 |HZ FU |FU","+0.04","8","47","29.94","CLR:00","29.92","10.00","63","VRB",,"5",,,,,,,,,,,,,,,,,,,,,,,,,,,,,,,,,,,,,"MET10609/26/22 12:53:02 METAR KBFI 262053Z VRB04KT 10SM FU CLR 24/12 A2995 RMK AO2 SLP140 T02440122 58015 $ (PC)","FM-15","7",,,,,,,,,,,,,,,,,,,,,,,,,,,"2007-05-17"
"72793524234","2022-09-26T13:53:00","FM-15","7",,,,,,,,,,,,,,,,,,,,,,,,,,,,,,,,,,,,,,,"29.93","52","78","0.00","FU:3 |HZ FU |FU",,,"40","29.92","CLR:00","29.90","10.00","63","330",,"5",,,,,,,,,,,,,,,,,,,,,,,,,,,,,,,,,,,,,"MET10009/26/22 13:53:02 METAR KBFI 262153Z 33004KT 10SM FU CLR 26/11 A2993 RMK AO2 SLP133 T02560111 $ (PC)","FM-15","7",,,,,,,,,,,,,,,,,,,,,,,,,,,"2007-05-17"
"72793524234","2022-09-26T14:53:00","FM-15","7",,,,,,,,,,,,,,,,,,,,,,,,,,,,,,,,,,,,,,,"29.91","52","80","0.00","FU:3 |HZ FU |FU",,,"38","29.91","CLR:00","29.88","10.00","63","290",,"3",,,,,,,,,,,,,,,,,,,,,,,,,,,,,,,,,,,,,"MET10009/26/22 14:53:02 METAR KBFI 262253Z 29003KT 10SM FU CLR 27/11 A2991 RMK AO2 SLP127 T02670111 $ (PC)","FM-15","7",,,,,,,,,,,,,,,,,,,,,,,,,,,"2007-05-17"
"72793524234","2022-09-26T15:53:00","FM-15","7",,,,,,,,,,,,,,,,,,,,,,,,,,,,,,,,,,,,,,,"29.90","52","79","0.00","FU:3 |HZ FU |FU","+0.05","6","39","29.90","CLR:00","29.87","10.00","63","VRB",,"6",,,,,,,,,,,,,,,,,,,,,,,,,,,,,,,,,,,,,"MET11809/26/22 15:53:02 METAR KBFI 262353Z VRB05KT 10SM FU CLR 26/11 A2990 RMK AO2 SLP124 T02610111 10272 20194 56016 $ (JP)","FM-15","7",,,,,,,,,,,,,,,,,,,,,,,,,,,"2007-05-17"
"72793524234","2022-09-26T16:53:00","FM-15","7",,,,,,,,,,,,,,,,,,,,,,,,,,,,,,,,,,,,,,,"29.89","52","77","0.00","FU:3 |HZ FU |FU",,,"42","29.89","CLR:00","29.86","10.00","62","310",,"5",,,,,,,,,,,,,,,,,,,,,,,,,,,,,,,,,,,,,"MET09509/26/22 16:53:01 METAR KBFI 270053Z 31004KT 10SM FU CLR 25/11 A2989 RMK AO2 SLP122 T02500111 $","FM-15","7",,,,,,,,,,,,,,,,,,,,,,,,,,,"2007-05-17"
"72793524234","2022-09-26T17:53:00","FM-15","7",,,,,,,,,,,,,,,,,,,,,,,,,,,,,,,,,,,,,,,"29.89","53","74","0.00","FU:3 |HZ FU |FU",,,"48","29.89","CLR:00","29.86","10.00","62","300",,"3",,,,,,,,,,,,,,,,,,,,,,,,,,,,,,,,,,,,,"MET09509/26/22 17:53:01 METAR KBFI 270153Z 30003KT 10SM FU CLR 23/12 A2989 RMK AO2 SLP121 T02330117 $","FM-15","7",,,,,,,,,,,,,,,,,,,,,,,,,,,"2007-05-17"
"72793524234","2022-09-26T18:53:00","FM-15","7",,,,,,,,,,,,,,,,,,,,,,,,,,,,,,,,,,,,,,,"29.90","53","71","0.00","FU:3 |HZ FU |FU","+0.00","5","53","29.89","CLR:00","29.87","10.00","61","000",,"0",,,,,,,,,,,,,,,,,,,,,,,,,,,,,,,,,,,,,"MET10109/26/22 18:53:02 METAR KBFI 270253Z 00000KT 10SM FU CLR 22/12 A2990 RMK AO2 SLP123 T02170117 55001 $","FM-15","7",,,,,,,,,,,,,,,,,,,,,,,,,,,"2007-05-17"
"72793524234","2022-09-26T19:53:00","FM-15","7",,,,,,,,,,,,,,,,,,,,,,,,,,,,,,,,,,,,,,,"29.90","54","67","0.00","FU:3 |HZ FU |FU",,,"63","29.90","CLR:00","29.87","10.00","60","000",,"0",,,,,,,,,,,,,,,,,,,,,,,,,,,,,,,,,,,,,"MET09509/26/22 19:53:02 METAR KBFI 270353Z 00000KT 10SM FU CLR 19/12 A2990 RMK AO2 SLP125 T01940122 $","FM-15","7",,,,,,,,,,,,,,,,,,,,,,,,,,,"2007-05-17"
"72793524234","2022-09-26T20:53:00","FM-15","7",,,,,,,,,,,,,,,,,,,,,,,,,,,,,,,,,,,,,,,"29.90","54","66","0.00","FU:3 |HZ FU |FU",,,"65","29.90","CLR:00","29.87","10.00","59","000",,"0",,,,,,,,,,,,,,,,,,,,,,,,,,,,,,,,,,,,,"MET09509/26/22 20:53:02 METAR KBFI 270453Z 00000KT 10SM FU CLR 19/12 A2990 RMK AO2 SLP125 T01890122 $","FM-15","7",,,,,,,,,,,,,,,,,,,,,,,,,,,"2007-05-17"
"72793524234","2022-09-26T21:53:00","FM-15","7",,,,,,,,,,,,,,,,,,,,,,,,,,,,,,,,,,,,,,,"29.91","53","64","0.00","FU:3 |HZ FU |FU","-0.01","2","68","29.91","CLR:00","29.88","10.00","58","000",,"0",,,,,,,,,,,,,,,,,,,,,,,,,,,,,,,,,,,,,"MET11309/26/22 21:53:02 METAR KBFI 270553Z 00000KT 10SM FU CLR 18/12 A2991 RMK AO2 SLP127 T01780117 10261 20178 52004 $","FM-15","7",,,,,,,,,,,,,,,,,,,,,,,,,,,"2007-05-17"
"72793524234","2022-09-26T22:53:00","FM-15","7",,,,,,,,,,,,,,,,,,,,,,,,,,,,,,,,,,,,,,,"29.91","54","62","0.00","FU:3 |HZ FU |FU",,,"75","29.91","CLR:00","29.88","10.00","58","000",,"0",,,,,,,,,,,,,,,,,,,,,,,,,,,,,,,,,,,,,"MET09509/26/22 22:53:02 METAR KBFI 270653Z 00000KT 10SM FU CLR 17/12 A2991 RMK AO2 SLP128 T01670122 $","FM-15","7",,,,,,,,,,,,,,,,,,,,,,,,,,,"2007-05-17"
"72793524234","2022-09-26T23:53:00","FM-15","7",,,,,,,,,,,,,,,,,,,,,,,,,,,,,,,,,,,,,,,"29.91","52","61","0.00","FU:3 |HZ FU |FU",,,"72","29.91","CLR:00","29.88","10.00","56","000",,"0",,,,,,,,,,,,,,,,,,,,,,,,,,,,,,,,,,,,,"MET10509/26/22 23:53:02 METAR KBFI 270753Z 00000KT 10SM FU CLR 16/11 A2991 RMK AO2 SLP127 T01610111 402720122 $","FM-15","7",,,,,,,,,,,,,,,,,,,,,,,,,,,"2007-05-17"
"72793524234","2022-09-26T23:59:00","SOD  ","6",,,,,,,,,,,,,,,,,,"68",,,"29.91",,"1.9","3","9.1","0","81","54","260","12","0.00",,,"310","7","HZ",,,,,,,,,,,,,,,,,,,,,,,,,,,,,,,,,,,,,,,,,,,,,,,,,,,,,,,"SOD73024 HR PRECIPITATION (IN):0.00  24 HR MAX TEMP (F):81 24 HR MAX TEMP TIME (LST):1515 24 HR MIN TEMP (F):54 24 HR MIN TEMP TIME (LST):0557 AVERAGE STATION PRESSURE:29.910 MINIMUM SEA LEVEL PRESSURE:29.89 TIME OF OCCURRENCE:1921 PEAK WIND SPEED (MPH):12  PEAK WIND DIR (DEG):260 PEAK WIND TIME (LST):1553  FASTEST 2MIN SPEED (MPH):7  FASTEST 2MIN DIR (DEG):310 FASTEST 2MIN TIME (LST):1635 AVERAGE WIND SPEED (MPH):1.9  24 HR AVG TEMP (F):68 HEATING DEGREE DAYS:0   COOLING DEGREE DAYS:3   LATEST DAY MAX TEMP (0700-1900 LST):81  LATEST NIGHT MIN TEMP(1900-0800 LST):54 HOURLY INCREMENTAL PRECIPITATION VALUES (IN):.00 0.00 0.00 0.00 0.00 0.00 0.00 0.00 0.00 0.00 0.00 0.00 0.00 0.00 0.00 0.00 0.00 0.00 0.00 0.00 0.00 0.00 0.00 0.00","SOD  ","6",,,,,,,,,,,,,,,,,,,,,,,,,"0601","1759","2007-05-17"
"72793524234","2022-09-27T00:53:00","FM-15","7",,,,,,,,,,,,,,,,,,,,,,,,,,,,,,,,,,,,,,,"29.91","52","59","0.00","FU:3 |HZ FU |FU","0.00","4","78","29.91","CLR:00","29.88","10.00","55","000",,"0",,,,,,,,,,,,,,,,,,,,,,,,,,,,,,,,,,,,,"MET10609/27/22 00:53:02 METAR KBFI 270853Z 00000KT 10SM FU CLR 15/11 A2991 RMK AO2 SLP127 T01500111 54000 $ (KB)","FM-15","7",,,,,,,,,,,,,,,,,,,,,,,,,,,"2007-05-17"
"72793524234","2022-09-27T01:53:00","FM-15","7",,,,,,,,,,,,,,,,,,,,,,,,,,,,,,,,,,,,,,,"29.90","52","58","0.00","FU:3 |HZ FU |FU",,,"81","29.90","CLR:00","29.87","10.00","55","000",,"0",,,,,,,,,,,,,,,,,,,,,,,,,,,,,,,,,,,,,"MET10009/27/22 01:53:02 METAR KBFI 270953Z 00000KT 10SM FU CLR 14/11 A2990 RMK AO2 SLP125 T01440111 $ (KB)","FM-15","7",,,,,,,,,,,,,,,,,,,,,,,,,,,"2007-05-17"
"72793524234","2022-09-27T02:53:00","FM-15","7",,,,,,,,,,,,,,,,,,,,,,,,,,,,,,,,,,,,,,,"29.89","52","58","0.00","FU:3 |HZ FU |FU",,,"81","29.89","CLR:00","29.86","10.00","55","000",,"0",,,,,,,,,,,,,,,,,,,,,,,,,,,,,,,,,,,,,"MET10009/27/22 02:53:02 METAR KBFI 271053Z 00000KT 10SM FU CLR 14/11 A2989 RMK AO2 SLP122 T01440111 $ (KB)","FM-15","7",,,,,,,,,,,,,,,,,,,,,,,,,,,"2007-05-17"
"72793524234","2022-09-27T03:53:00","FM-15","7",,,,,,,,,,,,,,,,,,,,,,,,,,,,,,,,,,,,,,,"29.89","53","57","0.00","FU:3 |HZ FU |FU","+0.02","6","87","29.89","CLR:00","29.86","10.00","55","000",,"0",,,,,,,,,,,,,,,,,,,,,,,,,,,,,,,,,,,,,"MET11809/27/22 03:53:02 METAR KBFI 271153Z 00000KT 10SM FU CLR 14/12 A2989 RMK AO2 SLP121 T01390117 10178 20139 56006 $ (KB)","FM-15","7",,,,,,,,,,,,,,,,,,,,,,,,,,,"2007-05-17"
"72793524234","2022-09-27T04:53:00","FM-15","7",,,,,,,,,,,,,,,,,,,,,,,,,,,,,,,,,,,,,,,"29.90","53","56","0.00","FU:3 |HZ FU |FU",,,"90","29.90","CLR:00","29.87","10.00","54","000",,"0",,,,,,,,,,,,,,,,,,,,,,,,,,,,,,,,,,,,,"MET10009/27/22 04:53:02 METAR KBFI 271253Z 00000KT 10SM FU CLR 13/12 A2990 RMK AO2 SLP124 T01330117 $ (MB)","FM-15","7",,,,,,,,,,,,,,,,,,,,,,,,,,,"2007-05-17"
"72793524234","2022-09-27T05:53:00","FM-15","7",,,,,,,,,,,,,,,,,,,,,,,,,,,,,,,,,,,,,,,"29.90","51","53","0.00","FU:3 |HZ FU |FU",,,"93","29.90","CLR:00","29.87","10.00","52","150",,"5",,,,,,,,,,,,,,,,,,,,,,,,,,,,,,,,,,,,,"MET09809/27/22 05:53:02 METAR KBFI 271353Z 15004KT 10SM FU CLR 12/11 A2990 RMK AO2 SLP124 T01170106 (MB)","FM-15","7",,,,,,,,,,,,,,,,,,,,,,,,,,,"2007-05-17"
"72793524234","2022-09-27T06:53:00","FM-15","7",,,,,,,,,,,,,,,,,,,,,,,,,,,,,,,,,,,,,,,"29.89","53","55","0.00","FU:3 |HZ FU |FU","-0.00","0","93","29.89","CLR:00","29.86","8.00","54","160",,"5",,,,,,,,,,,,,,,,,,,,,,,,,,,,,,,,,,,,,"MET10309/27/22 06:53:02 METAR KBFI 271453Z 16004KT 8SM FU CLR 13/12 A2989 RMK AO2 SLP122 T01280117 50000 (MB)","FM-15","7",,,,,,,,,,,,,,,,,,,,,,,,,,,"2007-05-17"
"72793524234","2022-09-27T07:53:00","FM-15","7",,,,,,,,,,,,,,,,,,,,,,,,,,,,,,,,,,,,,,,"29.89","54","59","0.00","FU:3 |HZ FU |FU",,,"83","29.89","CLR:00","29.86","8.00","56","000",,"0",,,,,,,,,,,,,,,,,,,,,,,,,,,,,,,,,,,,,"MET09709/27/22 07:53:02 METAR KBFI 271553Z 00000KT 8SM FU CLR 15/12 A2989 RMK AO2 SLP121 T01500122 (MB)","FM-15","7",,,,,,,,,,,,,,,,,,,,,,,,,,,"2007-05-17"
"72793524234","2022-09-27T08:53:00","FM-15","7",,,,,,,,,,,,,,,,,,,,,,,,,,,,,,,,,,,,,,,"29.89","55","64","0.00","HZ:7 FU:3 |HZ FU |FU HZ",,,"73","29.88","CLR:00","29.86","4.00","59","000",,"0",,,,,,,,,,,,,,,,,,,,,,,,,,,,,,,,,,,,,"MET10009/27/22 08:53:02 METAR KBFI 271653Z 00000KT 4SM HZ FU CLR 18/13 A2989 RMK AO2 SLP120 T01780128 (MB)","FM-15","7",,,,,,,,,,,,,,,,,,,,,,,,,,,"2007-05-17"
"72793524234","2022-09-27T09:53:00","FM-15","7",,,,,,,,,,,,,,,,,,,,,,,,,,,,,,,,,,,,,,,"29.88","56","67","0.00","FU:3 |HZ FU |FU","+0.01","8","68","29.88","CLR:00","29.85","9.00","61","200",,"3",,,,,,,,,,,,,,,,,,,,,,,,,,,,,,,,,,,,,"MET11509/27/22 09:53:02 METAR KBFI 271753Z 20003KT 9SM FU CLR 19/13 A2988 RMK AO2 SLP118 T01940133 10194 20117 58004 (MB)","FM-15","7",,,,,,,,,,,,,,,,,,,,,,,,,,,"2007-05-17"
"72793524234","2022-09-27T10:53:00","FM-15","7",,,,,,,,,,,,,,,,,,,,,,,,,,,,,,,,,,,,,,,"29.87","55","69","0.00","HZ:7 FU:3 |HZ FU |FU HZ",,,"61","29.87","CLR:00","29.84","6.00","61","VRB",,"3",,,,,,,,,,,,,,,,,,,,,,,,,,,,,,,,,,,,,"MET10009/27/22 10:53:02 METAR KBFI 271853Z VRB03KT 6SM HZ FU CLR 21/13 A2987 RMK AO2 SLP114 T02060128 (MB)","FM-15","7",,,,,,,,,,,,,,,,,,,,,,,,,,,"2007-05-17"
"72793524234","2022-09-27T11:53:00","FM-15","7",,,,,,,,,,,,,,,,,,,,,,,,,,,,,,,,,,,,,,,"29.87","56","73","0.00","FU:3 |HZ FU |FU",,,"55","29.86","CLR:00","29.84","10.00","63","VRB",,"3",,,,,,,,,,,,,,,,,,,,,,,,,,,,,,,,,,,,,"MET09809/27/22 11:53:02 METAR KBFI 271953Z VRB03KT 10SM FU CLR 23/13 A2987 RMK AO2 SLP113 T02280133 (MB)","FM-15","7",,,,,,,,,,,,,,,,,,,,,,,,,,,"2007-05-17"
"72793524234","2022-09-27T12:53:00","FM-15","7",,,,,,,,,,,,,,,,,,,,,,,,,,,,,,,,,,,,,,,"29.86","57","76","0.00","FU:3 |HZ FU |FU","+0.02","6","52","29.86","CLR:00","29.83","10.00","65","VRB",,"6",,,,,,,,,,,,,,,,,,,,,,,,,,,,,,,,,,,,,"MET10409/27/22 12:53:02 METAR KBFI 272053Z VRB05KT 10SM FU CLR 24/14 A2986 RMK AO2 SLP111 T02440139 56007 (MB)","FM-15","7",,,,,,,,,,,,,,,,,,,,,,,,,,,"2007-05-17"
"72793524234","2022-09-27T13:53:00","FM-15","7",,,,,,,,,,,,,,,,,,,,,,,,,,,,,,,,,,,,,,,"29.86","55","77","0.00","FU:3 |HZ FU |FU",,,"47","29.85","CLR:00","29.83","10.00","64","VRB",,"6",,,,,,,,,,,,,,,,,,,,,,,,,,,,,,,,,,,,,"MET09809/27/22 13:53:02 METAR KBFI 272153Z VRB05KT 10SM FU CLR 25/13 A2986 RMK AO2 SLP110 T02500128 (MB)","FM-15","7",,,,,,,,,,,,,,,,,,,,,,,,,,,"2007-05-17"
"72793524234","2022-09-27T14:53:00","FM-15","7",,,,,,,,,,,,,,,,,,,,,,,,,,,,,,,,,,,,,,,"29.85","56","77","0.00","FU:3 |HZ FU |FU",,,"48","29.85","CLR:00","29.82","10.00","64","170",,"7",,,,,,,,,,,,,,,,,,,,,,,,,,,,,,,,,,,,,"MET09309/27/22 14:53:02 METAR KBFI 272253Z 17006KT 10SM FU CLR 25/13 A2985 RMK AO2 SLP107 T02500133","FM-15","7",,,,,,,,,,,,,,,,,,,,,,,,,,,"2007-05-17"
"72793524234","2022-09-27T15:53:00","FM-15","7",,,,,,,,,,,,,,,,,,,,,,,,,,,,,,,,,,,,,,,"29.85","56","76","0.00","FU:3 |HZ FU |FU","+0.01","5","50","29.85","BKN:07 200","29.82","10.00","64","210","22","7",,,,,,,,,,,,,,,,,,,,,,,,,,,,,,,,,,,,,"MET12209/27/22 15:53:02 METAR KBFI 272353Z 21006G19KT 10SM FU BKN200 24/13 A2985 RMK AO2 SLP108 T02440133 10256 20194 55003 (KB)","FM-15","7",,,,,,,,,,,,,,,,,,,,,,,,,,,"2007-05-17"
"72793524234","2022-09-27T16:53:00","FM-15","7",,,,,,,,,,,,,,,,,,,,,,,,,,,,,,,,,,,,,,,"29.86","54","73","0.00","FU:3 |HZ FU |FU",,,"51","29.85","CLR:00","29.83","10.00","62","VRB",,"6",,,,,,,,,,,,,,,,,,,,,,,,,,,,,,,,,,,,,"MET09309/27/22 16:53:01 METAR KBFI 280053Z VRB05KT 10SM FU CLR 23/12 A2986 RMK AO2 SLP109 T02280122","FM-15","7",,,,,,,,,,,,,,,,,,,,,,,,,,,"2007-05-17"
"72793524234","2022-09-27T17:53:00","FM-15","7",,,,,,,,,,,,,,,,,,,,,,,,,,,,,,,,,,,,,,,"29.87","54","71","0.00","FU:3 |HZ FU |FU",,,"55","29.87","CLR:00","29.84","10.00","61","170",,"7",,,,,,,,,,,,,,,,,,,,,,,,,,,,,,,,,,,,,"MET09309/27/22 17:53:01 METAR KBFI 280153Z 17006KT 10SM FU CLR 22/12 A2987 RMK AO2 SLP114 T02170122","FM-15","7",,,,,,,,,,,,,,,,,,,,,,,,,,,"2007-05-17"
"72793524234","2022-09-27T18:53:00","FM-15","7",,,,,,,,,,,,,,,,,,,,,,,,,,,,,,,,,,,,,,,"29.89","53","65","0.00","FU:3 |HZ FU |FU","-0.04","3","66","29.89","CLR:00","29.86","10.00","58","170",,"8",,,,,,,,,,,,,,,,,,,,,,,,,,,,,,,,,,,,,"MET09909/27/22 18:53:02 METAR KBFI 280253Z 17007KT 10SM FU CLR 18/12 A2989 RMK AO2 SLP121 T01830117 53013","FM-15","7",,,,,,,,,,,,,,,,,,,,,,,,,,,"2007-05-17"
"72793524234","2022-09-27T19:53:00","FM-15","7",,,,,,,,,,,,,,,,,,,,,,,,,,,,,,,,,,,,,,,"29.91","53","62","0.00","FU:3 |HZ FU |FU",,,"73","29.91","CLR:00","29.88","10.00","57","230",,"7",,,,,,,,,,,,,,,,,,,,,,,,,,,,,,,,,,,,,"MET09309/27/22 19:53:02 METAR KBFI 280353Z 23006KT 10SM FU CLR 17/12 A2991 RMK AO2 SLP128 T01670117","FM-15","7",,,,,,,,,,,,,,,,,,,,,,,,,,,"2007-05-17"
"72793524234","2022-09-27T20:53:00","FM-15","7",,,,,,,,,,,,,,,,,,,,,,,,,,,,,,,,,,,,,,,"29.93","53","58","0.00","FU:3 |HZ FU |FU",,,"84","29.92","CLR:00","29.90","10.00","55","180",,"5",,,,,,,,,,,,,,,,,,,,,,,,,,,,,,,,,,,,,"MET09309/27/22 20:53:02 METAR KBFI 280453Z 18004KT 10SM FU CLR 14/12 A2993 RMK AO2 SLP133 T01440117","FM-15","7",,,,,,,,,,,,,,,,,,,,,,,,,,,"2007-05-17"
"72793524234","2022-09-27T21:53:00","FM-15","7",,,,,,,,,,,,,,,,,,,,,,,,,,,,,,,,,,,,,,,"29.93","53","57","0.00","FU:3 |HZ FU |FU","-0.04","1","87","29.93","CLR:00","29.90","10.00","55","150",,"7",,,,,,,,,,,,,,,,,,,,,,,,,,,,,,,,,,,,,"MET11109/27/22 21:53:02 METAR KBFI 280553Z 15006KT 10SM FU CLR 14/12 A2993 RMK AO2 SLP135 T01390117 10244 20139 51014","FM-15","7",,,,,,,,,,,,,,,,,,,,,,,,,,,"2007-05-17"
"72793524234","2022-09-27T22:53:00","FM-15","7",,,,,,,,,,,,,,,,,,,,,,,,,,,,,,,,,,,,,,,"29.94","53","57","0.00","FU:3 |HZ FU |FU",,,"87","29.94","FEW:02 13","29.91","10.00","55","150",,"8",,,,,,,,,,,,,,,,,,,,,,,,,,,,,,,,,,,,,"MET09609/27/22 22:53:02 METAR KBFI 280653Z 15007KT 10SM FU FEW013 14/12 A2994 RMK AO2 SLP139 T01390117","FM-15","7",,,,,,,,,,,,,,,,,,,,,,,,,,,"2007-05-17"
"72793524234","2022-09-27T23:48:00","FM-16","7",,,,,,,,,,,,,,,,,,,,,,,,,,,,,,,,,,,,,,,"29.94","54","55",,"FU:3 |HZ FU |FU",,,"94",,"BKN:07 13","29.91","10.00","54","150",,"9",,,,,,,,,,,,,,,,,,,,,,,,,,,,,,,,,,,,,"MET07909/27/22 23:48:02 SPECI KBFI 280748Z 15008KT 10SM FU BKN013 13/12 A2994 RMK AO2","FM-16","7",,,,,,,,,,,,,,,,,,,,,,,,,,,"2007-05-17"
"72793524234","2022-09-27T23:53:00","FM-15","7",,,,,,,,,,,,,,,,,,,,,,,,,,,,,,,,,,,,,,,"29.94","53","56","0.00","FU:3 |HZ FU |FU",,,"90","29.93","BKN:07 13","29.91","10.00","54","150",,"10",,,,,,,,,,,,,,,,,,,,,,,,,,,,,,,,,,,,,"MET10609/27/22 23:53:02 METAR KBFI 280753Z 15009KT 10SM FU BKN013 13/12 A2994 RMK AO2 SLP137 T01330117 402560117","FM-15","7",,,,,,,,,,,,,,,,,,,,,,,,,,,"2007-05-17"
"72793524234","2022-09-27T23:59:00","SOD  ","6",,,,,,,,,,,,,,,,,,"66",,,"29.85",,"4.3","1","7.4","0","78","53","210","22","0.00",,,"160","13","HZ",,,,,,,,,,,,,,,,,,,,,,,,,,,,,,,,,,,,,,,,,,,,,,,,,,,,,,,"SOD73024 HR PRECIPITATION (IN):0.00  24 HR MAX TEMP (F):78 24 HR MAX TEMP TIME (LST):1340 24 HR MIN TEMP (F):53 24 HR MIN TEMP TIME (LST):0554 AVERAGE STATION PRESSURE:29.850 MINIMUM SEA LEVEL PRESSURE:29.84 TIME OF OCCURRENCE:1537 PEAK WIND SPEED (MPH):22  PEAK WIND DIR (DEG):210 PEAK WIND TIME (LST):1550  FASTEST 2MIN SPEED (MPH):13 FASTEST 2MIN DIR (DEG):160 FASTEST 2MIN TIME (LST):2334 AVERAGE WIND SPEED (MPH):4.3  24 HR AVG TEMP (F):66 HEATING DEGREE DAYS:0   COOLING DEGREE DAYS:1   LATEST DAY MAX TEMP (0700-1900 LST):78  LATEST NIGHT MIN TEMP(1900-0800 LST):53 HOURLY INCREMENTAL PRECIPITATION VALUES (IN):.00 0.00 0.00 0.00 0.00 0.00 0.00 0.00 0.00 0.00 0.00 0.00 0.00 0.00 0.00 0.00 0.00 0.00 0.00 0.00 0.00 0.00 0.00 0.00","SOD  ","6",,,,,,,,,,,,,,,,,,,,,,,,,"0603","1757","2007-05-17"
"72793524234","2022-09-28T00:53:00","FM-15","7",,,,,,,,,,,,,,,,,,,,,,,,,,,,,,,,,,,,,,,"29.93","53","56","0.00","FU:3 |HZ FU |FU","+0.01","8","90","29.93","BKN:07 13","29.90","10.00","54","150",,"11",,,,,,,,,,,,,,,,,,,,,,,,,,,,,,,,,,,,,"MET10709/28/22 00:53:02 METAR KBFI 280853Z 15010KT 10SM FU BKN013 13/12 A2993 RMK AO2 SLP136 T01330117 58003 (MB)","FM-15","7",,,,,,,,,,,,,,,,,,,,,,,,,,,"2007-05-17"
"72793524234","2022-09-28T01:00:00","FM-16","7",,,,,,,,,,,,,,,,,,,,,,,,,,,,,,,,,,,,,,,"29.93","53","56",,"FU:3 |HZ FU |FU",,,"90",,"SCT:04 12","29.90","10.00","54","160",,"9",,,,,,,,,,,,,,,,,,,,,,,,,,,,,,,,,,,,,"MET09409/28/22 01:00:02 SPECI KBFI 280900Z 16008KT 10SM FU SCT012 13/12 A2993 RMK AO2 T01330117 (MB)","FM-16","7",,,,,,,,,,,,,,,,,,,,,,,,,,,"2007-05-17"
"72793524234","2022-09-28T01:07:00","FM-16","7",,,,,,,,,,,,,,,,,,,,,,,,,,,,,,,,,,,,,,,"29.94","53","56",,"FU:3 |HZ FU |FU",,,"90",,"BKN:07 13","29.91","10.00","54","160",,"10",,,,,,,,,,,,,,,,,,,,,,,,,,,,,,,,,,,,,"MET09409/28/22 01:07:02 SPECI KBFI 280907Z 16009KT 10SM FU BKN013 13/12 A2994 RMK AO2 T01330117 (MB)","FM-16","7",,,,,,,,,,,,,,,,,,,,,,,,,,,"2007-05-17"
"72793524234","2022-09-28T01:53:00","FM-15","7",,,,,,,,,,,,,,,,,,,,,,,,,,,,,,,,,,,,,,,"29.94","53","57","0.00","FU:3 |HZ FU |FU",,,"87","29.93","BKN:07 13","29.91","10.00","55","180",,"7",,,,,,,,,,,,,,,,,,,,,,,,,,,,,,,,,,,,,"MET10109/28/22 01:53:02 METAR KBFI 280953Z 18006KT 10SM FU BKN013 14/12 A2994 RMK AO2 SLP137 T01390117 (MB)","FM-15","7",,,,,,,,,,,,,,,,,,,,,,,,,,,"2007-05-17"
"72793524234","2022-09-28T02:53:00","FM-15","7",,,,,,,,,,,,,,,,,,,,,,,,,,,,,,,,,,,,,,,"29.93","52","56","0.00","FU:3 |HZ FU |FU",,,"87","29.93","BKN:07 11","29.90","10.00","54","210",,"3",,,,,,,,,,,,,,,,,,,,,,,,,,,,,,,,,,,,,"MET10109/28/22 02:53:02 METAR KBFI 281053Z 21003KT 10SM FU BKN011 13/11 A2993 RMK AO2 SLP135 T01330111 (MB)","FM-15","7",,,,,,,,,,,,,,,,,,,,,,,,,,,"2007-05-17"
"72793524234","2022-09-28T03:06:00","FM-16","7",,,,,,,,,,,,,,,,,,,,,,,,,,,,,,,,,,,,,,,"29.93","52","55",,"FU:3 |HZ FU |FU",,,"90",,"SCT:04 11","29.90","10.00","53","170",,"5",,,,,,,,,,,,,,,,,,,,,,,,,,,,,,,,,,,,,"MET09409/28/22 03:06:02 SPECI KBFI 281106Z 17004KT 10SM FU SCT011 13/11 A2993 RMK AO2 T01280111 (MB)","FM-16","7",,,,,,,,,,,,,,,,,,,,,,,,,,,"2007-05-17"
"72793524234","2022-09-28T03:53:00","FM-15","7",,,,,,,,,,,,,,,,,,,,,,,,,,,,,,,,,,,,,,,"29.95","52","55","0.00","FU:3 |HZ FU |FU","-0.01","3","90","29.95","CLR:00","29.92","10.00","53","180",,"7",,,,,,,,,,,,,,,,,,,,,,,,,,,,,,,,,,,,,"MET11609/28/22 03:53:02 METAR KBFI 281153Z 18006KT 10SM FU CLR 13/11 A2995 RMK AO2 SLP141 T01280111 10139 20128 53005 (MB)","FM-15","7",,,,,,,,,,,,,,,,,,,,,,,,,,,"2007-05-17"
"72793524234","2022-09-28T04:53:00","FM-15","7",,,,,,,,,,,,,,,,,,,,,,,,,,,,,,,,,,,,,,,"29.96","52","55","0.00","FU:3 |HZ FU |FU",,,"90","29.96","CLR:00","29.93","10.00","53","140",,"9",,,,,,,,,,,,,,,,,,,,,,,,,,,,,,,,,,,,,"MET09809/28/22 04:53:02 METAR KBFI 281253Z 14008KT 10SM FU CLR 13/11 A2996 RMK AO2 SLP144 T01280111 (MB)","FM-15","7",,,,,,,,,,,,,,,,,,,,,,,,,,,"2007-05-17"
"72793524234","2022-09-28T05:53:00","FM-15","7",,,,,,,,,,,,,,,,,,,,,,,,,,,,,,,,,,,,,,,"29.98","52","56","0.00","FU:3 |HZ FU |FU",,,"87","29.98","FEW:02 12 SCT:04 120 BKN:07 250","29.95","10.00","54","140",,"11",,,,,,,,,,,,,,,,,,,,,,,,,,,,,,,,,,,,,"MET11509/28/22 05:53:02 METAR KBFI 281353Z 14010KT 10SM FU FEW012 SCT120 BKN250 13/11 A2998 RMK AO2 SLP151 T01330111 (MB)","FM-15","7",,,,,,,,,,,,,,,,,,,,,,,,,,,"2007-05-17"
"72793524234","2022-09-28T06:53:00","FM-15","7",,,,,,,,,,,,,,,,,,,,,,,,,,,,,,,,,,,,,,,"29.97","52","56","0.00",,"-0.02","0","87","29.97","SCT:04 11 BKN:07 120 BKN:07 200","29.94","10.00","54","130",,"6",,,,,,,,,,,,,,,,,,,,,,,,,,,,,,,,,,,,,"MET11809/28/22 06:53:02 METAR KBFI 281453Z 13005KT 10SM SCT011 BKN120 BKN200 13/11 A2997 RMK AO2 SLP149 T01330111 50007 (SN)","FM-15","7",,,,,,,,,,,,,,,,,,,,,,,,,,,"2007-05-17"
"72793524234","2022-09-28T07:53:00","FM-15","7",,,,,,,,,,,,,,,,,,,,,,,,,,,,,,,,,,,,,,,"29.97","53","57","0.00",,,,"87","29.97","FEW:02 90 FEW:02 110","29.94","10.00","55","000",,"0",,,,,,,,,,,,,,,,,,,,,,,,,,,,,,,,,,,,,"MET10509/28/22 07:53:02 METAR KBFI 281553Z 00000KT 10SM FEW090 FEW110 14/12 A2997 RMK AO2 SLP148 T01390117 (SN)","FM-15","7",,,,,,,,,,,,,,,,,,,,,,,,,,,"2007-05-17"
"72793524234","2022-09-28T08:53:00","FM-15","7",,,,,,,,,,,,,,,,,,,,,,,,,,,,,,,,,,,,,,,"29.98","54","58","0.01","-RA:02 |RA |RA",,,"87","29.98","BKN:07 100 BKN:07 110 BKN:07 200","29.95","10.00","56","160",,"5",,,,,,,,,,,,,,,,,,,,,,,,,,,,,,,,,,,,,"MET12809/28/22 08:53:02 METAR KBFI 281653Z 16004KT 10SM -RA BKN100 BKN110 BKN200 14/12 A2998 RMK AO2 RAB33 SLP151 P0001 T01440122 (SN)","FM-15","7",,,,,,,,,,,,,,,,,,,,,,,,,,,"2007-05-17"
"72793524234","2022-09-28T09:53:00","FM-15","7",,,,,,,,,,,,,,,,,,,,,,,,,,,,,,,,,,,,,,,"29.98","54","59","T","-RA:02 |RA |RA","-0.01","2","83","29.98","FEW:02 65 FEW:02 90 BKN:07 110","29.95","10.00","56","VRB",,"5",,,,,,,,,,,,,,,,,,,,,,,,,,,,,,,,,,,,,"MET15509/28/22 09:53:02 METAR KBFI 281753Z VRB04KT 10SM -RA FEW065 FEW090 BKN110 15/12 A2998 RMK AO2 RAE07B51 SLP151 P0000 60001 T01500122 10150 20122 52002 (SN)","FM-15","7",,,,,,,,,,,,,,,,,,,,,,,,,,,"2007-05-17"
"72793524234","2022-09-28T10:53:00","FM-15","7",,,,,,,,,,,,,,,,,,,,,,,,,,,,,,,,,,,,,,,"30.00","55","59","T","-RA:02 |RA |RA",,,"87","30.00","FEW:02 18 SCT:04 90 OVC:08 110","29.97","10.00","57","160",,"5",,,,,,,,,,,,,,,,,,,,,,,,,,,,,,,,,,,,,"MET13109/28/22 10:53:02 METAR KBFI 281853Z 16004KT 10SM -RA FEW018 SCT090 OVC110 15/13 A3000 RMK AO2 RAE33B51 SLP158 P0000 T01500128 (SN)","FM-15","7",,,,,,,,,,,,,,,,,,,,,,,,,,,"2007-05-17"
"72793524234","2022-09-28T11:53:00","FM-15","7",,,,,,,,,,,,,,,,,,,,,,,,,,,,,,,,,,,,,,,"29.99","56","60","0.01","-RA:02 |RA |RA",,,"86","29.99","SCT:04 19 BKN:07 30 OVC:08 100","29.96","10.00","58","210",,"3",,,,,,,,,,,,,,,,,,,,,,,,,,,,,,,,,,,,,"MET13109/28/22 11:53:02 METAR KBFI 281953Z 21003KT 10SM -RA SCT019 BKN030 OVC100 16/13 A2999 RMK AO2 RAE29B48 SLP156 P0001 T01560133 (SN)","FM-15","7",,,,,,,,,,,,,,,,,,,,,,,,,,,"2007-05-17"
"72793524234","2022-09-28T12:53:00","FM-15","7",,,,,,,,,,,,,,,,,,,,,,,,,,,,,,,,,,,,,,,"29.99","56","61","T",,"-0.01","1","84","29.99","BKN:07 13 OVC:08 16","29.96","10.00","58","180",,"7",,,,,,,,,,,,,,,,,,,,,,,,,,,,,,,,,,,,,"MET12909/28/22 12:53:02 METAR KBFI 282053Z 18006KT 10SM BKN013 OVC016 16/13 A2999 RMK AO2 RAE03 SLP156 P0000 60001 T01610133 51005 (SN)","FM-15","7",,,,,,,,,,,,,,,,,,,,,,,,,,,"2007-05-17"
"72793524234","2022-09-28T13:53:00","FM-15","7",,,,,,,,,,,,,,,,,,,,,,,,,,,,,,,,,,,,,,,"29.99","57","62","0.00",,,,"84","29.99","BKN:07 13 OVC:08 16","29.96","10.00","59","180","18","10",,,,,,,,,,,,,,,,,,,,,,,,,,,,,,,,,,,,,"MET10809/28/22 13:53:02 METAR KBFI 282153Z 18009G16KT 10SM BKN013 OVC016 17/14 A2999 RMK AO2 SLP155 T01670139 (SN)","FM-15","7",,,,,,,,,,,,,,,,,,,,,,,,,,,"2007-05-17"
"72793524234","2022-09-28T14:53:00","FM-15","7",,,,,,,,,,,,,,,,,,,,,,,,,,,,,,,,,,,,,,,"29.99","57","63","0.00",,,,"81","29.98","BKN:07 14 OVC:08 16","29.96","10.00","60","190",,"8",,,,,,,,,,,,,,,,,,,,,,,,,,,,,,,,,,,,,"MET10509/28/22 14:53:02 METAR KBFI 282253Z 19007KT 10SM BKN014 OVC016 17/14 A2999 RMK AO2 SLP154 T01720139 (SN)","FM-15","7",,,,,,,,,,,,,,,,,,,,,,,,,,,"2007-05-17"
"72793524234","2022-09-28T15:00:00","FM-16","7",,,,,,,,,,,,,,,,,,,,,,,,,,,,,,,,,,,,,,,"29.99","57","63",,,,,"81",,"BKN:07 18 OVC:08 55","29.96","10.00","60","150",,"8",,,,,,,,,,,,,,,,,,,,,,,,,,,,,,,,,,,,,"MET09809/28/22 15:00:02 SPECI KBFI 282300Z 15007KT 10SM BKN018 OVC055 17/14 A2999 RMK AO2 T01720139 (SN)","FM-16","7",,,,,,,,,,,,,,,,,,,,,,,,,,,"2007-05-17"
"72793524234","2022-09-28T15:51:00","FM-16","6",,,,,,,,,,,,,,,,,,,,,,,,,,,,,,,,,,,,,,,"29.98","57","64",,,,,"78",,"FEW:02 32 OVC:08 70","29.95","10.00","60","140",,"9",,,,,,,,,,,,,,,,,,,,,,,,,,,,,,,,,,,,,"MET09409/28/22 15:51:02 SPECI KBFI 282351Z 14008KT 10SM FEW032 OVC070 18/14 A2998 RMK AO2 FIBI (TWR)","FM-16","6",,,,,,,,,,,,,,,,,,,,,,,,,,,"2007-05-17"
"72793524234","2022-09-28T15:53:00","FM-15","7",,,,,,,,,,,,,,,,,,,,,,,,,,,,,,,,,,,,,,,"29.98","57","65","0.00",,"+0.01","6","76","29.98","FEW:02 32 OVC:08 70","29.95","10.00","60","150",,"9",,,,,,,,,,,,,,,,,,,,,,,,,,,,,,,,,,,,,"MET13009/28/22 15:53:02 METAR KBFI 282353Z 15008KT 10SM FEW032 OVC070 18/14 A2998 RMK AO2 SLP153 60001 T01830139 10183 20144 56003 (TWR)","FM-15","7",,,,,,,,,,,,,,,,,,,,,,,,,,,"2007-05-17"
"72793524234","2022-09-28T16:53:00","FM-15","7",,,,,,,,,,,,,,,,,,,,,,,,,,,,,,,,,,,,,,,"29.99","56","65","0.00",,,,"73","29.98","CLR:00","29.96","10.00","60","170",,"7",,,,,,,,,,,,,,,,,,,,,,,,,,,,,,,,,,,,,"MET09009/28/22 16:53:01 METAR KBFI 290053Z 17006KT 10SM CLR 18/13 A2999 RMK AO2 SLP154 T01830133","FM-15","7",,,,,,,,,,,,,,,,,,,,,,,,,,,"2007-05-17"
"72793524234","2022-09-28T17:53:00","FM-15","7",,,,,,,,,,,,,,,,,,,,,,,,,,,,,,,,,,,,,,,"30.00","55","64","0.00",,,,"73","30.00","SCT:04 90","29.97","10.00","59","190",,"3",,,,,,,,,,,,,,,,,,,,,,,,,,,,,,,,,,,,,"MET09309/28/22 17:53:01 METAR KBFI 290153Z 19003KT 10SM SCT090 18/13 A3000 RMK AO2 SLP158 T01780128","FM-15","7",,,,,,,,,,,,,,,,,,,,,,,,,,,"2007-05-17"
"72793524234","2022-09-28T18:53:00","FM-15","7",,,,,,,,,,,,,,,,,,,,,,,,,,,,,,,,,,,,,,,"30.01","56","62","0.00",,"-0.03","3","80","30.01","FEW:02 26","29.98","10.00","59","000",,"0",,,,,,,,,,,,,,,,,,,,,,,,,,,,,,,,,,,,,"MET09909/28/22 18:53:01 METAR KBFI 290253Z 00000KT 10SM FEW026 17/13 A3001 RMK AO2 SLP163 T01670133 53010","FM-15","7",,,,,,,,,,,,,,,,,,,,,,,,,,,"2007-05-17"
"72793524234","2022-09-28T19:53:00","FM-15","7",,,,,,,,,,,,,,,,,,,,,,,,,,,,,,,,,,,,,,,"30.03","55","61","0.00",,,,"81","30.03","BKN:07 55","30.00","10.00","58","000",,"0",,,,,,,,,,,,,,,,,,,,,,,,,,,,,,,,,,,,,"MET09309/28/22 19:53:02 METAR KBFI 290353Z 00000KT 10SM BKN055 16/13 A3003 RMK AO2 SLP169 T01610128","FM-15","7",,,,,,,,,,,,,,,,,,,,,,,,,,,"2007-05-17"
"72793524234","2022-09-28T20:53:00","FM-15","7",,,,,,,,,,,,,,,,,,,,,,,,,,,,,,,,,,,,,,,"30.03","53","62","0.00",,,,"73","30.03","OVC:08 90","30.00","10.00","57","000",,"0",,,,,,,,,,,,,,,,,,,,,,,,,,,,,,,,,,,,,"MET09309/28/22 20:53:02 METAR KBFI 290453Z 00000KT 10SM OVC090 17/12 A3003 RMK AO2 SLP169 T01670117","FM-15","7",,,,,,,,,,,,,,,,,,,,,,,,,,,"2007-05-17"
"72793524234","2022-09-28T21:53:00","FM-15","7",,,,,,,,,,,,,,,,,,,,,,,,,,,,,,,,,,,,,,,"30.03","52","61","0.00",,"-0.02","0","72","30.03","FEW:02 36 BKN:07 85","30.00","10.00","56","070",,"3",,,,,,,,,,,,,,,,,,,,,,,,,,,,,,,,,,,,,"MET11809/28/22 21:53:02 METAR KBFI 290553Z 07003KT 10SM FEW036 BKN085 16/11 A3003 RMK AO2 SLP169 T01610111 10189 20156 50006","FM-15","7",,,,,,,,,,,,,,,,,,,,,,,,,,,"2007-05-17"
"72793524234","2022-09-28T22:53:00","FM-15","7",,,,,,,,,,,,,,,,,,,,,,,,,,,,,,,,,,,,,,,"30.03","54","60","0.00",,,,"80","30.03","BKN:07 85","30.00","10.00","57","000",,"0",,,,,,,,,,,,,,,,,,,,,,,,,,,,,,,,,,,,,"MET09309/28/22 22:53:02 METAR KBFI 290653Z 00000KT 10SM BKN085 16/12 A3003 RMK AO2 SLP168 T01560122","FM-15","7",,,,,,,,,,,,,,,,,,,,,,,,,,,"2007-05-17"
"72793524234","2022-09-28T23:53:00","FM-15","7",,,,,,,,,,,,,,,,,,,,,,,,,,,,,,,,,,,,,,,"30.03","53","58","0.00",,,,"84","30.03","SCT:04 35","30.00","10.00","55","000",,"0",,,,,,,,,,,,,,,,,,,,,,,,,,,,,,,,,,,,,"MET10309/28/22 23:53:02 METAR KBFI 290753Z 00000KT 10SM SCT035 14/12 A3003 RMK AO2 SLP168 T01440117 401890122","FM-15","7",,,,,,,,,,,,,,,,,,,,,,,,,,,"2007-05-17"
"72793524234","2022-09-28T23:59:00","SOD  ","6",,,,,,,,,,,,,,,,,,"60",,,"29.95",,"5.0","0","1.7","5","66","54","170","21","0.02",,,"150","13","RA HZ",,,,,,,,,,,,,,,,,,,,,,,,,,,,,,,,,,,,,,,,,,,,,,,,,,,,,,,"SOD73024 HR PRECIPITATION (IN):0.02  24 HR MAX TEMP (F):66 24 HR MAX TEMP TIME (LST):1650 24 HR MIN TEMP (F):54 24 HR MIN TEMP TIME (LST):0418 AVERAGE STATION PRESSURE:29.950 MINIMUM SEA LEVEL PRESSURE:29.93 TIME OF OCCURRENCE:0339 PEAK WIND SPEED (MPH):21  PEAK WIND DIR (DEG):170 PEAK WIND TIME (LST):1326  FASTEST 2MIN SPEED (MPH):13 FASTEST 2MIN DIR (DEG):150 FASTEST 2MIN TIME (LST):1351 AVERAGE WIND SPEED (MPH):5.0  24 HR AVG TEMP (F):60 HEATING DEGREE DAYS:5   COOLING DEGREE DAYS:0   LATEST DAY MAX TEMP (0700-1900 LST):66  LATEST NIGHT MIN TEMP(1900-0800 LST):54 HOURLY INCREMENTAL PRECIPITATION VALUES (IN):.00 0.00 0.00 0.00 0.00 0.00 0.00 0.00 0.01 T    T    0.01 T    0.00 0.00 0.00 0.00 0.00 0.00 0.00 0.00 0.00 0.00 0.00","SOD  ","6",,,,,,,,,,,,,,,,,,,,,,,,,"0604","1755","2007-05-17"
"72793524234","2022-09-29T00:53:00","FM-15","7",,,,,,,,,,,,,,,,,,,,,,,,,,,,,,,,,,,,,,,"30.04","53","59","0.00",,"-0.01","3","81","30.03","FEW:02 37 OVC:08 80","30.01","10.00","56","000",,"0",,,,,,,,,,,,,,,,,,,,,,,,,,,,,,,,,,,,,"MET11109/29/22 00:53:02 METAR KBFI 290853Z 00000KT 10SM FEW037 OVC080 15/12 A3004 RMK AO2 SLP171 T01500117 53002 (SN)","FM-15","7",,,,,,,,,,,,,,,,,,,,,,,,,,,"2007-05-17"
"72793524234","2022-09-29T01:53:00","FM-15","7",,,,,,,,,,,,,,,,,,,,,,,,,,,,,,,,,,,,,,,"30.04","53","58","0.00",,,,"84","30.03","BKN:07 90","30.01","10.00","55","000",,"0",,,,,,,,,,,,,,,,,,,,,,,,,,,,,,,,,,,,,"MET09809/29/22 01:53:02 METAR KBFI 290953Z 00000KT 10SM BKN090 14/12 A3004 RMK AO2 SLP171 T01440117 (SN)","FM-15","7",,,,,,,,,,,,,,,,,,,,,,,,,,,"2007-05-17"
"72793524234","2022-09-29T02:53:00","FM-15","7",,,,,,,,,,,,,,,,,,,,,,,,,,,,,,,,,,,,,,,"30.06","54","58","0.00",,,,"87","30.06","BKN:07 75 OVC:08 90","30.03","10.00","56","000",,"0",,,,,,,,,,,,,,,,,,,,,,,,,,,,,,,,,,,,,"MET10509/29/22 02:53:02 METAR KBFI 291053Z 00000KT 10SM BKN075 OVC090 14/12 A3006 RMK AO2 SLP178 T01440122 (SN)","FM-15","7",,,,,,,,,,,,,,,,,,,,,,,,,,,"2007-05-17"
"72793524234","2022-09-29T03:53:00","FM-15","7",,,,,,,,,,,,,,,,,,,,,,,,,,,,,,,,,,,,,,,"30.06","54","58","0.00",,"-0.02","3","87","30.06","BKN:07 48 OVC:08 90","30.03","10.00","56","000",,"0",,,,,,,,,,,,,,,,,,,,,,,,,,,,,,,,,,,,,"MET12909/29/22 03:53:02 METAR KBFI 291153Z 00000KT 10SM BKN048 OVC090 14/12 A3006 RMK AO2 SLP179 70002 T01440122 10161 20144 53008 (SN)","FM-15","7",,,,,,,,,,,,,,,,,,,,,,,,,,,"2007-05-17"
"72793524234","2022-09-29T04:53:00","FM-15","7",,,,,,,,,,,,,,,,,,,,,,,,,,,,,,,,,,,,,,,"30.08","54","58","0.00",,,,"87","30.08","OVC:08 49","30.05","10.00","56","000",,"0",,,,,,,,,,,,,,,,,,,,,,,,,,,,,,,,,,,,,"MET09809/29/22 04:53:02 METAR KBFI 291253Z 00000KT 10SM OVC049 14/12 A3008 RMK AO2 SLP185 T01440122 (SN)","FM-15","7",,,,,,,,,,,,,,,,,,,,,,,,,,,"2007-05-17"
"72793524234","2022-09-29T05:53:00","FM-15","7",,,,,,,,,,,,,,,,,,,,,,,,,,,,,,,,,,,,,,,"30.09","54","57","0.00",,,,"90","30.09","BKN:07 48","30.06","10.00","55","280",,"3",,,,,,,,,,,,,,,,,,,,,,,,,,,,,,,,,,,,,"MET09809/29/22 05:53:02 METAR KBFI 291353Z 28003KT 10SM BKN048 14/12 A3009 RMK AO2 SLP190 T01390122 (SN)","FM-15","7",,,,,,,,,,,,,,,,,,,,,,,,,,,"2007-05-17"
"72793524234","2022-09-29T06:53:00","FM-15","7",,,,,,,,,,,,,,,,,,,,,,,,,,,,,,,,,,,,,,,"30.11","54","58","0.00",,"-0.05","3","87","30.11","SCT:04 42","30.08","10.00","56","000",,"0",,,,,,,,,,,,,,,,,,,,,,,,,,,,,,,,,,,,,"MET10409/29/22 06:53:02 METAR KBFI 291453Z 00000KT 10SM SCT042 14/12 A3011 RMK AO2 SLP197 T01440122 53018 (SN)","FM-15","7",,,,,,,,,,,,,,,,,,,,,,,,,,,"2007-05-17"
"72793524234","2022-09-29T07:53:00","FM-15","7",,,,,,,,,,,,,,,,,,,,,,,,,,,,,,,,,,,,,,,"30.13","55","60","0.00",,,,"84","30.13","OVC:08 40","30.10","10.00","57","300",,"3",,,,,,,,,,,,,,,,,,,,,,,,,,,,,,,,,,,,,"MET09809/29/22 07:53:02 METAR KBFI 291553Z 30003KT 10SM OVC040 16/13 A3013 RMK AO2 SLP202 T01560128 (SN)","FM-15","7",,,,,,,,,,,,,,,,,,,,,,,,,,,"2007-05-17"
"72793524234","2022-09-29T08:53:00","FM-15","7",,,,,,,,,,,,,,,,,,,,,,,,,,,,,,,,,,,,,,,"30.15","54","60","0.00",,,,"80","30.14","OVC:08 46","30.12","10.00","57","310",,"5",,,,,,,,,,,,,,,,,,,,,,,,,,,,,,,,,,,,,"MET09809/29/22 08:53:02 METAR KBFI 291653Z 31004KT 10SM OVC046 16/12 A3015 RMK AO2 SLP208 T01560122 (JP)","FM-15","7",,,,,,,,,,,,,,,,,,,,,,,,,,,"2007-05-17"
"72793524234","2022-09-29T09:53:00","FM-15","7",,,,,,,,,,,,,,,,,,,,,,,,,,,,,,,,,,,,,,,"30.16","54","63","0.00",,"-0.05","3","73","30.16","BKN:07 45","30.13","10.00","58","300",,"7",,,,,,,,,,,,,,,,,,,,,,,,,,,,,,,,,,,,,"MET11609/29/22 09:53:02 METAR KBFI 291753Z 30006KT 10SM BKN045 17/12 A3016 RMK AO2 SLP213 T01720122 10172 20139 53016 (JP)","FM-15","7",,,,,,,,,,,,,,,,,,,,,,,,,,,"2007-05-17"
"72793524234","2022-09-29T10:53:00","FM-15","7",,,,,,,,,,,,,,,,,,,,,,,,,,,,,,,,,,,,,,,"30.16","54","66","0.00",,,,"65","30.16","BKN:07 70","30.13","10.00","59","300",,"7",,,,,,,,,,,,,,,,,,,,,,,,,,,,,,,,,,,,,"MET09809/29/22 10:53:02 METAR KBFI 291853Z 30006KT 10SM BKN070 19/12 A3016 RMK AO2 SLP214 T01890122 (JP)","FM-15","7",,,,,,,,,,,,,,,,,,,,,,,,,,,"2007-05-17"
"72793524234","2022-09-29T11:53:00","FM-15","7",,,,,,,,,,,,,,,,,,,,,,,,,,,,,,,,,,,,,,,"30.17","54","67","0.00",,,,"63","30.16","OVC:08 44","30.14","10.00","60","320",,"5",,,,,,,,,,,,,,,,,,,,,,,,,,,,,,,,,,,,,"MET09809/29/22 11:53:02 METAR KBFI 291953Z 32004KT 10SM OVC044 19/12 A3017 RMK AO2 SLP214 T01940122 (JP)","FM-15","7",,,,,,,,,,,,,,,,,,,,,,,,,,,"2007-05-17"
"72793524234","2022-09-29T12:53:00","FM-15","7",,,,,,,,,,,,,,,,,,,,,,,,,,,,,,,,,,,,,,,"30.17","54","68","0.00",,"-0.01","2","61","30.16","OVC:08 50","30.14","10.00","60","280",,"9",,,,,,,,,,,,,,,,,,,,,,,,,,,,,,,,,,,,,"MET10409/29/22 12:53:02 METAR KBFI 292053Z 28008KT 10SM OVC050 20/12 A3017 RMK AO2 SLP215 T02000122 52002 (JP)","FM-15","7",,,,,,,,,,,,,,,,,,,,,,,,,,,"2007-05-17"
"72793524234","2022-09-29T13:53:00","FM-15","7",,,,,,,,,,,,,,,,,,,,,,,,,,,,,,,,,,,,,,,"30.16","53","69","0.00",,,,"57","30.16","SCT:04 50","30.13","10.00","60","310",,"7",,,,,,,,,,,,,,,,,,,,,,,,,,,,,,,,,,,,,"MET09809/29/22 13:53:02 METAR KBFI 292153Z 31006KT 10SM SCT050 21/12 A3016 RMK AO2 SLP214 T02060117 (JP)","FM-15","7",,,,,,,,,,,,,,,,,,,,,,,,,,,"2007-05-17"
"72793524234","2022-09-29T14:53:00","FM-15","7",,,,,,,,,,,,,,,,,,,,,,,,,,,,,,,,,,,,,,,"30.17","51","70","0.00",,,,"51","30.16","CLR:00","30.14","10.00","59","310",,"8",,,,,,,,,,,,,,,,,,,,,,,,,,,,,,,,,,,,,"MET09509/29/22 14:53:02 METAR KBFI 292253Z 31007KT 10SM CLR 21/11 A3017 RMK AO2 SLP215 T02110106 (JP)","FM-15","7",,,,,,,,,,,,,,,,,,,,,,,,,,,"2007-05-17"
"72793524234","2022-09-29T15:53:00","FM-15","7",,,,,,,,,,,,,,,,,,,,,,,,,,,,,,,,,,,,,,,"30.17","53","69","0.00",,"-0.01","3","57","30.17","SCT:04 65","30.14","10.00","60","VRB",,"8",,,,,,,,,,,,,,,,,,,,,,,,,,,,,,,,,,,,,"MET11609/29/22 15:53:02 METAR KBFI 292353Z 29007KT 10SM SCT065 21/12 A3017 RMK AO2 SLP217 T02060117 10217 20172 53002 (JP)","FM-15","7",,,,,,,,,,,,,,,,,,,,,,,,,,,"2007-05-17"
"72793524234","2022-09-29T16:53:00","FM-15","7",,,,,,,,,,,,,,,,,,,,,,,,,,,,,,,,,,,,,,,"30.18","53","68","0.00",,,,"59","30.17","CLR:00","30.15","10.00","59","300",,"6",,,,,,,,,,,,,,,,,,,,,,,,,,,,,,,,,,,,,"MET09009/29/22 16:53:01 METAR KBFI 300053Z 30005KT 10SM CLR 20/12 A3018 RMK AO2 SLP218 T02000117","FM-15","7",,,,,,,,,,,,,,,,,,,,,,,,,,,"2007-05-17"
"72793524234","2022-09-29T17:53:00","FM-15","7",,,,,,,,,,,,,,,,,,,,,,,,,,,,,,,,,,,,,,,"30.18","52","65","0.00",,,,"63","30.18","CLR:00","30.15","10.00","58","310",,"3",,,,,,,,,,,,,,,,,,,,,,,,,,,,,,,,,,,,,"MET09009/29/22 17:53:01 METAR KBFI 300153Z 31003KT 10SM CLR 18/11 A3018 RMK AO2 SLP221 T01830111","FM-15","7",,,,,,,,,,,,,,,,,,,,,,,,,,,"2007-05-17"
"72793524234","2022-09-29T18:53:00","FM-15","7",,,,,,,,,,,,,,,,,,,,,,,,,,,,,,,,,,,,,,,"30.19","53","64","0.00",,"-0.01","3","68","30.19","CLR:00","30.16","10.00","58","300",,"3",,,,,,,,,,,,,,,,,,,,,,,,,,,,,,,,,,,,,"MET09609/29/22 18:53:02 METAR KBFI 300253Z 30003KT 10SM CLR 18/12 A3019 RMK AO2 SLP222 T01780117 53005","FM-15","7",,,,,,,,,,,,,,,,,,,,,,,,,,,"2007-05-17"
"72793524234","2022-09-29T19:53:00","FM-15","7",,,,,,,,,,,,,,,,,,,,,,,,,,,,,,,,,,,,,,,"30.20","52","62","0.00",,,,"70","30.19","CLR:00","30.17","10.00","57","000",,"0",,,,,,,,,,,,,,,,,,,,,,,,,,,,,,,,,,,,,"MET09009/29/22 19:53:02 METAR KBFI 300353Z 00000KT 10SM CLR 17/11 A3020 RMK AO2 SLP225 T01670111","FM-15","7",,,,,,,,,,,,,,,,,,,,,,,,,,,"2007-05-17"
"72793524234","2022-09-29T20:53:00","FM-15","7",,,,,,,,,,,,,,,,,,,,,,,,,,,,,,,,,,,,,,,"30.21","53","60","0.00",,,,"78","30.20","CLR:00","30.18","10.00","56","000",,"0",,,,,,,,,,,,,,,,,,,,,,,,,,,,,,,,,,,,,"MET09009/29/22 20:53:02 METAR KBFI 300453Z 00000KT 10SM CLR 16/12 A3021 RMK AO2 SLP228 T01560117","FM-15","7",,,,,,,,,,,,,,,,,,,,,,,,,,,"2007-05-17"
"72793524234","2022-09-29T21:53:00","FM-15","4",,,,,,,,,,,,,,,,,,,,,,,,,,,,,,,,,,,,,,,"30.21","53","60",,,"-0.02","1","78","30.20",,,"10.00",,"000",,"0",,,,,,,,,,,,,,,,,,,,,,,,,,,,,,,,,,,,,"MET091METAR KBFI 300553Z 00000KT 10SM CLR 16/12 A3021 RMK AO2 SLP228 T01560117 10211 20150 51007=","FM-15","4",,,,,,,,,,,,,,,,,,,,,,,,,,,"2007-05-17"
"72793524234","2022-09-29T22:53:00","FM-15","4",,,,,,,,,,,,,,,,,,,,,,,,,,,,,,,,,,,,,,,"30.22","53","59",,,,,"81","30.22",,,"10.00",,"VRB",,"3",,,,,,,,,,,,,,,,,,,,,,,,,,,,,,,,,,,,,"MET083METAR KBFI 300653Z VRB03KT 10SM FEW039 SCT060 15/12 A3022 RMK AO2 SLP232 T01500117=","FM-15","4",,,,,,,,,,,,,,,,,,,,,,,,,,,"2007-05-17"
"72793524234","2022-09-29T23:53:00","FM-15","4",,,,,,,,,,,,,,,,,,,,,,,,,,,,,,,,,,,,,,,"30.21","53","58",,,,,"84","30.21",,,"10.00",,"000",,"0",,,,,,,,,,,,,,,,,,,,,,,,,,,,,,,,,,,,,"MET083METAR KBFI 300753Z 00000KT 10SM CLR 14/12 A3021 RMK AO2 SLP231 T01440117 402170139=","FM-15","4",,,,,,,,,,,,,,,,,,,,,,,,,,,"2007-05-17"
"72793524234","2022-09-29T23:59:00","SOD  ","6",,,,,,,,,,,,,,,,,,"64",,,"30.11",,"3.3","0","6.0","1","71","57","300","17","0.00",,,"300","10",,,,,,,,,,,,,,,,,,,,,,,,,,,,,,,,,,,,,,,,,,,,,,,,,,,,,,,,"SOD73024 HR PRECIPITATION (IN):0.00  24 HR MAX TEMP (F):71 24 HR MAX TEMP TIME (LST):1448 24 HR MIN TEMP (F):57 24 HR MIN TEMP TIME (LST):0640 AVERAGE STATION PRESSURE:30.115 MINIMUM SEA LEVEL PRESSURE:30.03 TIME OF OCCURRENCE:0146 PEAK WIND SPEED (MPH):17  PEAK WIND DIR (DEG):300 PEAK WIND TIME (LST):1227  FASTEST 2MIN SPEED (MPH):10 FASTEST 2MIN DIR (DEG):300 FASTEST 2MIN TIME (LST):1506 AVERAGE WIND SPEED (MPH):3.3  24 HR AVG TEMP (F):64 HEATING DEGREE DAYS:1   COOLING DEGREE DAYS:0   LATEST DAY MAX TEMP (0700-1900 LST):71  LATEST NIGHT MIN TEMP(1900-0800 LST):57 HOURLY INCREMENTAL PRECIPITATION VALUES (IN):.00 0.00 0.00 0.00 0.00 0.00 0.00 0.00 0.00 0.00 0.00 0.00 0.00 0.00 0.00 0.00 0.00 0.00 0.00 0.00 0.00 0.00 0.00 0.00","SOD  ","6",,,,,,,,,,,,,,,,,,,,,,,,,"0605","1753","2007-05-17"
"72793524234","2022-09-30T00:53:00","FM-15","4",,,,,,,,,,,,,,,,,,,,,,,,,,,,,,,,,,,,,,,"30.22","53","58",,,"-0.01","1","84","30.22",,,"10.00",,"000",,"0",,,,,,,,,,,,,,,,,,,,,,,,,,,,,,,,,,,,,"MET082METAR KBFI 300853Z 00000KT 10SM BKN036 14/12 A3022 RMK AO2 SLP233 T01440117 51005=","FM-15","4",,,,,,,,,,,,,,,,,,,,,,,,,,,"2007-05-17"
"72793524234","2022-09-30T01:53:00","FM-15","4",,,,,,,,,,,,,,,,,,,,,,,,,,,,,,,,,,,,,,,"30.23","53","58",,,,,"84","30.23",,,"10.00",,"000",,"0",,,,,,,,,,,,,,,,,,,,,,,,,,,,,,,,,,,,,"MET076METAR KBFI 300953Z 00000KT 10SM OVC036 14/12 A3023 RMK AO2 SLP236 T01440117=","FM-15","4",,,,,,,,,,,,,,,,,,,,,,,,,,,"2007-05-17"
"72793524234","2022-09-30T02:53:00","FM-15","4",,,,,,,,,,,,,,,,,,,,,,,,,,,,,,,,,,,,,,,"30.23","53","56",,,,,"90","30.22",,,"10.00",,"000",,"0",,,,,,,,,,,,,,,,,,,,,,,,,,,,,,,,,,,,,"MET076METAR KBFI 301053Z 00000KT 10SM FEW055 13/12 A3023 RMK AO2 SLP235 T01330117=","FM-15","4",,,,,,,,,,,,,,,,,,,,,,,,,,,"2007-05-17"
"72793524234","2022-09-30T03:31:00","FM-16","4",,,,,,,,,,,,,,,,,,,,,,,,,,,,,,,,,,,,,,,"30.23","53","55",,,,,"93",,,,"10.00",,"000",,"0",,,,,,,,,,,,,,,,,,,,,,,,,,,,,,,,,,,,,"MET069SPECI KBFI 301131Z 00000KT 10SM SCT007 13/12 A3023 RMK AO2 T01280117=","FM-16","4",,,,,,,,,,,,,,,,,,,,,,,,,,,"2007-05-17"
"72793524234","2022-09-30T03:40:00","FM-16","7",,,,,,,,,,,,,,,,,,,,,,,,,,,,,,,,,,,,,,,"30.23","53","56",,,,,"90",,"BKN:07 8","30.20","10.00","54","VRB",,"3",,,,,,,,,,,,,,,,,,,,,,,,,,,,,,,,,,,,,"MET09109/30/22 03:40:02 SPECI KBFI 301140Z VRB03KT 10SM BKN008 13/12 A3023 RMK AO2 T01330117 (SR)","FM-16","7",,,,,,,,,,,,,,,,,,,,,,,,,,,"2007-05-17"
"72793524234","2022-09-30T03:53:00","FM-15","4",,,,,,,,,,,,,,,,,,,,,,,,,,,,,,,,,,,,,,,"30.23","53","55",,,"-0.01","1","93","30.23",,,"10.00",,"VRB",,"5",,,,,,,,,,,,,,,,,,,,,,,,,,,,,,,,,,,,,"MET094METAR KBFI 301153Z VRB04KT 10SM BKN008 13/12 A3023 RMK AO2 SLP237 T01280117 10156 20128 51004=","FM-15","4",,,,,,,,,,,,,,,,,,,,,,,,,,,"2007-05-17"
"72793524234","2022-09-30T04:53:00","FM-15","4",,,,,,,,,,,,,,,,,,,,,,,,,,,,,,,,,,,,,,,"30.23","53","56",,,,,"90","30.23",,,"10.00",,"VRB",,"3",,,,,,,,,,,,,,,,,,,,,,,,,,,,,,,,,,,,,"MET076METAR KBFI 301253Z VRB03KT 10SM OVC009 13/12 A3023 RMK AO2 SLP236 T01330117=","FM-15","4",,,,,,,,,,,,,,,,,,,,,,,,,,,"2007-05-17"
"72793524234","2022-09-30T05:53:00","FM-15","4",,,,,,,,,,,,,,,,,,,,,,,,,,,,,,,,,,,,,,,"30.23","53","56",,,,,"90","30.23",,,"10.00",,"000",,"0",,,,,,,,,,,,,,,,,,,,,,,,,,,,,,,,,,,,,"MET076METAR KBFI 301353Z 00000KT 10SM OVC009 13/12 A3023 RMK AO2 SLP238 T01330117=","FM-15","4",,,,,,,,,,,,,,,,,,,,,,,,,,,"2007-05-17"
"72793524234","2022-09-30T06:53:00","FM-15","4",,,,,,,,,,,,,,,,,,,,,,,,,,,,,,,,,,,,,,,"30.23","53","57",,,"0.00","4","87","30.23",,,"10.00",,"000",,"0",,,,,,,,,,,,,,,,,,,,,,,,,,,,,,,,,,,,,"MET082METAR KBFI 301453Z 00000KT 10SM OVC009 14/12 A3023 RMK AO2 SLP237 T01390117 52000=","FM-15","4",,,,,,,,,,,,,,,,,,,,,,,,,,,"2007-05-17"
"72793524234","2022-09-30T07:53:00","FM-15","4",,,,,,,,,,,,,,,,,,,,,,,,,,,,,,,,,,,,,,,"30.23","53","58",,,,,"84","30.22",,,"10.00",,"VRB",,"3",,,,,,,,,,,,,,,,,,,,,,,,,,,,,,,,,,,,,"MET076METAR KBFI 301553Z VRB03KT 10SM OVC009 14/12 A3023 RMK AO2 SLP235 T01440117=","FM-15","4",,,,,,,,,,,,,,,,,,,,,,,,,,,"2007-05-17"
"72793524234","2022-09-30T08:00:00","FM-16","7",,,,,,,,,,,,,,,,,,,,,,,,,,,,,,,,,,,,,,,"30.23","53","58",,,,,"84",,"OVC:08 12","30.20","10.00","55","000",,"0",,,,,,,,,,,,,,,,,,,,,,,,,,,,,,,,,,,,,"MET09109/30/22 08:00:02 SPECI KBFI 301600Z 00000KT 10SM OVC012 14/12 A3023 RMK AO2 T01440117 (SR)","FM-16","7",,,,,,,,,,,,,,,,,,,,,,,,,,,"2007-05-17"
"72793524234","2022-09-30T08:53:00","FM-15","4",,,,,,,,,,,,,,,,,,,,,,,,,,,,,,,,,,,,,,,"30.22","53","58",,,,,"84","30.22",,,"10.00",,"VRB",,"3",,,,,,,,,,,,,,,,,,,,,,,,,,,,,,,,,,,,,"MET076METAR KBFI 301653Z VRB03KT 10SM OVC013 14/12 A3022 RMK AO2 SLP232 T01440117=","FM-15","4",,,,,,,,,,,,,,,,,,,,,,,,,,,"2007-05-17"
"72793524234","2022-09-30T09:02:00","FM-16","7",,,,,,,,,,,,,,,,,,,,,,,,,,,,,,,,,,,,,,,"30.22","53","59",,,,,"81",,"BKN:07 15","30.19","10.00","56","VRB",,"3",,,,,,,,,,,,,,,,,,,,,,,,,,,,,,,,,,,,,"MET09109/30/22 09:02:02 SPECI KBFI 301702Z VRB03KT 10SM BKN015 15/12 A3022 RMK AO2 T01500117 (SR)","FM-16","7",,,,,,,,,,,,,,,,,,,,,,,,,,,"2007-05-17"
"72793524234","2022-09-30T09:53:00","FM-15","4",,,,,,,,,,,,,,,,,,,,,,,,,,,,,,,,,,,,,,,"30.22","52","59",,,"+0.01","6","78","30.22",,,"10.00",,"300",,"6",,,,,,,,,,,,,,,,,,,,,,,,,,,,,,,,,,,,,"MET094METAR KBFI 301753Z 30005KT 10SM OVC015 15/11 A3022 RMK AO2 SLP232 T01500111 10156 20128 56005=","FM-15","4",,,,,,,,,,,,,,,,,,,,,,,,,,,"2007-05-17"
"72793524234","2022-09-30T10:53:00","FM-15","4",,,,,,,,,,,,,,,,,,,,,,,,,,,,,,,,,,,,,,,"30.20","53","60",,,,,"78","30.20",,,"10.00",,"320",,"6",,,,,,,,,,,,,,,,,,,,,,,,,,,,,,,,,,,,,"MET076METAR KBFI 301853Z 32005KT 10SM OVC015 16/12 A3020 RMK AO2 SLP226 T01560117=","FM-15","4",,,,,,,,,,,,,,,,,,,,,,,,,,,"2007-05-17"
"72793524234","2022-09-30T11:27:00","FM-16","7",,,,,,,,,,,,,,,,,,,,,,,,,,,,,,,,,,,,,,,"30.18","53","62",,,,,"73",,"SCT:04 15","30.15","10.00","57","300",,"6",,,,,,,,,,,,,,,,,,,,,,,,,,,,,,,,,,,,,"MET08609/30/22 11:27:01 SPECI KBFI 301927Z 30005KT 10SM SCT015 17/12 A3018 RMK AO2 T01670117","FM-16","7",,,,,,,,,,,,,,,,,,,,,,,,,,,"2007-05-17"
"72793524234","2022-09-30T11:53:00","FM-15","4",,,,,,,,,,,,,,,,,,,,,,,,,,,,,,,,,,,,,,,"30.17","53","63",,,,,"70","30.17",,,"10.00",,"340",,"5",,,,,,,,,,,,,,,,,,,,,,,,,,,,,,,,,,,,,"MET078METAR KBFI 301953Z AUTO 34004KT 10SM CLR 17/12 A3017 RMK AO2 SLP217 T01720117=","FM-15","4",,,,,,,,,,,,,,,,,,,,,,,,,,,"2007-05-17"
"72793524234","2022-09-30T12:53:00","FM-15","4",,,,,,,,,,,,,,,,,,,,,,,,,,,,,,,,,,,,,,,"30.15","53","65",,,"+0.07","8","66","30.14",,,"10.00",,"320",,"5",,,,,,,,,,,,,,,,,,,,,,,,,,,,,,,,,,,,,"MET079METAR KBFI 302053Z 32004KT 10SM CLR 18/12 A3015 RMK AO2 SLP208 T01830117 58024=","FM-15","4",,,,,,,,,,,,,,,,,,,,,,,,,,,"2007-05-17"
"72793524234","2022-09-30T13:53:00","FM-15","4",,,,,,,,,,,,,,,,,,,,,,,,,,,,,,,,,,,,,,,"30.13","54","67",,,,,"63","30.12",,,"10.00",,"300",,"7",,,,,,,,,,,,,,,,,,,,,,,,,,,,,,,,,,,,,"MET073METAR KBFI 302153Z 30006KT 10SM CLR 19/12 A3013 RMK AO2 SLP201 T01940122=","FM-15","4",,,,,,,,,,,,,,,,,,,,,,,,,,,"2007-05-17"
"72793524234","2022-09-30T14:53:00","FM-15","4",,,,,,,,,,,,,,,,,,,,,,,,,,,,,,,,,,,,,,,"30.11","54","68",,,,,"61","30.10",,,"10.00",,"300",,"7",,,,,,,,,,,,,,,,,,,,,,,,,,,,,,,,,,,,,"MET073METAR KBFI 302253Z 30006KT 10SM CLR 20/12 A3011 RMK AO2 SLP194 T02000122=","FM-15","4",,,,,,,,,,,,,,,,,,,,,,,,,,,"2007-05-17"
"72793524234","2022-09-30T15:53:00","FM-15","4",,,,,,,,,,,,,,,,,,,,,,,,,,,,,,,,,,,,,,,"30.09","54","68",,,"+0.06","6","61","30.09",,,"10.00",,"VRB",,"7",,,,,,,,,,,,,,,,,,,,,,,,,,,,,,,,,,,,,"MET091METAR KBFI 302353Z VRB06KT 10SM CLR 20/12 A3009 RMK AO2 SLP189 T02000122 10206 20150 56019=","FM-15","4",,,,,,,,,,,,,,,,,,,,,,,,,,,"2007-05-17"
"72793524234","2022-09-30T16:53:00","FM-15","4",,,,,,,,,,,,,,,,,,,,,,,,,,,,,,,,,,,,,,,"30.08","54","68",,,,,"61","30.08",,,"10.00",,"VRB",,"5",,,,,,,,,,,,,,,,,,,,,,,,,,,,,,,,,,,,,"MET073METAR KBFI 010053Z VRB04KT 10SM CLR 20/12 A3008 RMK AO2 SLP186 T02000122=","FM-15","4",,,,,,,,,,,,,,,,,,,,,,,,,,,"2007-05-17"
"72793524234","2022-09-30T17:53:00","FM-15","4",,,,,,,,,,,,,,,,,,,,,,,,,,,,,,,,,,,,,,,"30.08","54","67",,,,,"63","30.08",,,"10.00",,"000",,"0",,,,,,,,,,,,,,,,,,,,,,,,,,,,,,,,,,,,,"MET073METAR KBFI 010153Z 00000KT 10SM CLR 19/12 A3008 RMK AO2 SLP185 T01940122=","FM-15","4",,,,,,,,,,,,,,,,,,,,,,,,,,,"2007-05-17"
"72793524234","2022-09-30T18:53:00","FM-15","4",,,,,,,,,,,,,,,,,,,,,,,,,,,,,,,,,,,,,,,"30.08","54","65",,,"+0.01","5","68","30.08",,,"10.00",,"000",,"0",,,,,,,,,,,,,,,,,,,,,,,,,,,,,,,,,,,,,"MET079METAR KBFI 010253Z 00000KT 10SM CLR 18/12 A3008 RMK AO2 SLP186 T01830122 55003=","FM-15","4",,,,,,,,,,,,,,,,,,,,,,,,,,,"2007-05-17"
"72793524234","2022-09-30T19:53:00","FM-15","4",,,,,,,,,,,,,,,,,,,,,,,,,,,,,,,,,,,,,,,"30.09","54","64",,,,,"70","30.09",,,"10.00",,"000",,"0",,,,,,,,,,,,,,,,,,,,,,,,,,,,,,,,,,,,,"MET073METAR KBFI 010353Z 00000KT 10SM CLR 18/12 A3009 RMK AO2 SLP188 T01780122=","FM-15","4",,,,,,,,,,,,,,,,,,,,,,,,,,,"2007-05-17"
"72793524234","2022-09-30T20:53:00","FM-15","4",,,,,,,,,,,,,,,,,,,,,,,,,,,,,,,,,,,,,,,"30.09","54","62",,,,,"75","30.09",,,"10.00",,"000",,"0",,,,,,,,,,,,,,,,,,,,,,,,,,,,,,,,,,,,,"MET073METAR KBFI 010453Z 00000KT 10SM CLR 17/12 A3009 RMK AO2 SLP188 T01670122=","FM-15","4",,,,,,,,,,,,,,,,,,,,,,,,,,,"2007-05-17"
"72793524234","2022-09-30T21:53:00","FM-15","4",,,,,,,,,,,,,,,,,,,,,,,,,,,,,,,,,,,,,,,"30.08","54","60",,,"-0.00","0","80","30.08",,,"10.00",,"000",,"0",,,,,,,,,,,,,,,,,,,,,,,,,,,,,,,,,,,,,"MET091METAR KBFI 010553Z 00000KT 10SM CLR 16/12 A3008 RMK AO2 SLP187 T01560122 10206 20156 50001=","FM-15","4",,,,,,,,,,,,,,,,,,,,,,,,,,,"2007-05-17"
"72793524234","2022-09-30T22:53:00","FM-15","4",,,,,,,,,,,,,,,,,,,,,,,,,,,,,,,,,,,,,,,"30.08","54","59",,,,,"83","30.08",,,"10.00",,"000",,"0",,,,,,,,,,,,,,,,,,,,,,,,,,,,,,,,,,,,,"MET073METAR KBFI 010653Z 00000KT 10SM CLR 15/12 A3008 RMK AO2 SLP186 T01500122=","FM-15","4",,,,,,,,,,,,,,,,,,,,,,,,,,,"2007-05-17"
"72793524234","2022-09-30T23:53:00","FM-15","4",,,,,,,,,,,,,,,,,,,,,,,,,,,,,,,,,,,,,,,"30.08","54","58",,,,,"87","30.08",,,"10.00",,"000",,"0",,,,,,,,,,,,,,,,,,,,,,,,,,,,,,,,,,,,,"MET083METAR KBFI 010753Z 00000KT 10SM CLR 14/12 A3008 RMK AO2 SLP186 T01440122 402060128=","FM-15","4",,,,,,,,,,,,,,,,,,,,,,,,,,,"2007-05-17"
"72793524234","2022-09-30T23:59:00","SOD  ","6",,,,,,,,,,,,,,,,,,"62",,,"30.12",,"2.5","0","4.3","3","69","55","320","14","0.00",,,"300","10",,,,,,,,,,,,,,,,,,,,,,,,,,,,,,,,,,,,,,,,,,,,,,,,,,,,,,,,"SOD73024 HR PRECIPITATION (IN):0.00  24 HR MAX TEMP (F):69 24 HR MAX TEMP TIME (LST):1615 24 HR MIN TEMP (F):55 24 HR MIN TEMP TIME (LST):0425 AVERAGE STATION PRESSURE:30.120 MINIMUM SEA LEVEL PRESSURE:30.07 TIME OF OCCURRENCE:1746 PEAK WIND SPEED (MPH):14  PEAK WIND DIR (DEG):320 PEAK WIND TIME (LST):1621  FASTEST 2MIN SPEED (MPH):10 FASTEST 2MIN DIR (DEG):300 FASTEST 2MIN TIME (LST):1514 AVERAGE WIND SPEED (MPH):2.5  24 HR AVG TEMP (F):62 HEATING DEGREE DAYS:3   COOLING DEGREE DAYS:0   LATEST DAY MAX TEMP (0700-1900 LST):69  LATEST NIGHT MIN TEMP(1900-0800 LST):55 HOURLY INCREMENTAL PRECIPITATION VALUES (IN):.00 0.00 0.00 0.00 0.00 0.00 0.00 0.00 0.00 0.00 0.00 0.00 0.00 0.00 0.00 0.00 0.00 0.00 0.00 0.00 0.00 0.00 0.00 0.00","SOD  ","6",,,,,,,,,,,,,,,,,,,,,,,,,"0607","1751","2007-05-17"
"72793524234","2022-09-30T23:59:00","SOM  ","6","4.7",,,,,,,,,,,"328","159",,,"1",,,,,,,,,,,,,,,,,,,,,"27","6",,,,,,,,,,,,,,,,,,"2","0","0","0","0","0","-2.2","73","-18","-2.4","-2.0","-0.95s",,"0.02","28-28",,,,,"30.28","08","0727","73.8","64.8","29.73","18","1709","55.8","30.01","29.97","0.04s",,,"86","24","SOM794PCP MTOT:0.04 PCP GT 24HRS:0.02 DATE(S):28+ DAYS W/PCP >=.01:2  DAYS W/PCP >=.10:0  DAYS W/ PCP >=.50:0 DAYS W/PCP >=1.00:0 MSDP AMTS W/DATE-TIME TAGS:MIN:5 0.01  28/1116 MIN:10 0.01  28/1116 MIN:15 0.01  28/1116 MIN:20 0.01  28/1116 MIN:30 0.02  16/1514 MIN:45 0.02  16/1514 MIN:60 0.02  16/1514 MIN:80 0.02  16/1514 MIN:100 0.02  16/1514 MIN:120 0.02  16/1514 MIN:150 0.02  28/1116 MIN:180 0.02  28/1116 AVG DLY MIN:55.8  AVG DLY MAX:73.8  AVG MLY TMP:64.8  MIN TMP:48 DATE(S):21 19 MAX TMP:85  DATE(S):10 DAYS MAX <=32:0 DAYS MAX >=90:0  DAYS MIN <=32:0  DAYS MIN  <=0:0  AVG STP:29.970 LWST SLP:29.73 DATE/TIME:181709 HGST SLP:30.28 DATE/TIME:080727 HDD MTH TOT:38 DEP NORM:-2553 SEASON(JUL 1-JUN 30):63 DEP NORM:-25536 CDD MTH TOT:38 DEP NORM:-2553 SEASON(JAN 1-DEC 31):378 DEP NORM:-25536","SOM  ","6","2022-09-28 11:16","2022-09-28 11:16","2022-09-28 11:16","2022-09-28 11:16","2022-09-16 15:14","2022-09-16 15:14","2022-09-16 15:14","2022-09-16 15:14","2022-09-16 15:14","2022-09-16 15:14","2022-09-28 11:16","2022-09-28 11:16","0.01","0.01","0.01","0.01","0.02","0.02","0.02","0.02","0.02","0.02","0.02","0.02",,,"2007-05-17"
"72793524234","2022-10-01T00:53:00","FM-15","4",,,,,,,,,,,,,,,,,,,,,,,,,,,,,,,,,,,,,,,"30.08","54","58",,,"+0.01","8","87","30.07",,,"10.00",,"310",,"3",,,,,,,,,,,,,,,,,,,,,,,,,,,,,,,,,,,,,"MET079METAR KBFI 010853Z 31003KT 10SM CLR 14/12 A3008 RMK AO2 SLP184 T01440122 58002=","FM-15","4",,,,,,,,,,,,,,,,,,,,,,,,,,,"2007-05-17"
"72793524234","2022-10-01T01:53:00","FM-15","4",,,,,,,,,,,,,,,,,,,,,,,,,,,,,,,,,,,,,,,"30.08","53","57",,,,,"87","30.08",,,"10.00",,"000",,"0",,,,,,,,,,,,,,,,,,,,,,,,,,,,,,,,,,,,,"MET073METAR KBFI 010953Z 00000KT 10SM CLR 14/12 A3008 RMK AO2 SLP186 T01390117=","FM-15","4",,,,,,,,,,,,,,,,,,,,,,,,,,,"2007-05-17"
"72793524234","2022-10-01T02:53:00","FM-15","4",,,,,,,,,,,,,,,,,,,,,,,,,,,,,,,,,,,,,,,"30.07","54","57",,,,,"90","30.07",,,"10.00",,"310",,"3",,,,,,,,,,,,,,,,,,,,,,,,,,,,,,,,,,,,,"MET073METAR KBFI 011053Z 31003KT 10SM CLR 14/12 A3007 RMK AO2 SLP182 T01390122=","FM-15","4",,,,,,,,,,,,,,,,,,,,,,,,,,,"2007-05-17"
"72793524234","2022-10-01T03:53:00","FM-15","4",,,,,,,,,,,,,,,,,,,,,,,,,,,,,,,,,,,,,,,"30.07","53","55",,,"+0.00","7","93","30.07",,,"10.00",,"270",,"3",,,,,,,,,,,,,,,,,,,,,,,,,,,,,,,,,,,,,"MET091METAR KBFI 011153Z 27003KT 10SM CLR 13/12 A3007 RMK AO2 SLP183 T01280117 10161 20128 57001=","FM-15","4",,,,,,,,,,,,,,,,,,,,,,,,,,,"2007-05-17"
"72793524234","2022-10-01T04:53:00","FM-15","4",,,,,,,,,,,,,,,,,,,,,,,,,,,,,,,,,,,,,,,"30.07","53","56",,,,,"90","30.07",,,"10.00",,"330",,"3",,,,,,,,,,,,,,,,,,,,,,,,,,,,,,,,,,,,,"MET073METAR KBFI 011253Z 33003KT 10SM CLR 13/12 A3007 RMK AO2 SLP183 T01330117=","FM-15","4",,,,,,,,,,,,,,,,,,,,,,,,,,,"2007-05-17"
"72793524234","2022-10-01T05:53:00","FM-15","4",,,,,,,,,,,,,,,,,,,,,,,,,,,,,,,,,,,,,,,"30.07","54","57",,,,,"90","30.07",,,"10.00",,"000",,"0",,,,,,,,,,,,,,,,,,,,,,,,,,,,,,,,,,,,,"MET073METAR KBFI 011353Z 00000KT 10SM CLR 14/12 A3007 RMK AO2 SLP183 T01390122=","FM-15","4",,,,,,,,,,,,,,,,,,,,,,,,,,,"2007-05-17"
"72793524234","2022-10-01T06:53:00","FM-15","4",,,,,,,,,,,,,,,,,,,,,,,,,,,,,,,,,,,,,,,"30.07","55","57",,,"+0.00","8","93","30.07",,,"10.00",,"VRB",,"3",,,,,,,,,,,,,,,,,,,,,,,,,,,,,,,,,,,,,"MET079METAR KBFI 011453Z VRB03KT 10SM CLR 14/13 A3007 RMK AO2 SLP182 T01390128 58001=","FM-15","4",,,,,,,,,,,,,,,,,,,,,,,,,,,"2007-05-17"
"72793524234","2022-10-01T07:53:00","FM-15","4",,,,,,,,,,,,,,,,,,,,,,,,,,,,,,,,,,,,,,,"30.07","55","61",,,,,"81","30.07",,,"10.00",,"000",,"0",,,,,,,,,,,,,,,,,,,,,,,,,,,,,,,,,,,,,"MET073METAR KBFI 011553Z 00000KT 10SM CLR 16/13 A3007 RMK AO2 SLP182 T01610128=","FM-15","4",,,,,,,,,,,,,,,,,,,,,,,,,,,"2007-05-17"
"72793524234","2022-10-01T08:53:00","FM-15","4",,,,,,,,,,,,,,,,,,,,,,,,,,,,,,,,,,,,,,,"30.06","54","64",,,,,"70","30.06",,,"10.00",,"VRB",,"7",,,,,,,,,,,,,,,,,,,,,,,,,,,,,,,,,,,,,"MET073METAR KBFI 011653Z VRB06KT 10SM CLR 18/12 A3006 RMK AO2 SLP179 T01780122=","FM-15","4",,,,,,,,,,,,,,,,,,,,,,,,,,,"2007-05-17"
"72793524234","2022-10-01T09:53:00","FM-15","4",,,,,,,,,,,,,,,,,,,,,,,,,,,,,,,,,,,,,,,"30.04","55","65",,,"+0.03","8","70","30.04",,,"10.00",,"310",,"7",,,,,,,,,,,,,,,,,,,,,,,,,,,,,,,,,,,,,"MET091METAR KBFI 011753Z 31006KT 10SM CLR 18/13 A3004 RMK AO2 SLP172 T01830128 10189 20128 58009=","FM-15","4",,,,,,,,,,,,,,,,,,,,,,,,,,,"2007-05-17"
"72793524234","2022-10-01T10:53:00","FM-15","4",,,,,,,,,,,,,,,,,,,,,,,,,,,,,,,,,,,,,,,"30.02","55","68",,,,,"63","30.02",,,"10.00",,"300",,"10",,,,,,,,,,,,,,,,,,,,,,,,,,,,,,,,,,,,,"MET073METAR KBFI 011853Z 30009KT 10SM CLR 20/13 A3002 RMK AO2 SLP166 T02000128=","FM-15","4",,,,,,,,,,,,,,,,,,,,,,,,,,,"2007-05-17"
"72793524234","2022-10-01T11:53:00","FM-15","4",,,,,,,,,,,,,,,,,,,,,,,,,,,,,,,,,,,,,,,"30.00","55","70",,,,,"59","30.00",,,"10.00",,"310",,"9",,,,,,,,,,,,,,,,,,,,,,,,,,,,,,,,,,,,,"MET073METAR KBFI 011953Z 31008KT 10SM CLR 21/13 A3000 RMK AO2 SLP158 T02110128=","FM-15","4",,,,,,,,,,,,,,,,,,,,,,,,,,,"2007-05-17"
"72793524234","2022-10-01T12:53:00","FM-15","4",,,,,,,,,,,,,,,,,,,,,,,,,,,,,,,,,,,,,,,"29.97","55","71",,,"+0.07","8","57","29.97",,,"10.00",,"310",,"7",,,,,,,,,,,,,,,,,,,,,,,,,,,,,,,,,,,,,"MET079METAR KBFI 012053Z 31006KT 10SM CLR 22/13 A2997 RMK AO2 SLP150 T02170128 58023=","FM-15","4",,,,,,,,,,,,,,,,,,,,,,,,,,,"2007-05-17"
"72793524234","2022-10-01T13:53:00","FM-15","4",,,,,,,,,,,,,,,,,,,,,,,,,,,,,,,,,,,,,,,"29.95","55","73",,,,,"53","29.95",,,"10.00",,"300",,"9",,,,,,,,,,,,,,,,,,,,,,,,,,,,,,,,,,,,,"MET073METAR KBFI 012153Z 30008KT 10SM CLR 23/13 A2995 RMK AO2 SLP143 T02280128=","FM-15","4",,,,,,,,,,,,,,,,,,,,,,,,,,,"2007-05-17"
"72793524234","2022-10-01T14:53:00","FM-15","4",,,,,,,,,,,,,,,,,,,,,,,,,,,,,,,,,,,,,,,"29.94","55","74",,,,,"52","29.93",,,"10.00",,"310",,"8",,,,,,,,,,,,,,,,,,,,,,,,,,,,,,,,,,,,,"MET073METAR KBFI 012253Z 31007KT 10SM CLR 23/13 A2994 RMK AO2 SLP137 T02330128=","FM-15","4",,,,,,,,,,,,,,,,,,,,,,,,,,,"2007-05-17"
"72793524234","2022-10-01T15:53:00","FM-15","4",,,,,,,,,,,,,,,,,,,,,,,,,,,,,,,,,,,,,,,"29.93","56","73",,,"+0.04","6","55","29.93",,,"10.00",,"320",,"7",,,,,,,,,,,,,,,,,,,,,,,,,,,,,,,,,,,,,"MET091METAR KBFI 012353Z 32006KT 10SM CLR 23/13 A2993 RMK AO2 SLP135 T02280133 10239 20183 56015=","FM-15","4",,,,,,,,,,,,,,,,,,,,,,,,,,,"2007-05-17"
"72793524234","2022-10-01T16:53:00","FM-15","4",,,,,,,,,,,,,,,,,,,,,,,,,,,,,,,,,,,,,,,"29.92","56","71",,,,,"59","29.92",,,"10.00",,"310",,"7",,,,,,,,,,,,,,,,,,,,,,,,,,,,,,,,,,,,,"MET078METAR KBFI 020053Z AUTO 31006KT 10SM CLR 22/13 A2992 RMK AO2 SLP133 T02170133=","FM-15","4",,,,,,,,,,,,,,,,,,,,,,,,,,,"2007-05-17"
"72793524234","2022-10-01T17:53:00","FM-15","4",,,,,,,,,,,,,,,,,,,,,,,,,,,,,,,,,,,,,,,"29.92","55","69",,,,,"61","29.92",,,"10.00",,"VRB",,"3",,,,,,,,,,,,,,,,,,,,,,,,,,,,,,,,,,,,,"MET073METAR KBFI 020153Z VRB03KT 10SM CLR 21/13 A2992 RMK AO2 SLP132 T02060128=","FM-15","4",,,,,,,,,,,,,,,,,,,,,,,,,,,"2007-05-17"
"72793524234","2022-10-01T18:53:00","FM-15","4",,,,,,,,,,,,,,,,,,,,,,,,,,,,,,,,,,,,,,,"29.93","55","66",,,"+0.01","5","68","29.93",,,"10.00",,"300",,"6",,,,,,,,,,,,,,,,,,,,,,,,,,,,,,,,,,,,,"MET079METAR KBFI 020253Z 30005KT 10SM CLR 19/13 A2993 RMK AO2 SLP134 T01890128 55002=","FM-15","4",,,,,,,,,,,,,,,,,,,,,,,,,,,"2007-05-17"
"72793524234","2022-10-01T19:53:00","FM-15","4",,,,,,,,,,,,,,,,,,,,,,,,,,,,,,,,,,,,,,,"29.93","55","65",,,,,"70","29.93",,,"10.00",,"000",,"0",,,,,,,,,,,,,,,,,,,,,,,,,,,,,,,,,,,,,"MET073METAR KBFI 020353Z 00000KT 10SM CLR 18/13 A2993 RMK AO2 SLP136 T01830128=","FM-15","4",,,,,,,,,,,,,,,,,,,,,,,,,,,"2007-05-17"
"72793524234","2022-10-01T20:53:00","FM-15","4",,,,,,,,,,,,,,,,,,,,,,,,,,,,,,,,,,,,,,,"29.93","55","64",,,,,"73","29.93",,,"10.00",,"340",,"3",,,,,,,,,,,,,,,,,,,,,,,,,,,,,,,,,,,,,"MET073METAR KBFI 020453Z 34003KT 10SM CLR 18/13 A2993 RMK AO2 SLP134 T01780128=","FM-15","4",,,,,,,,,,,,,,,,,,,,,,,,,,,"2007-05-17"
"72793524234","2022-10-01T21:53:00","FM-15","4",,,,,,,,,,,,,,,,,,,,,,,,,,,,,,,,,,,,,,,"29.93","55","63",,,"-0.00","1","75","29.93",,,"10.00",,"310",,"3",,,,,,,,,,,,,,,,,,,,,,,,,,,,,,,,,,,,,"MET091METAR KBFI 020553Z 31003KT 10SM CLR 17/13 A2993 RMK AO2 SLP134 T01720128 10228 20172 51001=","FM-15","4",,,,,,,,,,,,,,,,,,,,,,,,,,,"2007-05-17"
"72793524234","2022-10-01T22:53:00","FM-15","4",,,,,,,,,,,,,,,,,,,,,,,,,,,,,,,,,,,,,,,"29.93","54","62",,,,,"75","29.93",,,"10.00",,"000",,"0",,,,,,,,,,,,,,,,,,,,,,,,,,,,,,,,,,,,,"MET073METAR KBFI 020653Z 00000KT 10SM CLR 17/12 A2993 RMK AO2 SLP136 T01670122=","FM-15","4",,,,,,,,,,,,,,,,,,,,,,,,,,,"2007-05-17"
"72793524234","2022-10-01T23:53:00","FM-15","4",,,,,,,,,,,,,,,,,,,,,,,,,,,,,,,,,,,,,,,"29.93","54","60",,,,,"80","29.93",,,"10.00",,"000",,"0",,,,,,,,,,,,,,,,,,,,,,,,,,,,,,,,,,,,,"MET083METAR KBFI 020753Z 00000KT 10SM CLR 16/12 A2993 RMK AO2 SLP136 T01560122 402390128=","FM-15","4",,,,,,,,,,,,,,,,,,,,,,,,,,,"2007-05-17"
"72793524234","2022-10-01T23:59:00","SOD  ","6",,,,,,,,,,,,,,,,,,"65",,,"29.96",,"4.4","0","7.6","0","75","55","280","17","0.00",,,"300","12",,,,,,,,,,,,,,,,,,,,,,,,,,,,,,,,,,,,,,,,,,,,,,,,,,,,,,,,"SOD73024 HR PRECIPITATION (IN):0.00  24 HR MAX TEMP (F):75 24 HR MAX TEMP TIME (LST):1501 24 HR MIN TEMP (F):55 24 HR MIN TEMP TIME (LST):0419 AVERAGE STATION PRESSURE:29.955 MINIMUM SEA LEVEL PRESSURE:29.92 TIME OF OCCURRENCE:1902 PEAK WIND SPEED (MPH):17  PEAK WIND DIR (DEG):280 PEAK WIND TIME (LST):1348  FASTEST 2MIN SPEED (MPH):12 FASTEST 2MIN DIR (DEG):300 FASTEST 2MIN TIME (LST):1052 AVERAGE WIND SPEED (MPH):4.4  24 HR AVG TEMP (F):65 HEATING DEGREE DAYS:0   COOLING DEGREE DAYS:0   LATEST DAY MAX TEMP (0700-1900 LST):75  LATEST NIGHT MIN TEMP(1900-0800 LST):55 HOURLY INCREMENTAL PRECIPITATION VALUES (IN):.00 0.00 0.00 0.00 0.00 0.00 0.00 0.00 0.00 0.00 0.00 0.00 0.00 0.00 0.00 0.00 0.00 0.00 0.00 0.00 0.00 0.00 0.00 0.00","SOD  ","6",,,,,,,,,,,,,,,,,,,,,,,,,"0608","1749","2007-05-17"
"72793524234","2022-10-02T00:53:00","FM-15","4",,,,,,,,,,,,,,,,,,,,,,,,,,,,,,,,,,,,,,,"29.93","53","59",,,"-0.00","0","81","29.93",,,"10.00",,"000",,"0",,,,,,,,,,,,,,,,,,,,,,,,,,,,,,,,,,,,,"MET079METAR KBFI 020853Z 00000KT 10SM CLR 15/12 A2993 RMK AO2 SLP135 T01500117 50001=","FM-15","4",,,,,,,,,,,,,,,,,,,,,,,,,,,"2007-05-17"
"72793524234","2022-10-02T01:53:00","FM-15","4",,,,,,,,,,,,,,,,,,,,,,,,,,,,,,,,,,,,,,,"29.93","53","60",,,,,"78","29.93",,,"10.00",,"000",,"0",,,,,,,,,,,,,,,,,,,,,,,,,,,,,,,,,,,,,"MET073METAR KBFI 020953Z 00000KT 10SM CLR 16/12 A2993 RMK AO2 SLP135 T01560117=","FM-15","4",,,,,,,,,,,,,,,,,,,,,,,,,,,"2007-05-17"
"72793524234","2022-10-02T02:53:00","FM-15","4",,,,,,,,,,,,,,,,,,,,,,,,,,,,,,,,,,,,,,,"29.93","53","58",,,,,"84","29.93",,,"10.00",,"000",,"0",,,,,,,,,,,,,,,,,,,,,,,,,,,,,,,,,,,,,"MET073METAR KBFI 021053Z 00000KT 10SM CLR 14/12 A2993 RMK AO2 SLP136 T01440117=","FM-15","4",,,,,,,,,,,,,,,,,,,,,,,,,,,"2007-05-17"
"72793524234","2022-10-02T03:53:00","FM-15","4",,,,,,,,,,,,,,,,,,,,,,,,,,,,,,,,,,,,,,,"29.94","53","57",,,"-0.01","3","87","29.94",,,"10.00",,"000",,"0",,,,,,,,,,,,,,,,,,,,,,,,,,,,,,,,,,,,,"MET091METAR KBFI 021153Z 00000KT 10SM CLR 14/12 A2994 RMK AO2 SLP139 T01390117 10172 20133 53003=","FM-15","4",,,,,,,,,,,,,,,,,,,,,,,,,,,"2007-05-17"
"72793524234","2022-10-02T04:53:00","FM-15","4",,,,,,,,,,,,,,,,,,,,,,,,,,,,,,,,,,,,,,,"29.95","53","55",,,,,"93","29.95",,,"10.00",,"000",,"0",,,,,,,,,,,,,,,,,,,,,,,,,,,,,,,,,,,,,"MET078METAR KBFI 021253Z AUTO 00000KT 10SM CLR 13/12 A2995 RMK AO2 SLP141 T01280117=","FM-15","4",,,,,,,,,,,,,,,,,,,,,,,,,,,"2007-05-17"
"72793524234","2022-10-02T05:53:00","FM-15","4",,,,,,,,,,,,,,,,,,,,,,,,,,,,,,,,,,,,,,,"29.96","52","55",,,,,"90","29.96",,,"10.00",,"000",,"0",,,,,,,,,,,,,,,,,,,,,,,,,,,,,,,,,,,,,"MET073METAR KBFI 021353Z 00000KT 10SM CLR 13/11 A2996 RMK AO2 SLP145 T01280111=","FM-15","4",,,,,,,,,,,,,,,,,,,,,,,,,,,"2007-05-17"
"72793524234","2022-10-02T06:53:00","FM-15","4",,,,,,,,,,,,,,,,,,,,,,,,,,,,,,,,,,,,,,,"29.97","52","54",,,"-0.03","3","93","29.97",,,"8.00",,"140",,"6",,,,,,,,,,,,,,,,,,,,,,,,,,,,,,,,,,,,,"MET078METAR KBFI 021453Z 14005KT 8SM CLR 12/11 A2997 RMK AO2 SLP149 T01220111 53010=","FM-15","4",,,,,,,,,,,,,,,,,,,,,,,,,,,"2007-05-17"
"72793524234","2022-10-02T07:53:00","FM-15","4",,,,,,,,,,,,,,,,,,,,,,,,,,,,,,,,,,,,,,,"29.98","54","58",,,,,"87","29.98",,,"7.00",,"000",,"0",,,,,,,,,,,,,,,,,,,,,,,,,,,,,,,,,,,,,"MET072METAR KBFI 021553Z 00000KT 7SM CLR 14/12 A2998 RMK AO2 SLP153 T01440122=","FM-15","4",,,,,,,,,,,,,,,,,,,,,,,,,,,"2007-05-17"
"72793524234","2022-10-02T08:53:00","FM-15","4",,,,,,,,,,,,,,,,,,,,,,,,,,,,,,,,,,,,,,,"29.99","56","63",,,,,"78","29.99",,,"9.00",,"000",,"0",,,,,,,,,,,,,,,,,,,,,,,,,,,,,,,,,,,,,"MET072METAR KBFI 021653Z 00000KT 9SM CLR 17/13 A2999 RMK AO2 SLP156 T01720133=","FM-15","4",,,,,,,,,,,,,,,,,,,,,,,,,,,"2007-05-17"
"72793524234","2022-10-02T09:53:00","FM-15","4",,,,,,,,,,,,,,,,,,,,,,,,,,,,,,,,,,,,,,,"29.99","55","67",,,"-0.02","1","66","29.99",,,"10.00",,"320",,"5",,,,,,,,,,,,,,,,,,,,,,,,,,,,,,,,,,,,,"MET091METAR KBFI 021753Z 32004KT 10SM CLR 19/13 A2999 RMK AO2 SLP156 T01940128 10194 20117 51007=","FM-15","4",,,,,,,,,,,,,,,,,,,,,,,,,,,"2007-05-17"
"72793524234","2022-10-02T10:53:00","FM-15","4",,,,,,,,,,,,,,,,,,,,,,,,,,,,,,,,,,,,,,,"29.99","55","69",,,,,"61","29.98",,,"10.00",,"VRB",,"6",,,,,,,,,,,,,,,,,,,,,,,,,,,,,,,,,,,,,"MET073METAR KBFI 021853Z VRB05KT 10SM CLR 21/13 A2999 RMK AO2 SLP154 T02060128=","FM-15","4",,,,,,,,,,,,,,,,,,,,,,,,,,,"2007-05-17"
"72793524234","2022-10-02T11:53:00","FM-15","4",,,,,,,,,,,,,,,,,,,,,,,,,,,,,,,,,,,,,,,"29.98","54","71",,,,,"55","29.98",,,"10.00",,"300",,"6",,,,,,,,,,,,,,,,,,,,,,,,,,,,,,,,,,,,,"MET073METAR KBFI 021953Z 30005KT 10SM CLR 22/12 A2998 RMK AO2 SLP152 T02170122=","FM-15","4",,,,,,,,,,,,,,,,,,,,,,,,,,,"2007-05-17"
"72793524234","2022-10-02T12:53:00","FM-15","4",,,,,,,,,,,,,,,,,,,,,,,,,,,,,,,,,,,,,,,"29.97","54","74",,,"+0.02","8","50","29.97",,,"10.00",,"VRB",,"7",,,,,,,,,,,,,,,,,,,,,,,,,,,,,,,,,,,,,"MET079METAR KBFI 022053Z VRB06KT 10SM CLR 23/12 A2997 RMK AO2 SLP148 T02330122 58008=","FM-15","4",,,,,,,,,,,,,,,,,,,,,,,,,,,"2007-05-17"
"72793524234","2022-10-02T13:53:00","FM-15","4",,,,,,,,,,,,,,,,,,,,,,,,,,,,,,,,,,,,,,,"29.96","54","76",,,,,"47","29.96",,,"10.00",,"300",,"7",,,,,,,,,,,,,,,,,,,,,,,,,,,,,,,,,,,,,"MET073METAR KBFI 022153Z 30006KT 10SM CLR 24/12 A2996 RMK AO2 SLP144 T02440122=","FM-15","4",,,,,,,,,,,,,,,,,,,,,,,,,,,"2007-05-17"
"72793524234","2022-10-02T14:53:00","FM-15","4",,,,,,,,,,,,,,,,,,,,,,,,,,,,,,,,,,,,,,,"29.95","53","77",,,,,"43","29.95",,,"10.00",,"320",,"7",,,,,,,,,,,,,,,,,,,,,,,,,,,,,,,,,,,,,"MET073METAR KBFI 022253Z 32006KT 10SM CLR 25/12 A2995 RMK AO2 SLP142 T02500117=","FM-15","4",,,,,,,,,,,,,,,,,,,,,,,,,,,"2007-05-17"
"72793524234","2022-10-02T15:53:00","FM-15","4",,,,,,,,,,,,,,,,,,,,,,,,,,,,,,,,,,,,,,,"29.95","53","76",,"|HZ |","+0.02","6","45","29.95",,,"10.00",,"320",,"7",,,,,,,,,,,,,,,,,,,,,,,,,,,,,,,,,,,,,"MET094METAR KBFI 022353Z 32006KT 10SM FU CLR 24/12 A2995 RMK AO2 SLP142 T02440117 10250 20189 56006=","FM-15","4",,,,,,,,,,,,,,,,,,,,,,,,,,,"2007-05-17"
"72793524234","2022-10-02T16:53:00","FM-15","4",,,,,,,,,,,,,,,,,,,,,,,,,,,,,,,,,,,,,,,"29.96","54","74",,"|HZ |",,,"50","29.96",,,"10.00",,"VRB",,"3",,,,,,,,,,,,,,,,,,,,,,,,,,,,,,,,,,,,,"MET076METAR KBFI 030053Z VRB03KT 10SM FU CLR 23/12 A2996 RMK AO2 SLP144 T02330122=","FM-15","4",,,,,,,,,,,,,,,,,,,,,,,,,,,"2007-05-17"
"72793524234","2022-10-02T17:53:00","FM-15","4",,,,,,,,,,,,,,,,,,,,,,,,,,,,,,,,,,,,,,,"29.96","53","71",,"|HZ |",,,"53","29.96",,,"10.00",,"320",,"3",,,,,,,,,,,,,,,,,,,,,,,,,,,,,,,,,,,,,"MET076METAR KBFI 030153Z 32003KT 10SM FU CLR 22/12 A2996 RMK AO2 SLP146 T02170117=","FM-15","4",,,,,,,,,,,,,,,,,,,,,,,,,,,"2007-05-17"
"72793524234","2022-10-02T18:53:00","FM-15","4",,,,,,,,,,,,,,,,,,,,,,,,,,,,,,,,,,,,,,,"29.97","53","67",,"|HZ |","-0.02","3","61","29.97",,,"10.00",,"000",,"0",,,,,,,,,,,,,,,,,,,,,,,,,,,,,,,,,,,,,"MET082METAR KBFI 030253Z 00000KT 10SM FU CLR 19/12 A2997 RMK AO2 SLP148 T01940117 53006=","FM-15","4",,,,,,,,,,,,,,,,,,,,,,,,,,,"2007-05-17"
"72793524234","2022-10-02T19:53:00","FM-15","4",,,,,,,,,,,,,,,,,,,,,,,,,,,,,,,,,,,,,,,"29.99","53","66",,"|HZ |",,,"63","29.98",,,"10.00",,"000",,"0",,,,,,,,,,,,,,,,,,,,,,,,,,,,,,,,,,,,,"MET076METAR KBFI 030353Z 00000KT 10SM FU CLR 19/12 A2999 RMK AO2 SLP154 T01890117=","FM-15","4",,,,,,,,,,,,,,,,,,,,,,,,,,,"2007-05-17"
"72793524234","2022-10-02T20:53:00","FM-15","4",,,,,,,,,,,,,,,,,,,,,,,,,,,,,,,,,,,,,,,"30.00","53","64",,"|HZ |",,,"68","29.99",,,"10.00",,"000",,"0",,,,,,,,,,,,,,,,,,,,,,,,,,,,,,,,,,,,,"MET076METAR KBFI 030453Z 00000KT 10SM FU CLR 18/12 A3000 RMK AO2 SLP157 T01780117=","FM-15","4",,,,,,,,,,,,,,,,,,,,,,,,,,,"2007-05-17"
"72793524234","2022-10-02T21:53:00","FM-15","4",,,,,,,,,,,,,,,,,,,,,,,,,,,,,,,,,,,,,,,"30.01","52","62",,"|HZ |","-0.04","1","70","30.01",,,"10.00",,"000",,"0",,,,,,,,,,,,,,,,,,,,,,,,,,,,,,,,,,,,,"MET094METAR KBFI 030553Z 00000KT 10SM FU CLR 17/11 A3001 RMK AO2 SLP161 T01670111 10250 20167 51013=","FM-15","4",,,,,,,,,,,,,,,,,,,,,,,,,,,"2007-05-17"
"72793524234","2022-10-02T22:53:00","FM-15","4",,,,,,,,,,,,,,,,,,,,,,,,,,,,,,,,,,,,,,,"30.02","53","61",,"|HZ |",,,"75","30.01",,,"10.00",,"000",,"0",,,,,,,,,,,,,,,,,,,,,,,,,,,,,,,,,,,,,"MET076METAR KBFI 030653Z 00000KT 10SM FU CLR 16/12 A3002 RMK AO2 SLP164 T01610117=","FM-15","4",,,,,,,,,,,,,,,,,,,,,,,,,,,"2007-05-17"
"72793524234","2022-10-02T23:53:00","FM-15","4",,,,,,,,,,,,,,,,,,,,,,,,,,,,,,,,,,,,,,,"30.03","53","59",,"|HZ |",,,"81","30.02",,,"10.00",,"000",,"0",,,,,,,,,,,,,,,,,,,,,,,,,,,,,,,,,,,,,"MET086METAR KBFI 030753Z 00000KT 10SM FU CLR 15/12 A3003 RMK AO2 SLP167 T01500117 402500117=","FM-15","4",,,,,,,,,,,,,,,,,,,,,,,,,,,"2007-05-17"
"72793524234","2022-10-02T23:59:00","SOD  ","6",,,,,,,,,,,,,,,,,,"65",,,"29.93",,"2.3","0","7.9","0","77","53","300","14","0.00",,,"310","9","HZ",,,,,,,,,,,,,,,,,,,,,,,,,,,,,,,,,,,,,,,,,,,,,,,,,,,,,,,"SOD73024 HR PRECIPITATION (IN):0.00  24 HR MAX TEMP (F):77 24 HR MAX TEMP TIME (LST):1601 24 HR MIN TEMP (F):53 24 HR MIN TEMP TIME (LST):0642 AVERAGE STATION PRESSURE:29.935 MINIMUM SEA LEVEL PRESSURE:29.93 TIME OF OCCURRENCE:0308 PEAK WIND SPEED (MPH):14  PEAK WIND DIR (DEG):300 PEAK WIND TIME (LST):1337  FASTEST 2MIN SPEED (MPH):9  FASTEST 2MIN DIR (DEG):310 FASTEST 2MIN TIME (LST):1338 AVERAGE WIND SPEED (MPH):2.3  24 HR AVG TEMP (F):65 HEATING DEGREE DAYS:0   COOLING DEGREE DAYS:0   LATEST DAY MAX TEMP (0700-1900 LST):77  LATEST NIGHT MIN TEMP(1900-0800 LST):53 HOURLY INCREMENTAL PRECIPITATION VALUES (IN):.00 0.00 0.00 0.00 0.00 0.00 0.00 0.00 0.00 0.00 0.00 0.00 0.00 0.00 0.00 0.00 0.00 0.00 0.00 0.00 0.00 0.00 0.00 0.00","SOD  ","6",,,,,,,,,,,,,,,,,,,,,,,,,"0609","1747","2007-05-17"
"72793524234","2022-10-03T00:53:00","FM-15","4",,,,,,,,,,,,,,,,,,,,,,,,,,,,,,,,,,,,,,,"30.03","53","58",,"|HZ |","-0.03","1","84","30.03",,,"10.00",,"000",,"0",,,,,,,,,,,,,,,,,,,,,,,,,,,,,,,,,,,,,"MET082METAR KBFI 030853Z 00000KT 10SM FU CLR 14/12 A3003 RMK AO2 SLP170 T01440117 51009=","FM-15","4",,,,,,,,,,,,,,,,,,,,,,,,,,,"2007-05-17"
"72793524234","2022-10-03T01:53:00","FM-15","4",,,,,,,,,,,,,,,,,,,,,,,,,,,,,,,,,,,,,,,"30.04","54","57",,"|HZ |",,,"90","30.03",,,"10.00",,"000",,"0",,,,,,,,,,,,,,,,,,,,,,,,,,,,,,,,,,,,,"MET076METAR KBFI 030953Z 00000KT 10SM FU CLR 14/12 A3004 RMK AO2 SLP171 T01390122=","FM-15","4",,,,,,,,,,,,,,,,,,,,,,,,,,,"2007-05-17"
"72793524234","2022-10-03T02:53:00","FM-15","4",,,,,,,,,,,,,,,,,,,,,,,,,,,,,,,,,,,,,,,"30.04","53","56",,"|HZ |",,,"90","30.04",,,"10.00",,"000",,"0",,,,,,,,,,,,,,,,,,,,,,,,,,,,,,,,,,,,,"MET076METAR KBFI 031053Z 00000KT 10SM FU CLR 13/12 A3004 RMK AO2 SLP173 T01330117=","FM-15","4",,,,,,,,,,,,,,,,,,,,,,,,,,,"2007-05-17"
"72793524234","2022-10-03T03:53:00","FM-15","4",,,,,,,,,,,,,,,,,,,,,,,,,,,,,,,,,,,,,,,"30.05","53","55",,"|HZ |","-0.01","2","93","30.04",,,"9.00",,"000",,"0",,,,,,,,,,,,,,,,,,,,,,,,,,,,,,,,,,,,,"MET093METAR KBFI 031153Z 00000KT 9SM FU CLR 13/12 A3005 RMK AO2 SLP174 T01280117 10167 20128 52004=","FM-15","4",,,,,,,,,,,,,,,,,,,,,,,,,,,"2007-05-17"
"72793524234","2022-10-03T04:53:00","FM-15","4",,,,,,,,,,,,,,,,,,,,,,,,,,,,,,,,,,,,,,,"30.06","53","54",,"|HZ |",,,"97","30.06",,,"9.00",,"000",,"0",,,,,,,,,,,,,,,,,,,,,,,,,,,,,,,,,,,,,"MET075METAR KBFI 031253Z 00000KT 9SM FU CLR 12/12 A3006 RMK AO2 SLP178 T01220117=","FM-15","4",,,,,,,,,,,,,,,,,,,,,,,,,,,"2007-05-17"
"72793524234","2022-10-03T05:53:00","FM-15","4",,,,,,,,,,,,,,,,,,,,,,,,,,,,,,,,,,,,,,,"30.07","51","52",,"|HZ |",,,"97","30.06",,,"8.00",,"130",,"3",,,,,,,,,,,,,,,,,,,,,,,,,,,,,,,,,,,,,"MET075METAR KBFI 031353Z 13003KT 8SM FU CLR 11/11 A3007 RMK AO2 SLP181 T01110106=","FM-15","4",,,,,,,,,,,,,,,,,,,,,,,,,,,"2007-05-17"
"72793524234","2022-10-03T06:53:00","FM-15","4",,,,,,,,,,,,,,,,,,,,,,,,,,,,,,,,,,,,,,,"30.08","52","54",,"|HZ |","-0.03","3","93","30.08",,,"7.00",,"150",,"3",,,,,,,,,,,,,,,,,,,,,,,,,,,,,,,,,,,,,"MET081METAR KBFI 031453Z 15003KT 7SM FU CLR 12/11 A3008 RMK AO2 SLP185 T01220111 53011=","FM-15","4",,,,,,,,,,,,,,,,,,,,,,,,,,,"2007-05-17"
"72793524234","2022-10-03T07:53:00","FM-15","4",,,,,,,,,,,,,,,,,,,,,,,,,,,,,,,,,,,,,,,"30.09","54","57",,"|HZ |",,,"90","30.09",,,"7.00",,"150",,"3",,,,,,,,,,,,,,,,,,,,,,,,,,,,,,,,,,,,,"MET075METAR KBFI 031553Z 15003KT 7SM FU CLR 14/12 A3009 RMK AO2 SLP188 T01390122=","FM-15","4",,,,,,,,,,,,,,,,,,,,,,,,,,,"2007-05-17"
"72793524234","2022-10-03T08:53:00","FM-15","4",,,,,,,,,,,,,,,,,,,,,,,,,,,,,,,,,,,,,,,"30.09","55","61",,"|HZ |",,,"81","30.09",,,"7.00",,"000",,"0",,,,,,,,,,,,,,,,,,,,,,,,,,,,,,,,,,,,,"MET075METAR KBFI 031653Z 00000KT 7SM FU CLR 16/13 A3009 RMK AO2 SLP190 T01610128=","FM-15","4",,,,,,,,,,,,,,,,,,,,,,,,,,,"2007-05-17"
"72793524234","2022-10-03T09:53:00","FM-15","4",,,,,,,,,,,,,,,,,,,,,,,,,,,,,,,,,,,,,,,"30.09","56","66",,"|HZ |","-0.01","0","70","30.08",,,"7.00",,"000",,"0",,,,,,,,,,,,,,,,,,,,,,,,,,,,,,,,,,,,,"MET098METAR KBFI 031753Z AUTO 00000KT 7SM FU CLR 19/13 A3009 RMK AO2 SLP187 T01890133 10189 20111 50002=","FM-15","4",,,,,,,,,,,,,,,,,,,,,,,,,,,"2007-05-17"
"72793524234","2022-10-03T10:53:00","FM-15","4",,,,,,,,,,,,,,,,,,,,,,,,,,,,,,,,,,,,,,,"30.07","55","68",,"|HZ |",,,"63","30.07",,,"7.00",,"330",,"6",,,,,,,,,,,,,,,,,,,,,,,,,,,,,,,,,,,,,"MET080METAR KBFI 031853Z AUTO 33005KT 7SM FU CLR 20/13 A3007 RMK AO2 SLP183 T02000128=","FM-15","4",,,,,,,,,,,,,,,,,,,,,,,,,,,"2007-05-17"
"72793524234","2022-10-03T11:53:00","FM-15","7",,,,,,,,,,,,,,,,,,,,,,,,,,,,,,,,,,,,,,,"30.06","55","69","0.00","FU:3 |HZ FU |FU",,,"61","30.06","CLR:00","30.03","9.00","61","320",,"7",,,,,,,,,,,,,,,,,,,,,,,,,,,,,,,,,,,,,"MET09210/03/22 11:53:02 METAR KBFI 031953Z 32006KT 9SM FU CLR 21/13 A3006 RMK AO2 SLP180 T02060128","FM-15","7",,,,,,,,,,,,,,,,,,,,,,,,,,,"2007-05-17"
"72793524234","2022-10-03T12:53:00","FM-15","7",,,,,,,,,,,,,,,,,,,,,,,,,,,,,,,,,,,,,,,"30.05","55","73","0.00","FU:3 |HZ FU |FU","+0.04","8","53","30.04","CLR:00","30.02","9.00","62","VRB",,"5",,,,,,,,,,,,,,,,,,,,,,,,,,,,,,,,,,,,,"MET09810/03/22 12:53:02 METAR KBFI 032053Z VRB04KT 9SM FU CLR 23/13 A3005 RMK AO2 SLP174 T02280128 58013","FM-15","7",,,,,,,,,,,,,,,,,,,,,,,,,,,"2007-05-17"
"72793524234","2022-10-03T13:53:00","FM-15","7",,,,,,,,,,,,,,,,,,,,,,,,,,,,,,,,,,,,,,,"30.03","54","75","0.00","FU:3 |HZ FU |FU",,,"48","30.03","CLR:00","30.00","10.00","63","330",,"7",,,,,,,,,,,,,,,,,,,,,,,,,,,,,,,,,,,,,"MET09310/03/22 13:53:02 METAR KBFI 032153Z 33006KT 10SM FU CLR 24/12 A3003 RMK AO2 SLP169 T02390122","FM-15","7",,,,,,,,,,,,,,,,,,,,,,,,,,,"2007-05-17"
"72793524234","2022-10-03T14:53:00","FM-15","7",,,,,,,,,,,,,,,,,,,,,,,,,,,,,,,,,,,,,,,"30.02","54","75","0.00","FU:3 |HZ FU |FU",,,"48","30.01","CLR:00","29.99","10.00","63","310",,"6",,,,,,,,,,,,,,,,,,,,,,,,,,,,,,,,,,,,,"MET09310/03/22 14:53:02 METAR KBFI 032253Z 31005KT 10SM FU CLR 24/12 A3002 RMK AO2 SLP164 T02390122","FM-15","7",,,,,,,,,,,,,,,,,,,,,,,,,,,"2007-05-17"
"72793524234","2022-10-03T15:53:00","FM-15","7",,,,,,,,,,,,,,,,,,,,,,,,,,,,,,,,,,,,,,,"30.01","53","74","0.00","FU:3 |HZ FU |FU","+0.04","6","48","30.01","CLR:00","29.98","10.00","62","VRB",,"5",,,,,,,,,,,,,,,,,,,,,,,,,,,,,,,,,,,,,"MET11110/03/22 15:53:02 METAR KBFI 032353Z VRB04KT 10SM FU CLR 23/12 A3001 RMK AO2 SLP161 T02330117 10239 20189 56013","FM-15","7",,,,,,,,,,,,,,,,,,,,,,,,,,,"2007-05-17"
"72793524234","2022-10-03T16:53:00","FM-15","7",,,,,,,,,,,,,,,,,,,,,,,,,,,,,,,,,,,,,,,"30.01","53","72","0.00","FU:3 |HZ FU |FU",,,"52","30.01","CLR:00","29.98","10.00","61","330",,"6",,,,,,,,,,,,,,,,,,,,,,,,,,,,,,,,,,,,,"MET09310/03/22 16:53:01 METAR KBFI 040053Z 33005KT 10SM FU CLR 22/12 A3001 RMK AO2 SLP161 T02220117","FM-15","7",,,,,,,,,,,,,,,,,,,,,,,,,,,"2007-05-17"
"72793524234","2022-10-03T17:53:00","FM-15","7",,,,,,,,,,,,,,,,,,,,,,,,,,,,,,,,,,,,,,,"30.01","53","69","0.00","FU:3 |HZ FU |FU",,,"57","30.01","CLR:00","29.98","10.00","60","000",,"0",,,,,,,,,,,,,,,,,,,,,,,,,,,,,,,,,,,,,"MET09310/03/22 17:53:01 METAR KBFI 040153Z 00000KT 10SM FU CLR 21/12 A3001 RMK AO2 SLP161 T02060117","FM-15","7",,,,,,,,,,,,,,,,,,,,,,,,,,,"2007-05-17"
"72793524234","2022-10-03T18:53:00","FM-15","7",,,,,,,,,,,,,,,,,,,,,,,,,,,,,,,,,,,,,,,"30.01","53","66","0.00","FU:3 |HZ FU |FU","-0.01","3","63","30.01","CLR:00","29.98","10.00","59","000",,"0",,,,,,,,,,,,,,,,,,,,,,,,,,,,,,,,,,,,,"MET09910/03/22 18:53:01 METAR KBFI 040253Z 00000KT 10SM FU CLR 19/12 A3001 RMK AO2 SLP163 T01890117 53002","FM-15","7",,,,,,,,,,,,,,,,,,,,,,,,,,,"2007-05-17"
"72793524234","2022-10-03T19:53:00","FM-15","7",,,,,,,,,,,,,,,,,,,,,,,,,,,,,,,,,,,,,,,"30.03","53","64","0.00","FU:3 |HZ FU |FU",,,"68","30.03","CLR:00","30.00","10.00","58","000",,"0",,,,,,,,,,,,,,,,,,,,,,,,,,,,,,,,,,,,,"MET09310/03/22 19:53:01 METAR KBFI 040353Z 00000KT 10SM FU CLR 18/12 A3003 RMK AO2 SLP168 T01780117","FM-15","7",,,,,,,,,,,,,,,,,,,,,,,,,,,"2007-05-17"
"72793524234","2022-10-03T20:53:00","FM-15","7",,,,,,,,,,,,,,,,,,,,,,,,,,,,,,,,,,,,,,,"30.04","53","63","0.00","FU:3 |HZ FU |FU",,,"70","30.03","CLR:00","30.01","10.00","57","000",,"0",,,,,,,,,,,,,,,,,,,,,,,,,,,,,,,,,,,,,"MET09310/03/22 20:53:01 METAR KBFI 040453Z 00000KT 10SM FU CLR 17/12 A3004 RMK AO2 SLP171 T01720117","FM-15","7",,,,,,,,,,,,,,,,,,,,,,,,,,,"2007-05-17"
"72793524234","2022-10-03T21:53:00","FM-15","7",,,,,,,,,,,,,,,,,,,,,,,,,,,,,,,,,,,,,,,"30.04","53","61","0.00","FU:3 |HZ FU |FU","-0.03","1","75","30.04","CLR:00","30.01","10.00","57","000",,"0",,,,,,,,,,,,,,,,,,,,,,,,,,,,,,,,,,,,,"MET11110/03/22 21:53:01 METAR KBFI 040553Z 00000KT 10SM FU CLR 16/12 A3004 RMK AO2 SLP172 T01610117 10239 20161 51009","FM-15","7",,,,,,,,,,,,,,,,,,,,,,,,,,,"2007-05-17"
"72793524234","2022-10-03T22:53:00","FM-15","7",,,,,,,,,,,,,,,,,,,,,,,,,,,,,,,,,,,,,,,"30.04","53","59","0.00","FU:3 |HZ FU |FU",,,"81","30.03","CLR:00","30.01","10.00","56","000",,"0",,,,,,,,,,,,,,,,,,,,,,,,,,,,,,,,,,,,,"MET09310/03/22 22:53:01 METAR KBFI 040653Z 00000KT 10SM FU CLR 15/12 A3004 RMK AO2 SLP171 T01500117","FM-15","7",,,,,,,,,,,,,,,,,,,,,,,,,,,"2007-05-17"
"72793524234","2022-10-03T23:53:00","FM-15","7",,,,,,,,,,,,,,,,,,,,,,,,,,,,,,,,,,,,,,,"30.04","52","58","0.00","FU:3 |HZ FU |FU",,,"81","30.04","CLR:00","30.01","10.00","55","000",,"0",,,,,,,,,,,,,,,,,,,,,,,,,,,,,,,,,,,,,"MET10310/03/22 23:53:01 METAR KBFI 040753Z 00000KT 10SM FU CLR 14/11 A3004 RMK AO2 SLP173 T01440111 402390111","FM-15","7",,,,,,,,,,,,,,,,,,,,,,,,,,,"2007-05-17"
"72793524234","2022-10-03T23:59:00","SOD  ","6",,,,,,,,,,,,,,,,,,"64s",,,"30.01",,"2.1","0s","7.2s","1s","75","52s","310","13","0.00",,,"310","8","HZ",,,,,,,,,,,,,,,,,,,,,,,,,,,,,,,,,,,,,,,,,,,,,,,,,,,,,,,"SOD73024 HR PRECIPITATION (IN):0.00  24 HR MAX TEMP (F):75 24 HR MAX TEMP TIME (LST):1610 24 HR MIN TEMP (F):52 24 HR MIN TEMP TIME (LST):0556 AVERAGE STATION PRESSURE:30.010 MINIMUM SEA LEVEL PRESSURE:30.00 TIME OF OCCURRENCE:1723 PEAK WIND SPEED (MPH):13  PEAK WIND DIR (DEG):310 PEAK WIND TIME (LST):1347  FASTEST 2MIN SPEED (MPH):8  FASTEST 2MIN DIR (DEG):310 FASTEST 2MIN TIME (LST):1421 AVERAGE WIND SPEED (MPH):2.1  24 HR AVG TEMP (F):64 HEATING DEGREE DAYS:1   COOLING DEGREE DAYS:0   LATEST DAY MAX TEMP (0700-1900 LST):75  LATEST NIGHT MIN TEMP(1900-0800 LST):52 HOURLY INCREMENTAL PRECIPITATION VALUES (IN):.00 0.00 0.00 0.00 0.00 0.00 0.00 0.00 0.00 0.00 0.00 0.00 0.00 0.00 0.00 0.00 0.00 0.00 0.00 0.00 0.00 0.00 0.00 0.00","SOD  ","6",,,,,,,,,,,,,,,,,,,,,,,,,"0611","1745","2007-05-17"
"72793524234","2022-10-04T00:53:00","FM-15","7",,,,,,,,,,,,,,,,,,,,,,,,,,,,,,,,,,,,,,,"30.05","52","57","0.00","FU:3 |HZ FU |FU","-0.01","3","83","30.04","CLR:00","30.02","10.00","54","000",,"0",,,,,,,,,,,,,,,,,,,,,,,,,,,,,,,,,,,,,"MET09910/04/22 00:53:01 METAR KBFI 040853Z 00000KT 10SM FU CLR 14/11 A3005 RMK AO2 SLP174 T01390111 53002","FM-15","7",,,,,,,,,,,,,,,,,,,,,,,,,,,"2007-05-17"
"72793524234","2022-10-04T01:53:00","FM-15","7",,,,,,,,,,,,,,,,,,,,,,,,,,,,,,,,,,,,,,,"30.04","51","56","0.00","FU:3 |HZ FU |FU",,,"84","30.04","CLR:00","30.01","10.00","53","000",,"0",,,,,,,,,,,,,,,,,,,,,,,,,,,,,,,,,,,,,"MET09310/04/22 01:53:01 METAR KBFI 040953Z 00000KT 10SM FU CLR 13/11 A3004 RMK AO2 SLP173 T01330106","FM-15","7",,,,,,,,,,,,,,,,,,,,,,,,,,,"2007-05-17"
"72793524234","2022-10-04T02:51:00","FM-16","6",,,,,,,,,,,,,,,,,,,,,,,,,,,,,,,,,,,,,,,"30.05","54","54",,"BR:1 FU:3 |FU |FU",,,"100",,"OVC:08 5","30.02","4.00","54","170",,"3",,,,,,,,,,,,,,,,,,,,,,,,,,,,,,,,,,,,,"MET09110/04/22 02:51:02 SPECI KBFI 041051Z 17003KT 4SM BR FU OVC005 12/12 A3005 RMK AO2 FIBI (KB)","FM-16","6",,,,,,,,,,,,,,,,,,,,,,,,,,,"2007-05-17"
"72793524234","2022-10-04T02:53:00","FM-15","7",,,,,,,,,,,,,,,,,,,,,,,,,,,,,,,,,,,,,,,"30.05","53","53","0.00","BR:1 FU:3 |HZ FU |FU",,,"100","30.05","OVC:08 5","30.02","4.00","53","170",,"3",,,,,,,,,,,,,,,,,,,,,,,,,,,,,,,,,,,,,"MET09810/04/22 02:53:01 METAR KBFI 041053Z 17003KT 4SM BR FU OVC005 12/12 A3005 RMK AO2 SLP176 T01170117","FM-15","7",,,,,,,,,,,,,,,,,,,,,,,,,,,"2007-05-17"
"72793524234","2022-10-04T03:51:00","FM-16","6",,,,,,,,,,,,,,,,,,,,,,,,,,,,,,,,,,,,,,,"30.05","54","55",,"BR:1 FU:3 |FU |FU",,,"94",,"OVC:08 4","30.02","3.00","54","160",,"6",,,,,,,,,,,,,,,,,,,,,,,,,,,,,,,,,,,,,"MET09110/04/22 03:51:02 SPECI KBFI 041151Z 16005KT 3SM BR FU OVC004 13/12 A3005 RMK AO2 FIBI (KB)","FM-16","6",,,,,,,,,,,,,,,,,,,,,,,,,,,"2007-05-17"
"72793524234","2022-10-04T03:53:00","FM-15","7",,,,,,,,,,,,,,,,,,,,,,,,,,,,,,,,,,,,,,,"30.05","54","55","0.00","BR:1 FU:3 |HZ FU |FU","-0.01","3","96","30.05","OVC:08 4","30.02","3.00","54","160",,"5",,,,,,,,,,,,,,,,,,,,,,,,,,,,,,,,,,,,,"MET11610/04/22 03:53:01 METAR KBFI 041153Z 16004KT 3SM BR FU OVC004 13/12 A3005 RMK AO2 SLP177 T01280122 10161 20117 53002","FM-15","7",,,,,,,,,,,,,,,,,,,,,,,,,,,"2007-05-17"
"72793524234","2022-10-04T04:51:00","FM-16","6",,,,,,,,,,,,,,,,,,,,,,,,,,,,,,,,,,,,,,,"30.06","54","54",,"BR:1 ||",,,"100",,"OVC:08 3","30.03","2.00","54","180",,"6",,,,,,,,,,,,,,,,,,,,,,,,,,,,,,,,,,,,,"MET08810/04/22 04:51:02 SPECI KBFI 041251Z 18005KT 2SM BR OVC003 12/12 A3006 RMK AO2 FIBI (KB)","FM-16","6",,,,,,,,,,,,,,,,,,,,,,,,,,,"2007-05-17"
"72793524234","2022-10-04T04:53:00","FM-15","7",,,,,,,,,,,,,,,,,,,,,,,,,,,,,,,,,,,,,,,"30.07","54","54","0.00","BR:1 ||",,,"100","30.06","OVC:08 3","30.04","2.00","54","170",,"6",,,,,,,,,,,,,,,,,,,,,,,,,,,,,,,,,,,,,"MET09510/04/22 04:53:01 METAR KBFI 041253Z 17005KT 2SM BR OVC003 12/12 A3007 RMK AO2 SLP181 T01220122","FM-15","7",,,,,,,,,,,,,,,,,,,,,,,,,,,"2007-05-17"
"72793524234","2022-10-04T05:53:00","FM-15","7",,,,,,,,,,,,,,,,,,,,,,,,,,,,,,,,,,,,,,,"30.07","54","54","0.00","BR:1 ||",,,"100","30.07","OVC:08 3","30.04","2.00","54","160",,"6",,,,,,,,,,,,,,,,,,,,,,,,,,,,,,,,,,,,,"MET09510/04/22 05:53:02 METAR KBFI 041353Z 16005KT 2SM BR OVC003 12/12 A3007 RMK AO2 SLP182 T01220122","FM-15","7",,,,,,,,,,,,,,,,,,,,,,,,,,,"2007-05-17"
"72793524234","2022-10-04T06:51:00","FM-16","6",,,,,,,,,,,,,,,,,,,,,,,,,,,,,,,,,,,,,,,"30.08","54","54",,"BR:1 ||",,,"100",,"OVC:08 3","30.05","1.00","54","170",,"8",,,,,,,,,,,,,,,,,,,,,,,,,,,,,,,,,,,,,"MET08810/04/22 06:51:02 SPECI KBFI 041451Z 17007KT 1SM BR OVC003 12/12 A3008 RMK AO2 FIBI (PC)","FM-16","6",,,,,,,,,,,,,,,,,,,,,,,,,,,"2007-05-17"
"72793524234","2022-10-04T06:53:00","FM-15","7",,,,,,,,,,,,,,,,,,,,,,,,,,,,,,,,,,,,,,,"30.08","54","54","0.00","BR:1 ||","-0.03","3","100","30.08","OVC:08 3","30.05","1.00","54","160",,"6",,,,,,,,,,,,,,,,,,,,,,,,,,,,,,,,,,,,,"MET10110/04/22 06:53:02 METAR KBFI 041453Z 16005KT 1SM BR OVC003 12/12 A3008 RMK AO2 SLP187 T01220122 53010","FM-15","7",,,,,,,,,,,,,,,,,,,,,,,,,,,"2007-05-17"
"72793524234","2022-10-04T07:53:00","FM-15","7",,,,,,,,,,,,,,,,,,,,,,,,,,,,,,,,,,,,,,,"30.09","54","54","0.00","BR:1 ||",,,"100","30.09","OVC:08 3","30.06","1.00","54","160",,"6",,,,,,,,,,,,,,,,,,,,,,,,,,,,,,,,,,,,,"MET09510/04/22 07:53:02 METAR KBFI 041553Z 16005KT 1SM BR OVC003 12/12 A3009 RMK AO2 SLP188 T01220122","FM-15","7",,,,,,,,,,,,,,,,,,,,,,,,,,,"2007-05-17"
"72793524234","2022-10-04T08:53:00","FM-15","7",,,,,,,,,,,,,,,,,,,,,,,,,,,,,,,,,,,,,,,"30.09","55","55","0.00","BR:1 ||",,,"100","30.09","OVC:08 4","30.06","1.00","55","190",,"3",,,,,,,,,,,,,,,,,,,,,,,,,,,,,,,,,,,,,"MET09710/04/22 08:53:02 METAR KBFI 041653Z 19003KT 1SM BR OVC004 13/13 A3009 RMK AO2 SLP189 T01280128 $","FM-15","7",,,,,,,,,,,,,,,,,,,,,,,,,,,"2007-05-17"
"72793524234","2022-10-04T09:24:00","FM-16","7",,,,,,,,,,,,,,,,,,,,,,,,,,,,,,,,,,,,,,,"30.09","55","55",,"BR:1 ||",,,"100",,"OVC:08 5","30.06","1.00","55","VRB",,"6",,,,,,,,,,,,,,,,,,,,,,,,,,,,,,,,,,,,,"MET09010/04/22 09:24:02 SPECI KBFI 041724Z VRB05KT 1SM BR OVC005 13/13 A3009 RMK AO2 T01280128 $","FM-16","7",,,,,,,,,,,,,,,,,,,,,,,,,,,"2007-05-17"
"72793524234","2022-10-04T09:53:00","FM-15","7",,,,,,,,,,,,,,,,,,,,,,,,,,,,,,,,,,,,,,,"30.09","55","55","0.00","BR:1 ||","-0.01","1","100","30.09","OVC:08 5","30.06","1.00","55","220",,"5",,,,,,,,,,,,,,,,,,,,,,,,,,,,,,,,,,,,,"MET11510/04/22 09:53:02 METAR KBFI 041753Z 22004KT 1SM BR OVC005 13/13 A3009 RMK AO2 SLP189 T01280128 10128 20122 51002 $","FM-15","7",,,,,,,,,,,,,,,,,,,,,,,,,,,"2007-05-17"
"72793524234","2022-10-04T10:00:00","FM-16","7",,,,,,,,,,,,,,,,,,,,,,,,,,,,,,,,,,,,,,,"30.09","55","55",,"BR:1 ||",,,"100",,"OVC:08 6","30.06","3.00","55","240",,"3",,,,,,,,,,,,,,,,,,,,,,,,,,,,,,,,,,,,,"MET09010/04/22 10:00:02 SPECI KBFI 041800Z 24003KT 3SM BR OVC006 13/13 A3009 RMK AO2 T01280128 $","FM-16","7",,,,,,,,,,,,,,,,,,,,,,,,,,,"2007-05-17"
"72793524234","2022-10-04T10:53:00","FM-15","7",,,,,,,,,,,,,,,,,,,,,,,,,,,,,,,,,,,,,,,"30.08","54","57","0.00","BR:1 ||",,,"90","30.08","OVC:08 7","30.05","3.00","55",,,,,,,,,,,,,,,,,,,,,,,,,,,,,,,,,,,,,,,,"MET09710/04/22 10:53:02 METAR KBFI 041853Z      KT 3SM BR OVC007 14/12 A3008 RMK AO2 SLP186 T01390122 $","FM-15","7",,,,,,,,,,,,,,,,,,,,,,,,,,,"2007-05-17"
"72793524234","2022-10-04T11:53:00","FM-15","7",,,,,,,,,,,,,,,,,,,,,,,,,,,,,,,,,,,,,,,"30.07","54","58","0.00",,,,"87","30.07","OVC:08 8","30.04","10.00","56","190",,"5",,,,,,,,,,,,,,,,,,,,,,,,,,,,,,,,,,,,,"MET09310/04/22 11:53:02 METAR KBFI 041953Z 19004KT 10SM OVC008 14/12 A3007 RMK AO2 SLP183 T01440122","FM-15","7",,,,,,,,,,,,,,,,,,,,,,,,,,,"2007-05-17"
"72793524234","2022-10-04T12:53:00","FM-15","7",,,,,,,,,,,,,,,,,,,,,,,,,,,,,,,,,,,,,,,"30.06","54","60","0.00",,"+0.03","8","80","30.06","OVC:08 9","30.03","9.00","57","VRB",,"3",,,,,,,,,,,,,,,,,,,,,,,,,,,,,,,,,,,,,"MET09810/04/22 12:53:02 METAR KBFI 042053Z VRB03KT 9SM OVC009 16/12 A3006 RMK AO2 SLP178 T01560122 58011","FM-15","7",,,,,,,,,,,,,,,,,,,,,,,,,,,"2007-05-17"
"72793524234","2022-10-04T13:00:00","FM-16","7",,,,,,,,,,,,,,,,,,,,,,,,,,,,,,,,,,,,,,,"30.06","55","60",,,,,"84",,"OVC:08 12","30.03","9.00","57","VRB",,"5",,,,,,,,,,,,,,,,,,,,,,,,,,,,,,,,,,,,,"MET08510/04/22 13:00:02 SPECI KBFI 042100Z VRB04KT 9SM OVC012 16/13 A3006 RMK AO2 T01560128","FM-16","7",,,,,,,,,,,,,,,,,,,,,,,,,,,"2007-05-17"
"72793524234","2022-10-04T13:08:00","FM-16","7",,,,,,,,,,,,,,,,,,,,,,,,,,,,,,,,,,,,,,,"30.06","55","60",,,,,"84",,"OVC:08 9","30.03","8.00","57",,,,,,,,,,,,,,,,,,,,,,,,,,,,,,,,,,,,,,,,"MET08510/04/22 13:08:02 SPECI KBFI 042108Z      KT 8SM OVC009 16/13 A3006 RMK AO2 T01560128","FM-16","7",,,,,,,,,,,,,,,,,,,,,,,,,,,"2007-05-17"
"72793524234","2022-10-04T13:51:00","FM-16","6",,,,,,,,,,,,,,,,,,,,,,,,,,,,,,,,,,,,,,,"30.05","55","61",,,,,"83",,"BKN:07 13","30.02","7.00","58","VRB",,"3",,,,,,,,,,,,,,,,,,,,,,,,,,,,,,,,,,,,,"MET08610/04/22 13:51:02 SPECI KBFI 042151Z VRB03KT 7SM BKN013 16/13 A3005 RMK AO2 FIBI (TWR)","FM-16","6",,,,,,,,,,,,,,,,,,,,,,,,,,,"2007-05-17"
"72793524234","2022-10-04T13:53:00","FM-15","7",,,,,,,,,,,,,,,,,,,,,,,,,,,,,,,,,,,,,,,"30.05","55","60","0.00",,,,"84","30.04","BKN:07 13","30.02","7.00","57","240",,"3",,,,,,,,,,,,,,,,,,,,,,,,,,,,,,,,,,,,,"MET09210/04/22 13:53:02 METAR KBFI 042153Z 24003KT 7SM BKN013 16/13 A3005 RMK AO2 SLP174 T01560128","FM-15","7",,,,,,,,,,,,,,,,,,,,,,,,,,,"2007-05-17"
"72793524234","2022-10-04T14:53:00","FM-15","7",,,,,,,,,,,,,,,,,,,,,,,,,,,,,,,,,,,,,,,"30.04","56","63","0.00",,,,"78","30.04","SCT:04 13 BKN:07 100","30.01","7.00","59","000",,"0",,,,,,,,,,,,,,,,,,,,,,,,,,,,,,,,,,,,,"MET09910/04/22 14:53:02 METAR KBFI 042253Z 00000KT 7SM SCT013 BKN100 17/13 A3004 RMK AO2 SLP173 T01720133","FM-15","7",,,,,,,,,,,,,,,,,,,,,,,,,,,"2007-05-17"
"72793524234","2022-10-04T15:53:00","FM-15","7",,,,,,,,,,,,,,,,,,,,,,,,,,,,,,,,,,,,,,,"30.04","56","65","0.00",,"+0.02","6","73","30.04","CLR:00","30.01","10.00","60","000",,"0",,,,,,,,,,,,,,,,,,,,,,,,,,,,,,,,,,,,,"MET10810/04/22 15:53:02 METAR KBFI 042353Z 00000KT 10SM CLR 18/13 A3004 RMK AO2 SLP172 T01830133 10183 20128 56006","FM-15","7",,,,,,,,,,,,,,,,,,,,,,,,,,,"2007-05-17"
"72793524234","2022-10-04T16:53:00","FM-15","7",,,,,,,,,,,,,,,,,,,,,,,,,,,,,,,,,,,,,,,"30.04","55","64","0.00",,,,"73","30.03","CLR:00","30.01","10.00","59","320",,"6",,,,,,,,,,,,,,,,,,,,,,,,,,,,,,,,,,,,,"MET09010/04/22 16:53:01 METAR KBFI 050053Z 32005KT 10SM CLR 18/13 A3004 RMK AO2 SLP171 T01780128","FM-15","7",,,,,,,,,,,,,,,,,,,,,,,,,,,"2007-05-17"
"72793524234","2022-10-04T17:53:00","FM-15","7",,,,,,,,,,,,,,,,,,,,,,,,,,,,,,,,,,,,,,,"30.06","55","59","0.00",,,,"87","30.05","CLR:00","30.03","10.00","57","340",,"3",,,,,,,,,,,,,,,,,,,,,,,,,,,,,,,,,,,,,"MET09010/04/22 17:53:01 METAR KBFI 050153Z 34003KT 10SM CLR 15/13 A3006 RMK AO2 SLP177 T01500128","FM-15","7",,,,,,,,,,,,,,,,,,,,,,,,,,,"2007-05-17"
"72793524234","2022-10-04T18:53:00","FM-15","7",,,,,,,,,,,,,,,,,,,,,,,,,,,,,,,,,,,,,,,"30.07","54","58","0.00",,"-0.03","3","87","30.07","CLR:00","30.04","10.00","56","000",,"0",,,,,,,,,,,,,,,,,,,,,,,,,,,,,,,,,,,,,"MET09610/04/22 18:53:01 METAR KBFI 050253Z 00000KT 10SM CLR 14/12 A3007 RMK AO2 SLP183 T01440122 53011","FM-15","7",,,,,,,,,,,,,,,,,,,,,,,,,,,"2007-05-17"
"72793524234","2022-10-04T19:53:00","FM-15","7",,,,,,,,,,,,,,,,,,,,,,,,,,,,,,,,,,,,,,,"30.09","54","57","0.00",,,,"90","30.09","CLR:00","30.06","8.00","55","000",,"0",,,,,,,,,,,,,,,,,,,,,,,,,,,,,,,,,,,,,"MET08910/04/22 19:53:01 METAR KBFI 050353Z 00000KT 8SM CLR 14/12 A3009 RMK AO2 SLP188 T01390122","FM-15","7",,,,,,,,,,,,,,,,,,,,,,,,,,,"2007-05-17"
"72793524234","2022-10-04T20:53:00","FM-15","7",,,,,,,,,,,,,,,,,,,,,,,,,,,,,,,,,,,,,,,"30.10","54","57","0.00",,,,"90","30.09","CLR:00","30.07","8.00","55","000",,"0",,,,,,,,,,,,,,,,,,,,,,,,,,,,,,,,,,,,,"MET08910/04/22 20:53:01 METAR KBFI 050453Z 00000KT 8SM CLR 14/12 A3010 RMK AO2 SLP191 T01390122","FM-15","7",,,,,,,,,,,,,,,,,,,,,,,,,,,"2007-05-17"
"72793524234","2022-10-04T21:45:00","FM-16","7",,,,,,,,,,,,,,,,,,,,,,,,,,,,,,,,,,,,,,,"30.11","55","57",,,,,"93",,"BKN:07 9","30.08","10.00","56","260",,"3",,,,,,,,,,,,,,,,,,,,,,,,,,,,,,,,,,,,,"MET09810/04/22 21:45:01 SPECI KBFI 050545Z 26003KT 10SM BKN009 14/13 A3011 RMK AO2 CIG 008V011 T01390128","FM-16","7",,,,,,,,,,,,,,,,,,,,,,,,,,,"2007-05-17"
"72793524234","2022-10-04T21:53:00","FM-15","7",,,,,,,,,,,,,,,,,,,,,,,,,,,,,,,,,,,,,,,"30.11","56","57","0.00",,"-0.04","3","96","30.11","BKN:07 9","30.08","10.00","56","000",,"0",,,,,,,,,,,,,,,,,,,,,,,,,,,,,,,,,,,,,"MET12310/04/22 21:53:01 METAR KBFI 050553Z 00000KT 10SM BKN009 14/13 A3011 RMK AO2 CIG 007V011 SLP196 T01390133 10189 20133 53013","FM-15","7",,,,,,,,,,,,,,,,,,,,,,,,,,,"2007-05-17"
"72793524234","2022-10-04T22:53:00","FM-15","7",,,,,,,,,,,,,,,,,,,,,,,,,,,,,,,,,,,,,,,"30.12","56","58","0.00",,,,"93","30.12","OVC:08 8","30.09","10.00","57","000",,"0",,,,,,,,,,,,,,,,,,,,,,,,,,,,,,,,,,,,,"MET09310/04/22 22:53:01 METAR KBFI 050653Z 00000KT 10SM OVC008 14/13 A3012 RMK AO2 SLP199 T01440133","FM-15","7",,,,,,,,,,,,,,,,,,,,,,,,,,,"2007-05-17"
"72793524234","2022-10-04T23:53:00","FM-15","7",,,,,,,,,,,,,,,,,,,,,,,,,,,,,,,,,,,,,,,"30.13","56","58","0.00",,,,"93","30.13","OVC:08 8","30.10","10.00","57","130",,"7",,,,,,,,,,,,,,,,,,,,,,,,,,,,,,,,,,,,,"MET10310/04/22 23:53:01 METAR KBFI 050753Z 13006KT 10SM OVC008 14/13 A3013 RMK AO2 SLP203 T01440133 401890117","FM-15","7",,,,,,,,,,,,,,,,,,,,,,,,,,,"2007-05-17"
"72793524234","2022-10-04T23:59:00","SOD  ","6",,,,,,,,,,,,,,,,,,"60",,,"30.03",,"2.9","0","3.5","5","66","53","240","17","0.00",,,"300","8","BR HZ",,,,,,,,,,,,,,,,,,,,,,,,,,,,,,,,,,,,,,,,,,,,,,,,,,,,,,,"SOD73024 HR PRECIPITATION (IN):0.00  24 HR MAX TEMP (F):66 24 HR MAX TEMP TIME (LST):1616 24 HR MIN TEMP (F):53 24 HR MIN TEMP TIME (LST):0259 AVERAGE STATION PRESSURE:30.035 MINIMUM SEA LEVEL PRESSURE:30.03 TIME OF OCCURRENCE:1657 PEAK WIND SPEED (MPH):17  PEAK WIND DIR (DEG):240 PEAK WIND TIME (LST):1322  FASTEST 2MIN SPEED (MPH):8  FASTEST 2MIN DIR (DEG):300 FASTEST 2MIN TIME (LST):1713 AVERAGE WIND SPEED (MPH):2.9  24 HR AVG TEMP (F):60 HEATING DEGREE DAYS:5   COOLING DEGREE DAYS:0   LATEST DAY MAX TEMP (0700-1900 LST):66  LATEST NIGHT MIN TEMP(1900-0800 LST):53 HOURLY INCREMENTAL PRECIPITATION VALUES (IN):.00 0.00 0.00 0.00 0.00 0.00 0.00 0.00 0.00 0.00 0.00 0.00 0.00 0.00 0.00 0.00 0.00 0.00 0.00 0.00 0.00 0.00 0.00 0.00","SOD  ","6",,,,,,,,,,,,,,,,,,,,,,,,,"0612","1743","2007-05-17"
"72793524234","2022-10-05T00:53:00","FM-15","7",,,,,,,,,,,,,,,,,,,,,,,,,,,,,,,,,,,,,,,"30.14","55","57","0.00",,"-0.03","1","93","30.14","OVC:08 7","30.11","10.00","56","160",,"6",,,,,,,,,,,,,,,,,,,,,,,,,,,,,,,,,,,,,"MET09910/05/22 00:53:01 METAR KBFI 050853Z 16005KT 10SM OVC007 14/13 A3014 RMK AO2 SLP206 T01390128 51010","FM-15","7",,,,,,,,,,,,,,,,,,,,,,,,,,,"2007-05-17"
"72793524234","2022-10-05T01:53:00","FM-15","7",,,,,,,,,,,,,,,,,,,,,,,,,,,,,,,,,,,,,,,"30.15","55","57","0.00",,,,"93","30.15","OVC:08 7","30.12","8.00","56","VRB",,"3",,,,,,,,,,,,,,,,,,,,,,,,,,,,,,,,,,,,,"MET09210/05/22 01:53:01 METAR KBFI 050953Z VRB03KT 8SM OVC007 14/13 A3015 RMK AO2 SLP209 T01390128","FM-15","7",,,,,,,,,,,,,,,,,,,,,,,,,,,"2007-05-17"
"72793524234","2022-10-05T02:53:00","FM-15","7",,,,,,,,,,,,,,,,,,,,,,,,,,,,,,,,,,,,,,,"30.16","55","57","0.00",,,,"93","30.16","OVC:08 8","30.13","10.00","56","260",,"5",,,,,,,,,,,,,,,,,,,,,,,,,,,,,,,,,,,,,"MET09310/05/22 02:53:01 METAR KBFI 051053Z 26004KT 10SM OVC008 14/13 A3016 RMK AO2 SLP213 T01390128","FM-15","7",,,,,,,,,,,,,,,,,,,,,,,,,,,"2007-05-17"
"72793524234","2022-10-05T03:53:00","FM-15","7",,,,,,,,,,,,,,,,,,,,,,,,,,,,,,,,,,,,,,,"30.17","54","57","0.00",,"-0.02","1","90","30.16","OVC:08 9","30.14","8.00","55","000",,"0",,,,,,,,,,,,,,,,,,,,,,,,,,,,,,,,,,,,,"MET11010/05/22 03:53:01 METAR KBFI 051153Z 00000KT 8SM OVC009 14/12 A3017 RMK AO2 SLP214 T01390122 10144 20139 51008","FM-15","7",,,,,,,,,,,,,,,,,,,,,,,,,,,"2007-05-17"
"72793524234","2022-10-05T04:02:00","FM-16","7",,,,,,,,,,,,,,,,,,,,,,,,,,,,,,,,,,,,,,,"30.17","54","57",,,,,"90",,"OVC:08 9","30.14","10.00","55","220",,"3",,,,,,,,,,,,,,,,,,,,,,,,,,,,,,,,,,,,,"MET08610/05/22 04:02:01 SPECI KBFI 051202Z 22003KT 10SM OVC009 14/12 A3017 RMK AO2 T01390122","FM-16","7",,,,,,,,,,,,,,,,,,,,,,,,,,,"2007-05-17"
"72793524234","2022-10-05T04:53:00","FM-15","7",,,,,,,,,,,,,,,,,,,,,,,,,,,,,,,,,,,,,,,"30.17","54","57","0.00",,,,"90","30.17","OVC:08 9","30.14","10.00","55","180",,"6",,,,,,,,,,,,,,,,,,,,,,,,,,,,,,,,,,,,,"MET09310/05/22 04:53:01 METAR KBFI 051253Z 18005KT 10SM OVC009 14/12 A3017 RMK AO2 SLP216 T01390122","FM-15","7",,,,,,,,,,,,,,,,,,,,,,,,,,,"2007-05-17"
"72793524234","2022-10-05T05:53:00","FM-15","7",,,,,,,,,,,,,,,,,,,,,,,,,,,,,,,,,,,,,,,"30.18","54","57","0.00",,,,"90","30.18","OVC:08 9","30.15","10.00","55","000",,"0",,,,,,,,,,,,,,,,,,,,,,,,,,,,,,,,,,,,,"MET09310/05/22 05:53:02 METAR KBFI 051353Z 00000KT 10SM OVC009 14/12 A3018 RMK AO2 SLP219 T01390122","FM-15","7",,,,,,,,,,,,,,,,,,,,,,,,,,,"2007-05-17"
"72793524234","2022-10-05T06:53:00","FM-15","7",,,,,,,,,,,,,,,,,,,,,,,,,,,,,,,,,,,,,,,"30.18","54","57","0.00",,"-0.01","1","90","30.18","OVC:08 9","30.15","9.00","55","000",,"0",,,,,,,,,,,,,,,,,,,,,,,,,,,,,,,,,,,,,"MET10010/05/22 06:53:02 METAR KBFI 051453Z 00000KT 9SM OVC009 14/12 A3018 RMK AO2 SLP220 T01390122 51005 $","FM-15","7",,,,,,,,,,,,,,,,,,,,,,,,,,,"2007-05-17"
"72793524234","2022-10-05T07:53:00","FM-15","7",,,,,,,,,,,,,,,,,,,,,,,,,,,,,,,,,,,,,,,"30.19","55","57","0.00","BR:1 ||",,,"93","30.19","OVC:08 9","30.16","4.00","56","000",,"0",,,,,,,,,,,,,,,,,,,,,,,,,,,,,,,,,,,,,"MET09710/05/22 07:53:02 METAR KBFI 051553Z 00000KT 4SM BR OVC009 14/13 A3019 RMK AO2 SLP223 T01390128 $","FM-15","7",,,,,,,,,,,,,,,,,,,,,,,,,,,"2007-05-17"
"72793524234","2022-10-05T08:53:00","FM-15","4",,,,,,,,,,,,,,,,,,,,,,,,,,,,,,,,,,,,,,,"30.21","55","58",,,,,"90","30.20",,,"6.00",,"000",,"0",,,,,,,,,,,,,,,,,,,,,,,,,,,,,,,,,,,,,"MET078METAR KBFI 051653Z 00000KT 6SM BR OVC009 14/13 A3021 RMK AO2 SLP228 T01440128=","FM-15","4",,,,,,,,,,,,,,,,,,,,,,,,,,,"2007-05-17"
"72793524234","2022-10-05T09:53:00","FM-15","4",,,,,,,,,,,,,,,,,,,,,,,,,,,,,,,,,,,,,,,"30.21","55","59",,,"-0.03","1","87","30.21",,,"6.00",,"330",,"3",,,,,,,,,,,,,,,,,,,,,,,,,,,,,,,,,,,,,"MET096METAR KBFI 051753Z 33003KT 6SM BR OVC009 15/13 A3021 RMK AO2 SLP229 T01500128 10150 20139 51009=","FM-15","4",,,,,,,,,,,,,,,,,,,,,,,,,,,"2007-05-17"
"72793524234","2022-10-05T10:53:00","FM-15","4",,,,,,,,,,,,,,,,,,,,,,,,,,,,,,,,,,,,,,,"30.20","55","59",,,,,"87","30.20",,,"5.00",,"000",,"0",,,,,,,,,,,,,,,,,,,,,,,,,,,,,,,,,,,,,"MET078METAR KBFI 051853Z 00000KT 5SM BR OVC008 15/13 A3020 RMK AO2 SLP227 T01500128=","FM-15","4",,,,,,,,,,,,,,,,,,,,,,,,,,,"2007-05-17"
"72793524234","2022-10-05T11:53:00","FM-15","4",,,,,,,,,,,,,,,,,,,,,,,,,,,,,,,,,,,,,,,"30.20","56","60",,,,,"86","30.19",,,"5.00",,"300",,"3",,,,,,,,,,,,,,,,,,,,,,,,,,,,,,,,,,,,,"MET078METAR KBFI 051953Z 30003KT 5SM BR OVC008 16/13 A3020 RMK AO2 SLP225 T01560133=","FM-15","4",,,,,,,,,,,,,,,,,,,,,,,,,,,"2007-05-17"
"72793524234","2022-10-05T12:53:00","FM-15","4",,,,,,,,,,,,,,,,,,,,,,,,,,,,,,,,,,,,,,,"30.19","56","61",,,"+0.02","8","84","30.18",,,"5.00",,"000",,"0",,,,,,,,,,,,,,,,,,,,,,,,,,,,,,,,,,,,,"MET084METAR KBFI 052053Z 00000KT 5SM BR OVC009 16/13 A3019 RMK AO2 SLP221 T01610133 58008=","FM-15","4",,,,,,,,,,,,,,,,,,,,,,,,,,,"2007-05-17"
"72793524234","2022-10-05T13:31:00","FM-16","4",,,,,,,,,,,,,,,,,,,,,,,,,,,,,,,,,,,,,,,"30.18","56","61",,,,,"84",,,,"6.00",,"VRB",,"3",,,,,,,,,,,,,,,,,,,,,,,,,,,,,,,,,,,,,"MET071SPECI KBFI 052131Z VRB03KT 6SM BR OVC011 16/13 A3018 RMK AO2 T01610133=","FM-16","4",,,,,,,,,,,,,,,,,,,,,,,,,,,"2007-05-17"
"72793524234","2022-10-05T13:53:00","FM-15","4",,,,,,,,,,,,,,,,,,,,,,,,,,,,,,,,,,,,,,,"30.18","56","61",,,,,"84","30.17",,,"6.00",,"000",,"0",,,,,,,,,,,,,,,,,,,,,,,,,,,,,,,,,,,,,"MET083METAR KBFI 052153Z AUTO 00000KT 6SM BR OVC011 16/13 A3018 RMK AO2 SLP218 T01610133=","FM-15","4",,,,,,,,,,,,,,,,,,,,,,,,,,,"2007-05-17"
"72793524234","2022-10-05T14:53:00","FM-15","4",,,,,,,,,,,,,,,,,,,,,,,,,,,,,,,,,,,,,,,"30.16","56","62",,,,,"80","30.16",,,"8.00",,"070",,"6",,,,,,,,,,,,,,,,,,,,,,,,,,,,,,,,,,,,,"MET075METAR KBFI 052253Z 07005KT 8SM OVC015 17/13 A3016 RMK AO2 SLP213 T01670133=","FM-15","4",,,,,,,,,,,,,,,,,,,,,,,,,,,"2007-05-17"
"72793524234","2022-10-05T15:41:00","FM-16","7",,,,,,,,,,,,,,,,,,,,,,,,,,,,,,,,,,,,,,,"30.16","56","63",,,,,"78",,"FEW:02 18","30.13","10.00","59","VRB",,"3",,,,,,,,,,,,,,,,,,,,,,,,,,,,,,,,,,,,,"MET08610/05/22 15:41:02 SPECI KBFI 052341Z VRB03KT 10SM FEW018 17/13 A3016 RMK AO2 T01720133","FM-16","7",,,,,,,,,,,,,,,,,,,,,,,,,,,"2007-05-17"
"72793524234","2022-10-05T15:53:00","FM-15","4",,,,,,,,,,,,,,,,,,,,,,,,,,,,,,,,,,,,,,,"30.16","56","64",,,"+0.03","6","75","30.15",,,"10.00",,"000",,"0",,,,,,,,,,,,,,,,,,,,,,,,,,,,,,,,,,,,,"MET094METAR KBFI 052353Z 00000KT 10SM SCT015 18/13 A3016 RMK AO2 SLP211 T01780133 10178 20144 56010=","FM-15","4",,,,,,,,,,,,,,,,,,,,,,,,,,,"2007-05-17"
"72793524234","2022-10-05T16:53:00","FM-15","4",,,,,,,,,,,,,,,,,,,,,,,,,,,,,,,,,,,,,,,"30.16","56","63",,,,,"78","30.15",,,"10.00",,"000",,"0",,,,,,,,,,,,,,,,,,,,,,,,,,,,,,,,,,,,,"MET073METAR KBFI 060053Z 00000KT 10SM CLR 17/13 A3016 RMK AO2 SLP211 T01720133=","FM-15","4",,,,,,,,,,,,,,,,,,,,,,,,,,,"2007-05-17"
"72793524234","2022-10-05T17:53:00","FM-15","4",,,,,,,,,,,,,,,,,,,,,,,,,,,,,,,,,,,,,,,"30.16","55","60",,,,,"84","30.15",,,"9.00",,"000",,"0",,,,,,,,,,,,,,,,,,,,,,,,,,,,,,,,,,,,,"MET072METAR KBFI 060153Z 00000KT 9SM CLR 16/13 A3016 RMK AO2 SLP211 T01560128=","FM-15","4",,,,,,,,,,,,,,,,,,,,,,,,,,,"2007-05-17"
"72793524234","2022-10-05T18:53:00","FM-15","4",,,,,,,,,,,,,,,,,,,,,,,,,,,,,,,,,,,,,,,"30.16","55","59",,,"-0.01","3","87","30.16",,,"9.00",,"000",,"0",,,,,,,,,,,,,,,,,,,,,,,,,,,,,,,,,,,,,"MET081METAR KBFI 060253Z 00000KT 9SM SCT018 15/13 A3016 RMK AO2 SLP214 T01500128 53003=","FM-15","4",,,,,,,,,,,,,,,,,,,,,,,,,,,"2007-05-17"
"72793524234","2022-10-05T19:53:00","FM-15","4",,,,,,,,,,,,,,,,,,,,,,,,,,,,,,,,,,,,,,,"30.16","55","58",,,,,"90","30.16",,,"7.00",,"000",,"0",,,,,,,,,,,,,,,,,,,,,,,,,,,,,,,,,,,,,"MET072METAR KBFI 060353Z 00000KT 7SM CLR 14/13 A3016 RMK AO2 SLP213 T01440128=","FM-15","4",,,,,,,,,,,,,,,,,,,,,,,,,,,"2007-05-17"
"72793524234","2022-10-05T20:53:00","FM-15","4",,,,,,,,,,,,,,,,,,,,,,,,,,,,,,,,,,,,,,,"30.17","54","56",,,,,"93","30.17",,,"6.00",,"000",,"0",,,,,,,,,,,,,,,,,,,,,,,,,,,,,,,,,,,,,"MET075METAR KBFI 060453Z 00000KT 6SM BR CLR 13/12 A3017 RMK AO2 SLP216 T01330122=","FM-15","4",,,,,,,,,,,,,,,,,,,,,,,,,,,"2007-05-17"
"72793524234","2022-10-05T21:53:00","FM-15","4",,,,,,,,,,,,,,,,,,,,,,,,,,,,,,,,,,,,,,,"30.17","54","56",,,"-0.01","3","93","30.17",,,"5.00",,"000",,"0",,,,,,,,,,,,,,,,,,,,,,,,,,,,,,,,,,,,,"MET093METAR KBFI 060553Z 00000KT 5SM BR CLR 13/12 A3017 RMK AO2 SLP216 T01330122 10178 20128 53003=","FM-15","4",,,,,,,,,,,,,,,,,,,,,,,,,,,"2007-05-17"
"72793524234","2022-10-05T22:53:00","FM-15","4",,,,,,,,,,,,,,,,,,,,,,,,,,,,,,,,,,,,,,,"30.18","53","55",,,,,"93","30.17",,,"6.00",,"000",,"0",,,,,,,,,,,,,,,,,,,,,,,,,,,,,,,,,,,,,"MET075METAR KBFI 060653Z 00000KT 6SM BR CLR 13/12 A3018 RMK AO2 SLP218 T01280117=","FM-15","4",,,,,,,,,,,,,,,,,,,,,,,,,,,"2007-05-17"
"72793524234","2022-10-05T23:53:00","FM-15","4",,,,,,,,,,,,,,,,,,,,,,,,,,,,,,,,,,,,,,,"30.17","54","55",,,,,"96","30.17",,,"4.00",,"000",,"0",,,,,,,,,,,,,,,,,,,,,,,,,,,,,,,,,,,,,"MET085METAR KBFI 060753Z 00000KT 4SM BR CLR 13/12 A3017 RMK AO2 SLP217 T01280122 401780122=","FM-15","4",,,,,,,,,,,,,,,,,,,,,,,,,,,"2007-05-17"
"72793524234","2022-10-05T23:59:00","SOD  ","6",,,,,,,,,,,,,,,,,,"59s",,,"30.14",,"1.3","0s","2.8s","6s","64s","54","090","10","0.00",,,"160","8","BR",,,,,,,,,,,,,,,,,,,,,,,,,,,,,,,,,,,,,,,,,,,,,,,,,,,,,,,"SOD73024 HR PRECIPITATION (IN):0.00  24 HR MAX TEMP (F):64 24 HR MAX TEMP TIME (LST):1644 24 HR MIN TEMP (F):54 24 HR MIN TEMP TIME (LST):2330 AVERAGE STATION PRESSURE:30.140 MINIMUM SEA LEVEL PRESSURE:30.13 TIME OF OCCURRENCE:0040 PEAK WIND SPEED (MPH):10  PEAK WIND DIR (DEG):90  PEAK WIND TIME (LST):1450  FASTEST 2MIN SPEED (MPH):8  FASTEST 2MIN DIR (DEG):160 FASTEST 2MIN TIME (LST):0131 AVERAGE WIND SPEED (MPH):1.3  24 HR AVG TEMP (F):59 HEATING DEGREE DAYS:6   COOLING DEGREE DAYS:0   LATEST DAY MAX TEMP (0700-1900 LST):64  LATEST NIGHT MIN TEMP(1900-0800 LST):56 HOURLY INCREMENTAL PRECIPITATION VALUES (IN):.00 0.00 0.00 0.00 0.00 0.00 0.00 0.00 0.00 0.00 0.00 0.00 0.00 0.00 0.00 0.00 0.00 0.00 0.00 0.00 0.00 0.00 0.00 0.00","SOD  ","6",,,,,,,,,,,,,,,,,,,,,,,,,"0614","1741","2007-05-17"
"72793524234","2022-10-06T00:50:00","FM-16","7",,,,,,,,,,,,,,,,,,,,,,,,,,,,,,,,,,,,,,,"30.17","54","54",,"BR:1 ||",,,"100",,"SCT:04 6","30.14","6.00","54","000",,"0",,,,,,,,,,,,,,,,,,,,,,,,,,,,,,,,,,,,,"MET08310/06/22 00:50:02 SPECI KBFI 060850Z 00000KT 6SM BR SCT006 12/12 A3017 RMK AO2 (SN)","FM-16","7",,,,,,,,,,,,,,,,,,,,,,,,,,,"2007-05-17"
"72793524234","2022-10-06T00:53:00","FM-15","7",,,,,,,,,,,,,,,,,,,,,,,,,,,,,,,,,,,,,,,"30.17","52","53","0.00","BR:1 ||","+0.00","6","96","30.17","SCT:04 6","30.14","6.00","52","000",,"0",,,,,,,,,,,,,,,,,,,,,,,,,,,,,,,,,,,,,"MET10610/06/22 00:53:02 METAR KBFI 060853Z 00000KT 6SM BR SCT006 12/11 A3017 RMK AO2 SLP217 T01170111 56001 (SN)","FM-15","7",,,,,,,,,,,,,,,,,,,,,,,,,,,"2007-05-17"
"72793524234","2022-10-06T01:51:00","FM-16","6",,,,,,,,,,,,,,,,,,,,,,,,,,,,,,,,,,,,,,,"30.18","54","54",,"BR:1 ||",,,"100",,"OVC:08 6","30.15","4.00","54","140",,"3",,,,,,,,,,,,,,,,,,,,,,,,,,,,,,,,,,,,,"MET08810/06/22 01:51:02 SPECI KBFI 060951Z 14003KT 4SM BR OVC006 12/12 A3018 RMK AO2 FIBI (SN)","FM-16","6",,,,,,,,,,,,,,,,,,,,,,,,,,,"2007-05-17"
"72793524234","2022-10-06T01:53:00","FM-15","7",,,,,,,,,,,,,,,,,,,,,,,,,,,,,,,,,,,,,,,"30.18","53","54","0.00","BR:1 ||",,,"97","30.17","OVC:08 6","30.15","4.00","53","000",,"0",,,,,,,,,,,,,,,,,,,,,,,,,,,,,,,,,,,,,"MET10010/06/22 01:53:02 METAR KBFI 060953Z 00000KT 4SM BR OVC006 12/12 A3018 RMK AO2 SLP218 T01220117 (SN)","FM-15","7",,,,,,,,,,,,,,,,,,,,,,,,,,,"2007-05-17"
"72793524234","2022-10-06T02:45:00","FM-16","7",,,,,,,,,,,,,,,,,,,,,,,,,,,,,,,,,,,,,,,"30.17","54","54",,"FG:2 |FG |",,,"100",,"OVC:08 5","30.14","0.50","54","140",,"5",,,,,,,,,,,,,,,,,,,,,,,,,,,,,,,,,,,,,"MET09510/06/22 02:45:02 SPECI KBFI 061045Z 14004KT 1/2SM FG OVC005 12/12 A3017 RMK AO2 T01220122 (SN)","FM-16","7",,,,,,,,,,,,,,,,,,,,,,,,,,,"2007-05-17"
"72793524234","2022-10-06T02:53:00","FM-15","7",,,,,,,,,,,,,,,,,,,,,,,,,,,,,,,,,,,,,,,"30.17","54","54","0.00","FG:2 |FG |",,,"100","30.17","OVC:08 4","30.14","0.50","54","150",,"5",,,,,,,,,,,,,,,,,,,,,,,,,,,,,,,,,,,,,"MET11410/06/22 02:53:02 METAR KBFI 061053Z 15004KT 1/2SM FG OVC004 12/12 A3017 RMK AO2 CIG 002V005 SLP217 T01220122 (SN)","FM-15","7",,,,,,,,,,,,,,,,,,,,,,,,,,,"2007-05-17"
"72793524234","2022-10-06T03:12:00","FM-16","7",,,,,,,,,,,,,,,,,,,,,,,,,,,,,,,,,,,,,,,"30.18","54","54",,"FG:2 s |FG s |",,,"100",,"VV:09 2","30.15","1.00s","54","150",,"3",,,,,,,,,,,,,,,,,,,,,,,,,,,,,,,,,,,,,"MET09210/06/22 03:12:02 SPECI KBFI 061112Z 15003KT 1SM FG VV002 12/12 A3018 RMK AO2 T01220122 (SN)","FM-16","7",,,,,,,,,,,,,,,,,,,,,,,,,,,"2007-05-17"
"72793524234","2022-10-06T03:53:00","FM-15","7",,,,,,,,,,,,,,,,,,,,,,,,,,,,,,,,,,,,,,,"30.17","54","54","0.00","BR:1 ||","-0.00","0","100","30.17","VV:09 4","30.14","1.00","54","VRB",,"3",,,,,,,,,,,,,,,,,,,,,,,,,,,,,,,,,,,,,"MET11710/06/22 03:53:02 METAR KBFI 061153Z VRB03KT 1SM BR VV004 12/12 A3017 RMK AO2 SLP217 T01220122 10133 20111 50000 (SN)","FM-15","7",,,,,,,,,,,,,,,,,,,,,,,,,,,"2007-05-17"
"72793524234","2022-10-06T04:53:00","FM-15","7",,,,,,,,,,,,,,,,,,,,,,,,,,,,,,,,,,,,,,,"30.17","55","55","0.00","BR:1 ||",,,"100","30.16","VV:09 4","30.14","2.00","55","000",,"0",,,,,,,,,,,,,,,,,,,,,,,,,,,,,,,,,,,,,"MET09910/06/22 04:53:02 METAR KBFI 061253Z 00000KT 2SM BR VV004 13/13 A3017 RMK AO2 SLP215 T01280128 (SN)","FM-15","7",,,,,,,,,,,,,,,,,,,,,,,,,,,"2007-05-17"
"72793524234","2022-10-06T05:53:00","FM-15","7",,,,,,,,,,,,,,,,,,,,,,,,,,,,,,,,,,,,,,,"30.17","55","56","0.00","BR:1 ||",,,"97","30.16","VV:09 4","30.14","2.00","55","000",,"0",,,,,,,,,,,,,,,,,,,,,,,,,,,,,,,,,,,,,"MET09910/06/22 05:53:02 METAR KBFI 061353Z 00000KT 2SM BR VV004 13/13 A3017 RMK AO2 SLP214 T01330128 (SN)","FM-15","7",,,,,,,,,,,,,,,,,,,,,,,,,,,"2007-05-17"
"72793524234","2022-10-06T06:00:00","FM-16","7",,,,,,,,,,,,,,,,,,,,,,,,,,,,,,,,,,,,,,,"30.17","55","56",,"BR:1 ||",,,"97",,"OVC:08 5","30.14","2.00","55","000",,"0",,,,,,,,,,,,,,,,,,,,,,,,,,,,,,,,,,,,,"MET09310/06/22 06:00:02 SPECI KBFI 061400Z 00000KT 2SM BR OVC005 13/13 A3017 RMK AO2 T01330128 (SN)","FM-16","7",,,,,,,,,,,,,,,,,,,,,,,,,,,"2007-05-17"
"72793524234","2022-10-06T06:53:00","FM-15","7",,,,,,,,,,,,,,,,,,,,,,,,,,,,,,,,,,,,,,,"30.17","55","56","0.00","BR:1 ||","-0.00","3","97","30.17","OVC:08 5","30.14","2.00","55","000",,"0",,,,,,,,,,,,,,,,,,,,,,,,,,,,,,,,,,,,,"MET10610/06/22 06:53:02 METAR KBFI 061453Z 00000KT 2SM BR OVC005 13/13 A3017 RMK AO2 SLP218 T01330128 53000 (SN)","FM-15","7",,,,,,,,,,,,,,,,,,,,,,,,,,,"2007-05-17"
"72793524234","2022-10-06T07:00:00","FM-16","7",,,,,,,,,,,,,,,,,,,,,,,,,,,,,,,,,,,,,,,"30.17","55","57",,"BR:1 ||",,,"93",,"OVC:08 5","30.14","3.00","56","000",,"0",,,,,,,,,,,,,,,,,,,,,,,,,,,,,,,,,,,,,"MET09310/06/22 07:00:02 SPECI KBFI 061500Z 00000KT 3SM BR OVC005 14/13 A3017 RMK AO2 T01390128 (SN)","FM-16","7",,,,,,,,,,,,,,,,,,,,,,,,,,,"2007-05-17"
"72793524234","2022-10-06T07:53:00","FM-15","7",,,,,,,,,,,,,,,,,,,,,,,,,,,,,,,,,,,,,,,"30.18","56","57","0.00","BR:1 ||",,,"96","30.18","OVC:08 5","30.15","3.00","56","290",,"3",,,,,,,,,,,,,,,,,,,,,,,,,,,,,,,,,,,,,"MET10010/06/22 07:53:02 METAR KBFI 061553Z 29003KT 3SM BR OVC005 14/13 A3018 RMK AO2 SLP219 T01390133 (SN)","FM-15","7",,,,,,,,,,,,,,,,,,,,,,,,,,,"2007-05-17"
"72793524234","2022-10-06T08:53:00","FM-15","7",,,,,,,,,,,,,,,,,,,,,,,,,,,,,,,,,,,,,,,"30.18","54","57","0.00","BR:1 ||",,,"90","30.17","OVC:08 5","30.15","5.00","55","290",,"5",,,,,,,,,,,,,,,,,,,,,,,,,,,,,,,,,,,,,"MET10010/06/22 08:53:02 METAR KBFI 061653Z 29004KT 5SM BR OVC005 14/12 A3018 RMK AO2 SLP218 T01390122 (SN)","FM-15","7",,,,,,,,,,,,,,,,,,,,,,,,,,,"2007-05-17"
"72793524234","2022-10-06T09:53:00","FM-15","7",,,,,,,,,,,,,,,,,,,,,,,,,,,,,,,,,,,,,,,"30.18","55","60","0.00",,"-0.00","0","84","30.17","OVC:08 9","30.15","7.00","57","000",,"0",,,,,,,,,,,,,,,,,,,,,,,,,,,,,,,,,,,,,"MET12710/06/22 09:53:02 METAR KBFI 061753Z 00000KT 7SM OVC009 16/13 A3018 RMK AO2 CIG 009V013 SLP218 T01560128 10156 20122 50000 (ND)","FM-15","7",,,,,,,,,,,,,,,,,,,,,,,,,,,"2007-05-17"
"72793524234","2022-10-06T10:27:00","FM-16","7",,,,,,,,,,,,,,,,,,,,,,,,,,,,,,,,,,,,,,,"30.17","55","62",,"HZ:7 |FU |HZ",,,"78",,"BKN:07 13","30.14","6.00","58","000",,"0",,,,,,,,,,,,,,,,,,,,,,,,,,,,,,,,,,,,,"MET09310/06/22 10:27:02 SPECI KBFI 061827Z 00000KT 6SM HZ BKN013 17/13 A3017 RMK AO2 T01670128 (ND)","FM-16","7",,,,,,,,,,,,,,,,,,,,,,,,,,,"2007-05-17"
"72793524234","2022-10-06T10:53:00","FM-15","7",,,,,,,,,,,,,,,,,,,,,,,,,,,,,,,,,,,,,,,"30.17","56","62","0.00","HZ:7 |FU |HZ",,,"80","30.16","BKN:07 13","30.14","6.00","59","VRB",,"5",,,,,,,,,,,,,,,,,,,,,,,,,,,,,,,,,,,,,"MET10010/06/22 10:53:02 METAR KBFI 061853Z VRB04KT 6SM HZ BKN013 17/13 A3017 RMK AO2 SLP214 T01670133 (ND)","FM-15","7",,,,,,,,,,,,,,,,,,,,,,,,,,,"2007-05-17"
"72793524234","2022-10-06T11:00:00","FM-16","6",,,,,,,,,,,,,,,,,,,,,,,,,,,,,,,,,,,,,,,"30.16","56","63",,,,,"78",,"CLR:00","30.13","8.00","59","060",,"6",,,,,,,,,,,,,,,,,,,,,,,,,,,,,,,,,,,,,"MET08710/06/22 11:00:02 SPECI KBFI 061900Z 06005KT 8SM CLR 17/13 A3016 RMK AO2 T01720133 (ND)","FM-16","6",,,,,,,,,,,,,,,,,,,,,,,,,,,"2007-05-17"
"72793524234","2022-10-06T11:53:00","FM-15","7",,,,,,,,,,,,,,,,,,,,,,,,,,,,,,,,,,,,,,,"30.15","56","66","0.00",,,,"70","30.15","CLR:00","30.12","9.00","60","VRB",,"3",,,,,,,,,,,,,,,,,,,,,,,,,,,,,,,,,,,,,"MET09410/06/22 11:53:02 METAR KBFI 061953Z VRB03KT 9SM CLR 19/13 A3015 RMK AO2 SLP210 T01890133 (ND)","FM-15","7",,,,,,,,,,,,,,,,,,,,,,,,,,,"2007-05-17"
"72793524234","2022-10-06T12:53:00","FM-15","7",,,,,,,,,,,,,,,,,,,,,,,,,,,,,,,,,,,,,,,"30.13","56","68","0.00",,"+0.04","8","65","30.13","CLR:00","30.10","8.00","61","300",,"5",,,,,,,,,,,,,,,,,,,,,,,,,,,,,,,,,,,,,"MET10010/06/22 12:53:02 METAR KBFI 062053Z 30004KT 8SM CLR 20/13 A3013 RMK AO2 SLP203 T02000133 58015 (ND)","FM-15","7",,,,,,,,,,,,,,,,,,,,,,,,,,,"2007-05-17"
"72793524234","2022-10-06T13:53:00","FM-15","7",,,,,,,,,,,,,,,,,,,,,,,,,,,,,,,,,,,,,,,"30.11","56","70","0.00",,,,"61","30.11","CLR:00","30.08","9.00","62","310",,"6",,,,,,,,,,,,,,,,,,,,,,,,,,,,,,,,,,,,,"MET09410/06/22 13:53:02 METAR KBFI 062153Z 31005KT 9SM CLR 21/13 A3011 RMK AO2 SLP196 T02110133 (ND)","FM-15","7",,,,,,,,,,,,,,,,,,,,,,,,,,,"2007-05-17"
"72793524234","2022-10-06T14:53:00","FM-15","7",,,,,,,,,,,,,,,,,,,,,,,,,,,,,,,,,,,,,,,"30.10","56","71","0.00",,,,"59","30.09","CLR:00","30.07","9.00","62","300",,"6",,,,,,,,,,,,,,,,,,,,,,,,,,,,,,,,,,,,,"MET09410/06/22 14:53:02 METAR KBFI 062253Z 30005KT 9SM CLR 22/13 A3010 RMK AO2 SLP191 T02170133 (ND)","FM-15","7",,,,,,,,,,,,,,,,,,,,,,,,,,,"2007-05-17"
"72793524234","2022-10-06T15:53:00","FM-15","7",,,,,,,,,,,,,,,,,,,,,,,,,,,,,,,,,,,,,,,"30.09","55","71","0.00","HZ:7 |FU |HZ","+0.04","6","57","30.09","CLR:00","30.06","6.00","62","320",,"6",,,,,,,,,,,,,,,,,,,,,,,,,,,,,,,,,,,,,"MET11510/06/22 15:53:02 METAR KBFI 062353Z 32005KT 6SM HZ CLR 22/13 A3009 RMK AO2 SLP188 T02170128 10222 20156 56015 (ND)","FM-15","7",,,,,,,,,,,,,,,,,,,,,,,,,,,"2007-05-17"
"72793524234","2022-10-06T16:53:00","FM-15","4",,,,,,,,,,,,,,,,,,,,,,,,,,,,,,,,,,,,,,,"30.08","55","69",,"|FU |",,,"61","30.08",,,"10.00",,"300",,"3",,,,,,,,,,,,,,,,,,,,,,,,,,,,,,,,,,,,,"MET076METAR KBFI 070053Z 30003KT 10SM HZ CLR 21/13 A3008 RMK AO2 SLP185 T02060128=","FM-15","4",,,,,,,,,,,,,,,,,,,,,,,,,,,"2007-05-17"
"72793524234","2022-10-06T17:53:00","FM-15","7",,,,,,,,,,,,,,,,,,,,,,,,,,,,,,,,,,,,,,,"30.08","55","67","0.00","HZ:7 |FU |HZ",,,"66","30.08","CLR:00","30.05","7.00","60","310",,"3",,,,,,,,,,,,,,,,,,,,,,,,,,,,,,,,,,,,,"MET09710/06/22 17:53:03 METAR KBFI 070153Z 31003KT 7SM HZ CLR 19/13 A3008 RMK AO2 SLP187 T01940128 (ND)","FM-15","7",,,,,,,,,,,,,,,,,,,,,,,,,,,"2007-05-17"
"72793524234","2022-10-06T18:53:00","FM-15","7",,,,,,,,,,,,,,,,,,,,,,,,,,,,,,,,,,,,,,,"30.10","55","65","0.00","HZ:7 |FU |HZ","-0.01","3","70","30.09","CLR:00","30.07","10.00","59","300",,"3",,,,,,,,,,,,,,,,,,,,,,,,,,,,,,,,,,,,,"MET09910/06/22 18:53:03 METAR KBFI 070253Z 30003KT 10SM HZ CLR 18/13 A3010 RMK AO2 SLP191 T01830128 53002","FM-15","7",,,,,,,,,,,,,,,,,,,,,,,,,,,"2007-05-17"
"72793524234","2022-10-06T19:53:00","FM-15","7",,,,,,,,,,,,,,,,,,,,,,,,,,,,,,,,,,,,,,,"30.11","55","64","0.00","HZ:7 |FU |HZ",,,"73","30.10","CLR:00","30.08","10.00","59","310",,"3",,,,,,,,,,,,,,,,,,,,,,,,,,,,,,,,,,,,,"MET09810/06/22 19:53:03 METAR KBFI 070353Z 31003KT 10SM HZ CLR 18/13 A3011 RMK AO2 SLP194 T01780128 (CT)","FM-15","7",,,,,,,,,,,,,,,,,,,,,,,,,,,"2007-05-17"
"72793524234","2022-10-06T20:53:00","FM-15","4",,,,,,,,,,,,,,,,,,,,,,,,,,,,,,,,,,,,,,,"30.11","55","62",,"|FU |",,,"78","30.11",,,"10.00",,"000",,"0",,,,,,,,,,,,,,,,,,,,,,,,,,,,,,,,,,,,,"MET076METAR KBFI 070453Z 00000KT 10SM HZ CLR 17/13 A3011 RMK AO2 SLP197 T01670128=","FM-15","4",,,,,,,,,,,,,,,,,,,,,,,,,,,"2007-05-17"
"72793524234","2022-10-06T21:53:00","FM-15","4",,,,,,,,,,,,,,,,,,,,,,,,,,,,,,,,,,,,,,,"30.12","55","61",,"|FU |","-0.03","2","81","30.12",,,"10.00",,"000",,"0",,,,,,,,,,,,,,,,,,,,,,,,,,,,,,,,,,,,,"MET094METAR KBFI 070553Z 00000KT 10SM HZ CLR 16/13 A3012 RMK AO2 SLP200 T01610128 10217 20161 52009=","FM-15","4",,,,,,,,,,,,,,,,,,,,,,,,,,,"2007-05-17"
"72793524234","2022-10-06T22:53:00","FM-15","4",,,,,,,,,,,,,,,,,,,,,,,,,,,,,,,,,,,,,,,"30.13","55","60",,"|FU |",,,"84","30.13",,,"10.00",,"000",,"0",,,,,,,,,,,,,,,,,,,,,,,,,,,,,,,,,,,,,"MET076METAR KBFI 070653Z 00000KT 10SM HZ CLR 16/13 A3013 RMK AO2 SLP202 T01560128=","FM-15","4",,,,,,,,,,,,,,,,,,,,,,,,,,,"2007-05-17"
"72793524234","2022-10-06T23:53:00","FM-15","7",,,,,,,,,,,,,,,,,,,,,,,,,,,,,,,,,,,,,,,"30.13","54","58","0.00","HZ:7 |FU |HZ",,,"87","30.13","CLR:00","30.10","10.00","56","000",,"0",,,,,,,,,,,,,,,,,,,,,,,,,,,,,,,,,,,,,"MET10810/06/22 23:53:03 METAR KBFI 070753Z 00000KT 10SM HZ CLR 14/12 A3013 RMK AO2 SLP204 T01440122 402220111 (CT)","FM-15","7",,,,,,,,,,,,,,,,,,,,,,,,,,,"2007-05-17"
"72793524234","2022-10-06T23:59:00","SOD  ","6",,,,,,,,,,,,,,,,,,"62",,,"30.11",,"2.5","0","6.1","3","72","52","300","12","0.00",,,"310","8","FG BR HZ",,,,,,,,,,,,,,,,,,,,,,,,,,,,,,,,,,,,,,,,,,,,,,,,,,,,,,,"SOD73024 HR PRECIPITATION (IN):0.00  24 HR MAX TEMP (F):72 24 HR MAX TEMP TIME (LST):1444 24 HR MIN TEMP (F):52 24 HR MIN TEMP TIME (LST):0057 AVERAGE STATION PRESSURE:30.105 MINIMUM SEA LEVEL PRESSURE:30.08 TIME OF OCCURRENCE:1804 PEAK WIND SPEED (MPH):12  PEAK WIND DIR (DEG):300 PEAK WIND TIME (LST):1600  FASTEST 2MIN SPEED (MPH):8  FASTEST 2MIN DIR (DEG):310 FASTEST 2MIN TIME (LST):1601 AVERAGE WIND SPEED (MPH):2.5  24 HR AVG TEMP (F):62 HEATING DEGREE DAYS:3   COOLING DEGREE DAYS:0   LATEST DAY MAX TEMP (0700-1900 LST):72  LATEST NIGHT MIN TEMP(1900-0800 LST):52 HOURLY INCREMENTAL PRECIPITATION VALUES (IN):.00 0.00 0.00 0.00 0.00 0.00 0.00 0.00 0.00 0.00 0.00 0.00 0.00 0.00 0.00 0.00 0.00 0.00 0.00 0.00 0.00 0.00 0.00 0.00","SOD  ","6",,,,,,,,,,,,,,,,,,,,,,,,,"0615","1739","2007-05-17"
"72793524234","2022-10-07T00:53:00","FM-15","7",,,,,,,,,,,,,,,,,,,,,,,,,,,,,,,,,,,,,,,"30.15","54","57","0.00","HZ:7 |FU |HZ","-0.02","3","90","30.14","CLR:00","30.12","10.00","55","000",,"0",,,,,,,,,,,,,,,,,,,,,,,,,,,,,,,,,,,,,"MET10410/07/22 00:53:02 METAR KBFI 070853Z 00000KT 10SM HZ CLR 14/12 A3015 RMK AO2 SLP207 T01390122 53007 (CT)","FM-15","7",,,,,,,,,,,,,,,,,,,,,,,,,,,"2007-05-17"
"72793524234","2022-10-07T01:53:00","FM-15","7",,,,,,,,,,,,,,,,,,,,,,,,,,,,,,,,,,,,,,,"30.16","54","56","0.00","HZ:7 |FU |HZ",,,"93","30.16","CLR:00","30.13","9.00","55","000",,"0",,,,,,,,,,,,,,,,,,,,,,,,,,,,,,,,,,,,,"MET09710/07/22 01:53:02 METAR KBFI 070953Z 00000KT 9SM HZ CLR 13/12 A3016 RMK AO2 SLP212 T01330122 (CT)","FM-15","7",,,,,,,,,,,,,,,,,,,,,,,,,,,"2007-05-17"
"72793524234","2022-10-07T02:53:00","FM-15","7",,,,,,,,,,,,,,,,,,,,,,,,,,,,,,,,,,,,,,,"30.17","54","56","0.00","BR:1 ||",,,"93","30.17","CLR:00","30.14","6.00","55","000",,"0",,,,,,,,,,,,,,,,,,,,,,,,,,,,,,,,,,,,,"MET09710/07/22 02:53:02 METAR KBFI 071053Z 00000KT 6SM BR CLR 13/12 A3017 RMK AO2 SLP216 T01330122 (CT)","FM-15","7",,,,,,,,,,,,,,,,,,,,,,,,,,,"2007-05-17"
"72793524234","2022-10-07T03:53:00","FM-15","7",,,,,,,,,,,,,,,,,,,,,,,,,,,,,,,,,,,,,,,"30.18","53","55","0.00",,"-0.03","1","93","30.18","CLR:00","30.15","7.00","54","000",,"0",,,,,,,,,,,,,,,,,,,,,,,,,,,,,,,,,,,,,"MET11210/07/22 03:53:02 METAR KBFI 071153Z 00000KT 7SM CLR 13/12 A3018 RMK AO2 SLP219 T01280117 10161 20128 51011 (CT)","FM-15","7",,,,,,,,,,,,,,,,,,,,,,,,,,,"2007-05-17"
"72793524234","2022-10-07T04:53:00","FM-15","7",,,,,,,,,,,,,,,,,,,,,,,,,,,,,,,,,,,,,,,"30.19","53","55","0.00",,,,"93","30.19","CLR:00","30.16","7.00","54","000",,"0",,,,,,,,,,,,,,,,,,,,,,,,,,,,,,,,,,,,,"MET09410/07/22 04:53:02 METAR KBFI 071253Z 00000KT 7SM CLR 13/12 A3019 RMK AO2 SLP222 T01280117 (KN)","FM-15","7",,,,,,,,,,,,,,,,,,,,,,,,,,,"2007-05-17"
"72793524234","2022-10-07T05:53:00","FM-15","7",,,,,,,,,,,,,,,,,,,,,,,,,,,,,,,,,,,,,,,"30.20","53","54","0.00","BR:1 ||",,,"97","30.20","SCT:04 200","30.17","6.00","53","000",,"0",,,,,,,,,,,,,,,,,,,,,,,,,,,,,,,,,,,,,"MET10010/07/22 05:53:02 METAR KBFI 071353Z 00000KT 6SM BR SCT200 12/12 A3020 RMK AO2 SLP226 T01220117 (SN)","FM-15","7",,,,,,,,,,,,,,,,,,,,,,,,,,,"2007-05-17"
"72793524234","2022-10-07T06:53:00","FM-15","7",,,,,,,,,,,,,,,,,,,,,,,,,,,,,,,,,,,,,,,"30.21","53","54","0.00","BR:1 ||","-0.03","3","97","30.21","CLR:00","30.18","4.00","53","000",,"0",,,,,,,,,,,,,,,,,,,,,,,,,,,,,,,,,,,,,"MET10310/07/22 06:53:02 METAR KBFI 071453Z 00000KT 4SM BR CLR 12/12 A3021 RMK AO2 SLP229 T01220117 53010 (SN)","FM-15","7",,,,,,,,,,,,,,,,,,,,,,,,,,,"2007-05-17"
"72793524234","2022-10-07T07:53:00","FM-15","7",,,,,,,,,,,,,,,,,,,,,,,,,,,,,,,,,,,,,,,"30.22","55","57","0.00","BR:1 ||",,,"93","30.22","CLR:00","30.19","4.00","56","000",,"0",,,,,,,,,,,,,,,,,,,,,,,,,,,,,,,,,,,,,"MET09710/07/22 07:53:02 METAR KBFI 071553Z 00000KT 4SM BR CLR 14/13 A3022 RMK AO2 SLP232 T01390128 (SN)","FM-15","7",,,,,,,,,,,,,,,,,,,,,,,,,,,"2007-05-17"
"72793524234","2022-10-07T08:53:00","FM-15","7",,,,,,,,,,,,,,,,,,,,,,,,,,,,,,,,,,,,,,,"30.22","56","60","0.00","BR:1 ||",,,"86","30.22","CLR:00","30.19","5.00","58","000",,"0",,,,,,,,,,,,,,,,,,,,,,,,,,,,,,,,,,,,,"MET09710/07/22 08:53:02 METAR KBFI 071653Z 00000KT 5SM BR CLR 16/13 A3022 RMK AO2 SLP232 T01560133 (SN)","FM-15","7",,,,,,,,,,,,,,,,,,,,,,,,,,,"2007-05-17"
"72793524234","2022-10-07T09:53:00","FM-15","7",,,,,,,,,,,,,,,,,,,,,,,,,,,,,,,,,,,,,,,"30.22","57","66","0.00","HZ:7 |FU |HZ","-0.01","0","73","30.21","CLR:00","30.19","6.00","61","000",,"0",,,,,,,,,,,,,,,,,,,,,,,,,,,,,,,,,,,,,"MET11510/07/22 09:53:02 METAR KBFI 071753Z 00000KT 6SM HZ CLR 19/14 A3022 RMK AO2 SLP231 T01890139 10189 20117 50002 (SN)","FM-15","7",,,,,,,,,,,,,,,,,,,,,,,,,,,"2007-05-17"
"72793524234","2022-10-07T10:53:00","FM-15","7",,,,,,,,,,,,,,,,,,,,,,,,,,,,,,,,,,,,,,,"30.21","56","67","0.00","HZ:7 |FU |HZ",,,"68","30.20","CLR:00","30.18","6.00","61","290",,"6",,,,,,,,,,,,,,,,,,,,,,,,,,,,,,,,,,,,,"MET09710/07/22 10:53:02 METAR KBFI 071853Z 29005KT 6SM HZ CLR 19/13 A3021 RMK AO2 SLP228 T01940133 (SN)","FM-15","7",,,,,,,,,,,,,,,,,,,,,,,,,,,"2007-05-17"
"72793524234","2022-10-07T11:53:00","FM-15","7",,,,,,,,,,,,,,,,,,,,,,,,,,,,,,,,,,,,,,,"30.19","57","70","0.00",,,,"64","30.19","CLR:00","30.16","7.00","62","300",,"6",,,,,,,,,,,,,,,,,,,,,,,,,,,,,,,,,,,,,"MET09410/07/22 11:53:02 METAR KBFI 071953Z 30005KT 7SM CLR 21/14 A3019 RMK AO2 SLP223 T02110139 (SN)","FM-15","7",,,,,,,,,,,,,,,,,,,,,,,,,,,"2007-05-17"
"72793524234","2022-10-07T12:53:00","FM-15","7",,,,,,,,,,,,,,,,,,,,,,,,,,,,,,,,,,,,,,,"30.17","55","71","0.00",,"+0.04","8","57","30.17","CLR:00","30.14","10.00","62","VRB",,"8",,,,,,,,,,,,,,,,,,,,,,,,,,,,,,,,,,,,,"MET10110/07/22 12:53:02 METAR KBFI 072053Z 32007KT 10SM CLR 22/13 A3017 RMK AO2 SLP217 T02170128 58015 (SN)","FM-15","7",,,,,,,,,,,,,,,,,,,,,,,,,,,"2007-05-17"
"72793524234","2022-10-07T13:53:00","FM-15","7",,,,,,,,,,,,,,,,,,,,,,,,,,,,,,,,,,,,,,,"30.16","54","73","0.00",,,,"51","30.16","CLR:00","30.13","10.00","62","320",,"8",,,,,,,,,,,,,,,,,,,,,,,,,,,,,,,,,,,,,"MET09510/07/22 13:53:02 METAR KBFI 072153Z 32007KT 10SM CLR 23/12 A3016 RMK AO2 SLP212 T02280122 (SN)","FM-15","7",,,,,,,,,,,,,,,,,,,,,,,,,,,"2007-05-17"
"72793524234","2022-10-07T14:53:00","FM-15","7",,,,,,,,,,,,,,,,,,,,,,,,,,,,,,,,,,,,,,,"30.15","54","75","0.00",,,,"48","30.14","CLR:00","30.12","10.00","63","310",,"6",,,,,,,,,,,,,,,,,,,,,,,,,,,,,,,,,,,,,"MET09610/07/22 14:53:02 METAR KBFI 072253Z 31005KT 10SM CLR 24/12 A3015 RMK AO2 SLP208 T02390122 (TWR)","FM-15","7",,,,,,,,,,,,,,,,,,,,,,,,,,,"2007-05-17"
"72793524234","2022-10-07T15:53:00","FM-15","7",,,,,,,,,,,,,,,,,,,,,,,,,,,,,,,,,,,,,,,"30.14","53","74","0.00",,"+0.04","6","48","30.14","CLR:00","30.11","10.00","62","330",,"7",,,,,,,,,,,,,,,,,,,,,,,,,,,,,,,,,,,,,"MET11410/07/22 15:53:02 METAR KBFI 072353Z 33006KT 10SM CLR 23/12 A3014 RMK AO2 SLP206 T02330117 10239 20189 56012 (TWR)","FM-15","7",,,,,,,,,,,,,,,,,,,,,,,,,,,"2007-05-17"
"72793524234","2022-10-07T16:53:00","FM-15","7",,,,,,,,,,,,,,,,,,,,,,,,,,,,,,,,,,,,,,,"30.13","52","72","0.00",,,,"50","30.13","CLR:00","30.10","10.00","61","VRB",,"3",,,,,,,,,,,,,,,,,,,,,,,,,,,,,,,,,,,,,"MET09010/07/22 16:53:01 METAR KBFI 080053Z VRB03KT 10SM CLR 22/11 A3013 RMK AO2 SLP203 T02220111","FM-15","7",,,,,,,,,,,,,,,,,,,,,,,,,,,"2007-05-17"
"72793524234","2022-10-07T17:53:00","FM-15","7",,,,,,,,,,,,,,,,,,,,,,,,,,,,,,,,,,,,,,,"30.14","52","69","0.00",,,,"55","30.13","CLR:00","30.11","9.00","59","000",,"0",,,,,,,,,,,,,,,,,,,,,,,,,,,,,,,,,,,,,"MET08910/07/22 17:53:01 METAR KBFI 080153Z 00000KT 9SM CLR 21/11 A3014 RMK AO2 SLP204 T02060111","FM-15","7",,,,,,,,,,,,,,,,,,,,,,,,,,,"2007-05-17"
"72793524234","2022-10-07T18:53:00","FM-15","6",,,,,,,,,,,,,,,,,,,,,,,,,,,,,,,,,,,,,,,"30.15","53","66","0.00",,"-0.01","3","63","30.15","CLR:00","30.12","10.00","59","000",,"0",,,,,,,,,,,,,,,,,,,,,,,,,,,,,,,,,,,,,"MET10710/07/22 18:53:03 METAR KBFI 080253Z 00000KT 10SM CLR 19/12 A3015 RMK AO2 SLP209 T01890117 53003 FIBI (TWR)","FM-15","6",,,,,,,,,,,,,,,,,,,,,,,,,,,"2007-05-17"
"72793524234","2022-10-07T19:53:00","FM-15","7",,,,,,,,,,,,,,,,,,,,,,,,,,,,,,,,,,,,,,,"30.16","52","64","0.00",,,,"65","30.16","CLR:00","30.13","9.00","57","000",,"0",,,,,,,,,,,,,,,,,,,,,,,,,,,,,,,,,,,,,"MET08910/07/22 19:53:02 METAR KBFI 080353Z 00000KT 9SM CLR 18/11 A3016 RMK AO2 SLP212 T01780111","FM-15","7",,,,,,,,,,,,,,,,,,,,,,,,,,,"2007-05-17"
"72793524234","2022-10-07T20:53:00","FM-15","7",,,,,,,,,,,,,,,,,,,,,,,,,,,,,,,,,,,,,,,"30.17","52","62","0.00",,,,"70","30.16","CLR:00","30.14","8.00","57","000",,"0",,,,,,,,,,,,,,,,,,,,,,,,,,,,,,,,,,,,,"MET08910/07/22 20:53:02 METAR KBFI 080453Z 00000KT 8SM CLR 17/11 A3017 RMK AO2 SLP215 T01670111","FM-15","7",,,,,,,,,,,,,,,,,,,,,,,,,,,"2007-05-17"
"72793524234","2022-10-07T21:53:00","FM-15","7",,,,,,,,,,,,,,,,,,,,,,,,,,,,,,,,,,,,,,,"30.18","53","61","0.00",,"-0.03","3","75","30.18","CLR:00","30.15","9.00","57","000",,"0",,,,,,,,,,,,,,,,,,,,,,,,,,,,,,,,,,,,,"MET10710/07/22 21:53:02 METAR KBFI 080553Z 00000KT 9SM CLR 16/12 A3018 RMK AO2 SLP219 T01610117 10233 20161 53010","FM-15","7",,,,,,,,,,,,,,,,,,,,,,,,,,,"2007-05-17"
"72793524234","2022-10-07T22:53:00","FM-15","7",,,,,,,,,,,,,,,,,,,,,,,,,,,,,,,,,,,,,,,"30.18","53","60","0.00","FU:3 |HZ FU |FU",,,"78","30.18","CLR:00","30.15","10.00","56","340",,"3",,,,,,,,,,,,,,,,,,,,,,,,,,,,,,,,,,,,,"MET09310/07/22 22:53:02 METAR KBFI 080653Z 34003KT 10SM FU CLR 16/12 A3018 RMK AO2 SLP221 T01560117","FM-15","7",,,,,,,,,,,,,,,,,,,,,,,,,,,"2007-05-17"
"72793524234","2022-10-07T23:53:00","FM-15","7",,,,,,,,,,,,,,,,,,,,,,,,,,,,,,,,,,,,,,,"30.18","53","59","0.00","* |HZ |",,,"81","30.18","CLR:00","30.15",,"56",,,,,,,,,,,,,,,,,,,,,,,,,,,,,,,,,,,,,,,,"MET09910/07/22 23:53:02 METAR KBFI 080753Z      KT U CLR 15/12 A3018 RMK AO2 SLP220 T01500117 402390117 $","FM-15","7",,,,,,,,,,,,,,,,,,,,,,,,,,,"2007-05-17"
"72793524234","2022-10-07T23:59:00","SOD  ","6",,,,,,,,,,,,,,,,,,"64",,,"30.14",,"2.1","0","8.4","1","75","53","320","15","0.00",,,"310","9","BR HZ",,,,,,,,,,,,,,,,,,,,,,,,,,,,,,,,,,,,,,,,,,,,,,,,,,,,,,,"SOD73024 HR PRECIPITATION (IN):0.00  24 HR MAX TEMP (F):75 24 HR MAX TEMP TIME (LST):1501 24 HR MIN TEMP (F):53 24 HR MIN TEMP TIME (LST):0608 AVERAGE STATION PRESSURE:30.140 MINIMUM SEA LEVEL PRESSURE:30.13 TIME OF OCCURRENCE:1807 PEAK WIND SPEED (MPH):15  PEAK WIND DIR (DEG):320 PEAK WIND TIME (LST):1155  FASTEST 2MIN SPEED (MPH):9  FASTEST 2MIN DIR (DEG):310 FASTEST 2MIN TIME (LST):1352 AVERAGE WIND SPEED (MPH):2.1  24 HR AVG TEMP (F):64 HEATING DEGREE DAYS:1   COOLING DEGREE DAYS:0   LATEST DAY MAX TEMP (0700-1900 LST):75  LATEST NIGHT MIN TEMP(1900-0800 LST):53 HOURLY INCREMENTAL PRECIPITATION VALUES (IN):.00 0.00 0.00 0.00 0.00 0.00 0.00 0.00 0.00 0.00 0.00 0.00 0.00 0.00 0.00 0.00 0.00 0.00 0.00 0.00 0.00 0.00 0.00 0.00","SOD  ","6",,,,,,,,,,,,,,,,,,,,,,,,,"0616","1737","2007-05-17"
"72793524234","2022-10-08T00:53:00","FM-15","7",,,,,,,,,,,,,,,,,,,,,,,,,,,,,,,,,,,,,,,"30.19","53","57","0.00","FU:3 |HZ FU |FU","-0.01","1","87","30.19","CLR:00","30.16","9.00","55","000",,"0",,,,,,,,,,,,,,,,,,,,,,,,,,,,,,,,,,,,,"MET10610/08/22 00:53:02 METAR KBFI 080853Z 00000KT 9SM FU CLR 14/12 A3019 RMK AO2 SLP222 T01390117 51002 $ (TWR)","FM-15","7",,,,,,,,,,,,,,,,,,,,,,,,,,,"2007-05-17"
"72793524234","2022-10-08T01:53:00","FM-15","7",,,,,,,,,,,,,,,,,,,,,,,,,,,,,,,,,,,,,,,"30.19","53","56","0.00","FU:3 |HZ FU |FU",,,"90","30.18","CLR:00","30.16","9.00","54","000",,"0",,,,,,,,,,,,,,,,,,,,,,,,,,,,,,,,,,,,,"MET10010/08/22 01:53:02 METAR KBFI 080953Z 00000KT 9SM FU CLR 13/12 A3019 RMK AO2 SLP221 T01330117 $ (TWR)","FM-15","7",,,,,,,,,,,,,,,,,,,,,,,,,,,"2007-05-17"
"72793524234","2022-10-08T02:53:00","FM-15","7",,,,,,,,,,,,,,,,,,,,,,,,,,,,,,,,,,,,,,,"30.19","52","54","0.00","FU:3 |HZ FU |FU",,,"93","30.19","CLR:00","30.16","8.00","53","000",,"0",,,,,,,,,,,,,,,,,,,,,,,,,,,,,,,,,,,,,"MET10010/08/22 02:53:02 METAR KBFI 081053Z 00000KT 8SM FU CLR 12/11 A3019 RMK AO2 SLP222 T01220111 $ (TWR)","FM-15","7",,,,,,,,,,,,,,,,,,,,,,,,,,,"2007-05-17"
"72793524234","2022-10-08T03:53:00","FM-15","7",,,,,,,,,,,,,,,,,,,,,,,,,,,,,,,,,,,,,,,"30.19","52","54","0.00","FU:3 |HZ FU |FU","+0.00","8","93","30.18","CLR:00","30.16","8.00","53","000",,"0",,,,,,,,,,,,,,,,,,,,,,,,,,,,,,,,,,,,,"MET11210/08/22 03:53:02 METAR KBFI 081153Z 00000KT 8SM FU CLR 12/11 A3019 RMK AO2 SLP221 T01220111 10161 20117 58001 $","FM-15","7",,,,,,,,,,,,,,,,,,,,,,,,,,,"2007-05-17"
"72793524234","2022-10-08T04:53:00","FM-15","7",,,,,,,,,,,,,,,,,,,,,,,,,,,,,,,,,,,,,,,"30.19","52","53","0.00","BR:1 FU:3 |HZ FU |FU",,,"96","30.19","CLR:00","30.16","4.00","52","000",,"0",,,,,,,,,,,,,,,,,,,,,,,,,,,,,,,,,,,,,"MET09710/08/22 04:53:02 METAR KBFI 081253Z 00000KT 4SM BR FU CLR 12/11 A3019 RMK AO2 SLP223 T01170111 $","FM-15","7",,,,,,,,,,,,,,,,,,,,,,,,,,,"2007-05-17"
"72793524234","2022-10-08T05:53:00","FM-15","7",,,,,,,,,,,,,,,,,,,,,,,,,,,,,,,,,,,,,,,"30.19","52","54","0.00","FU:3 |HZ FU |FU",,,"93","30.19","CLR:00","30.16","10.00","53","000",,"0",,,,,,,,,,,,,,,,,,,,,,,,,,,,,,,,,,,,,"MET09510/08/22 05:53:02 METAR KBFI 081353Z 00000KT 10SM FU CLR 12/11 A3019 RMK AO2 SLP224 T01220111 $","FM-15","7",,,,,,,,,,,,,,,,,,,,,,,,,,,"2007-05-17"
"72793524234","2022-10-08T06:53:00","FM-15","7",,,,,,,,,,,,,,,,,,,,,,,,,,,,,,,,,,,,,,,"30.20","52","53","0.00","FU:3 |HZ FU |FU","-0.01","1","96","30.19","CLR:00","30.17","9.00","52","000",,"0",,,,,,,,,,,,,,,,,,,,,,,,,,,,,,,,,,,,,"MET10010/08/22 06:53:02 METAR KBFI 081453Z 00000KT 9SM FU CLR 12/11 A3020 RMK AO2 SLP225 T01170111 51004 $","FM-15","7",,,,,,,,,,,,,,,,,,,,,,,,,,,"2007-05-17"
"72793524234","2022-10-08T07:53:00","FM-15","7",,,,,,,,,,,,,,,,,,,,,,,,,,,,,,,,,,,,,,,"30.21","54","56","0.00","FU:3 |HZ FU |FU",,,"93","30.20","CLR:00","30.18","9.00","55","000",,"0",,,,,,,,,,,,,,,,,,,,,,,,,,,,,,,,,,,,,"MET09410/08/22 07:53:02 METAR KBFI 081553Z 00000KT 9SM FU CLR 13/12 A3021 RMK AO2 SLP228 T01330122 $","FM-15","7",,,,,,,,,,,,,,,,,,,,,,,,,,,"2007-05-17"
"72793524234","2022-10-08T08:53:00","FM-15","7",,,,,,,,,,,,,,,,,,,,,,,,,,,,,,,,,,,,,,,"30.21","55","59","0.00","FU:3 |HZ FU |FU",,,"87","30.21","CLR:00","30.18","10.00","57","000",,"0",,,,,,,,,,,,,,,,,,,,,,,,,,,,,,,,,,,,,"MET09310/08/22 08:53:02 METAR KBFI 081653Z 00000KT 10SM FU CLR 15/13 A3021 RMK AO2 SLP229 T01500128","FM-15","7",,,,,,,,,,,,,,,,,,,,,,,,,,,"2007-05-17"
"72793524234","2022-10-08T09:53:00","FM-15","7",,,,,,,,,,,,,,,,,,,,,,,,,,,,,,,,,,,,,,,"30.20","55","63","0.00","FU:3 |HZ FU |FU","-0.01","0","75","30.20","CLR:00","30.17","10.00","58","000",,"0",,,,,,,,,,,,,,,,,,,,,,,,,,,,,,,,,,,,,"MET11110/08/22 09:53:02 METAR KBFI 081753Z 00000KT 10SM FU CLR 17/13 A3020 RMK AO2 SLP227 T01720128 10172 20117 50002","FM-15","7",,,,,,,,,,,,,,,,,,,,,,,,,,,"2007-05-17"
"72793524234","2022-10-08T10:53:00","FM-15","7",,,,,,,,,,,,,,,,,,,,,,,,,,,,,,,,,,,,,,,"30.19","55","66","0.00","FU:3 |HZ FU |FU",,,"68","30.18","CLR:00","30.16","10.00","60","290",,"6",,,,,,,,,,,,,,,,,,,,,,,,,,,,,,,,,,,,,"MET09310/08/22 10:53:02 METAR KBFI 081853Z 29005KT 10SM FU CLR 19/13 A3019 RMK AO2 SLP221 T01890128","FM-15","7",,,,,,,,,,,,,,,,,,,,,,,,,,,"2007-05-17"
"72793524234","2022-10-08T11:53:00","FM-15","7",,,,,,,,,,,,,,,,,,,,,,,,,,,,,,,,,,,,,,,"30.17","55","69","0.00","FU:3 |HZ FU |FU",,,"61","30.17","CLR:00","30.14","10.00","61","300",,"5",,,,,,,,,,,,,,,,,,,,,,,,,,,,,,,,,,,,,"MET09310/08/22 11:53:02 METAR KBFI 081953Z 30004KT 10SM FU CLR 21/13 A3017 RMK AO2 SLP216 T02060128","FM-15","7",,,,,,,,,,,,,,,,,,,,,,,,,,,"2007-05-17"
"72793524234","2022-10-08T12:53:00","FM-15","7",,,,,,,,,,,,,,,,,,,,,,,,,,,,,,,,,,,,,,,"30.15","55","71","0.00","FU:3 |HZ FU |FU","+0.06","8","57","30.14","CLR:00","30.12","10.00","62","300",,"8",,,,,,,,,,,,,,,,,,,,,,,,,,,,,,,,,,,,,"MET10110/08/22 12:53:02 METAR KBFI 082053Z 30007KT 10SM FU CLR 22/13 A3015 RMK AO2 SLP208 T02170128 58019 $","FM-15","7",,,,,,,,,,,,,,,,,,,,,,,,,,,"2007-05-17"
"72793524234","2022-10-08T13:53:00","FM-15","7",,,,,,,,,,,,,,,,,,,,,,,,,,,,,,,,,,,,,,,"30.13","53","72","0.00","FU:3 |HZ FU |FU",,,"52","30.13","CLR:00","30.10","10.00","61","300",,"6",,,,,,,,,,,,,,,,,,,,,,,,,,,,,,,,,,,,,"MET09510/08/22 13:53:02 METAR KBFI 082153Z 30005KT 10SM FU CLR 22/12 A3013 RMK AO2 SLP202 T02220117 $","FM-15","7",,,,,,,,,,,,,,,,,,,,,,,,,,,"2007-05-17"
"72793524234","2022-10-08T14:53:00","FM-15","7",,,,,,,,,,,,,,,,,,,,,,,,,,,,,,,,,,,,,,,"30.11","52","73","0.00","FU:3 |HZ FU |FU",,,"48","30.11","CLR:00","30.08","9.00","61","310",,"6",,,,,,,,,,,,,,,,,,,,,,,,,,,,,,,,,,,,,"MET09410/08/22 14:53:02 METAR KBFI 082253Z 31005KT 9SM FU CLR 23/11 A3011 RMK AO2 SLP196 T02280111 $","FM-15","7",,,,,,,,,,,,,,,,,,,,,,,,,,,"2007-05-17"
"72793524234","2022-10-08T15:53:00","FM-15","7",,,,,,,,,,,,,,,,,,,,,,,,,,,,,,,,,,,,,,,"30.10","52","72","0.00","HZ:7 FU:3 |HZ FU |FU HZ","+0.04","6","50","30.10","CLR:00","30.07","6.00","61","320",,"7",,,,,,,,,,,,,,,,,,,,,,,,,,,,,,,,,,,,,"MET11510/08/22 15:53:02 METAR KBFI 082353Z 32006KT 6SM HZ FU CLR 22/11 A3010 RMK AO2 SLP193 T02220111 10233 20172 56015 $","FM-15","7",,,,,,,,,,,,,,,,,,,,,,,,,,,"2007-05-17"
"72793524234","2022-10-08T16:53:00","FM-15","7",,,,,,,,,,,,,,,,,,,,,,,,,,,,,,,,,,,,,,,"30.10","53","69","0.00","FU:3 |HZ FU |FU",,,"57","30.09","CLR:00","30.07","9.00","60","320",,"5",,,,,,,,,,,,,,,,,,,,,,,,,,,,,,,,,,,,,"MET09410/08/22 16:53:01 METAR KBFI 090053Z 32004KT 9SM FU CLR 21/12 A3010 RMK AO2 SLP191 T02060117 $","FM-15","7",,,,,,,,,,,,,,,,,,,,,,,,,,,"2007-05-17"
"72793524234","2022-10-08T17:53:00","FM-15","7",,,,,,,,,,,,,,,,,,,,,,,,,,,,,,,,,,,,,,,"30.10","53","66","0.00","FU:3 |HZ FU |FU",,,"63","30.10","CLR:00","30.07","10.00","59","000",,"0",,,,,,,,,,,,,,,,,,,,,,,,,,,,,,,,,,,,,"MET09510/08/22 17:53:01 METAR KBFI 090153Z 00000KT 10SM FU CLR 19/12 A3010 RMK AO2 SLP192 T01890117 $","FM-15","7",,,,,,,,,,,,,,,,,,,,,,,,,,,"2007-05-17"
"72793524234","2022-10-08T18:53:00","FM-15","7",,,,,,,,,,,,,,,,,,,,,,,,,,,,,,,,,,,,,,,"30.11","53","64","0.00","FU:3 |HZ FU |FU","-0.00","3","68","30.10","CLR:00","30.08","10.00","58","000",,"0",,,,,,,,,,,,,,,,,,,,,,,,,,,,,,,,,,,,,"MET10110/08/22 18:53:01 METAR KBFI 090253Z 00000KT 10SM FU CLR 18/12 A3011 RMK AO2 SLP194 T01780117 53001 $","FM-15","7",,,,,,,,,,,,,,,,,,,,,,,,,,,"2007-05-17"
"72793524234","2022-10-08T19:53:00","FM-15","7",,,,,,,,,,,,,,,,,,,,,,,,,,,,,,,,,,,,,,,"30.11","53","62","0.00","FU:3 |HZ FU |FU",,,"73","30.11","CLR:00","30.08","10.00","57","000",,"0",,,,,,,,,,,,,,,,,,,,,,,,,,,,,,,,,,,,,"MET09510/08/22 19:53:01 METAR KBFI 090353Z 00000KT 10SM FU CLR 17/12 A3011 RMK AO2 SLP195 T01670117 $","FM-15","7",,,,,,,,,,,,,,,,,,,,,,,,,,,"2007-05-17"
"72793524234","2022-10-08T20:53:00","FM-15","7",,,,,,,,,,,,,,,,,,,,,,,,,,,,,,,,,,,,,,,"30.12","53","61","0.00","FU:3 |HZ FU |FU",,,"75","30.11","CLR:00","30.09","9.00","57","000",,"0",,,,,,,,,,,,,,,,,,,,,,,,,,,,,,,,,,,,,"MET09410/08/22 20:53:01 METAR KBFI 090453Z 00000KT 9SM FU CLR 16/12 A3012 RMK AO2 SLP197 T01610117 $","FM-15","7",,,,,,,,,,,,,,,,,,,,,,,,,,,"2007-05-17"
"72793524234","2022-10-08T21:53:00","FM-15","7",,,,,,,,,,,,,,,,,,,,,,,,,,,,,,,,,,,,,,,"30.12","53","61","0.00","FU:3 |HZ FU |FU","-0.02","3","75","30.12","CLR:00","30.09","10.00","57","000",,"0",,,,,,,,,,,,,,,,,,,,,,,,,,,,,,,,,,,,,"MET11310/08/22 21:53:01 METAR KBFI 090553Z 00000KT 10SM FU CLR 16/12 A3012 RMK AO2 SLP200 T01610117 10222 20156 53006 $","FM-15","7",,,,,,,,,,,,,,,,,,,,,,,,,,,"2007-05-17"
"72793524234","2022-10-08T22:53:00","FM-15","7",,,,,,,,,,,,,,,,,,,,,,,,,,,,,,,,,,,,,,,"30.12","52","59","0.00","FU:3 |HZ FU |FU",,,"78","30.12","CLR:00","30.09","9.00","55","000",,"0",,,,,,,,,,,,,,,,,,,,,,,,,,,,,,,,,,,,,"MET09410/08/22 22:53:01 METAR KBFI 090653Z 00000KT 9SM FU CLR 15/11 A3012 RMK AO2 SLP200 T01500111 $","FM-15","7",,,,,,,,,,,,,,,,,,,,,,,,,,,"2007-05-17"
"72793524234","2022-10-08T23:53:00","FM-15","7",,,,,,,,,,,,,,,,,,,,,,,,,,,,,,,,,,,,,,,"30.13","53","57","0.00","FU:3 |HZ FU |FU",,,"87","30.13","CLR:00","30.10","9.00","55","000",,"0",,,,,,,,,,,,,,,,,,,,,,,,,,,,,,,,,,,,,"MET10410/08/22 23:53:02 METAR KBFI 090753Z 00000KT 9SM FU CLR 14/12 A3013 RMK AO2 SLP202 T01390117 402330117 $","FM-15","7",,,,,,,,,,,,,,,,,,,,,,,,,,,"2007-05-17"
"72793524234","2022-10-08T23:59:00","SOD  ","6",,,,,,,,,,,,,,,,,,"64",,,"30.12",,"1.7","0","8.7","1","74","53","310","18","0.00",,,"320","10","BR HZ",,,,,,,,,,,,,,,,,,,,,,,,,,,,,,,,,,,,,,,,,,,,,,,,,,,,,,,"SOD75324 HR PRECIPITATION (IN): 0.00 WEATHER(CODE):1,8  24 HR MAX TEMP (F):74 24 HR MAX TEMP TIME (LST):1452 24 HR MIN TEMP (F):53 24 HR MIN TEMP TIME (LST):0717 AVERAGE STATION PRESSURE(D):30.123 MINIMUM SEA LEVEL PRESSURE:30.09 TIME OF OCCURRENCE:1739 PEAK WIND SPEED (MPH):18  PEAK WIND DIR (DEG):310 PEAK WIND TIME (LST):1520  FASTEST 2MIN SPEED (MPH):10 FASTEST 2MIN DIR (DEG):320 FASTEST 2MIN TIME (LST):1525 AVERAGE WIND SPEED (MPH): 1.7 24 HR AVG TEMP (F):64 HEATING DEGREE DAYS:  1 COOLING DEGREE DAYS:  0 LATEST DAY MAX TEMP (0700-1900 LST): 74 LATEST NIGHT MIN TEMP(1900-0800 LST):53 HOURLY INCREMENTAL PRECIPITATION VALUES (IN):0.00 0.00 0.00 0.00 0.00 0.00 0.00 0.00 0.00 0.00 0.00 0.00 0.00 0.00 0.00 0.00 0.00 0.00 0.00 0.00 0.00 0.00 0.00 0.00","SOD  ","6",,,,,,,,,,,,,,,,,,,,,,,,,"0618","1735","2007-05-17"
